{"type":"FeatureCollection","crs":{"type":"name","properties":{"name":"urn:ogc:def:crs:OGC:1.3:CRS84"}},"features":[{"type":"Feature","properties":{"shapeName":"the Argentine Republic","shapeISO":"ARG","shapeID":"23045417B36938286673287","shapeGroup":"ARG","shapeType":"ADM0"},"geometry":{"type":"MultiPolygon","coordinates":[[[[-64.45856,-54.66782],[-64.36865,-54.65348],[-64.2555,-54.63195],[-64.15164,-54.61849],[-64.00439,-54.6131],[-63.88193,-54.60323],[-63.79822,-54.58706],[-63.78737,-54.56191],[-63.82458,-54.53224],[-63.91448,-54.52324],[-64.03384,-54.52144],[-64.16714,-54.52414],[-64.29425,-54.52954],[-64.39501,-54.54123],[-64.50816,-54.56011],[-64.58722,-54.58347],[-64.65077,-54.614],[-64.62442,-54.65706],[-64.53916,-54.66782],[-64.45856,-54.66782]]],[[[-65.71257,-54.47463],[-65.91098,-54.43408],[-66.2489,-54.34201],[-66.53567,-54.20534],[-66.70463,-54.12548],[-66.82088,-54.10095],[-67.03789,-54.0218],[-67.43936,-53.84385],[-67.63467,-53.71378],[-67.76798,-53.65411],[-67.91369,-53.54925],[-68.01599,-53.46352],[-68.08575,-53.35541],[-68.1338,-53.30357],[-68.18495,-53.28597],[-68.29656,-53.26279],[-68.35081,-53.24054],[-68.37617,-53.15321],[-68.37419,-53.09427],[-68.32558,-53.05792],[-68.25613,-52.99945],[-68.27994,-52.94628],[-68.42987,-52.8351],[-68.55717,-52.75912],[-68.55959,-52.89376],[-68.5499,-53.05274],[-68.5281,-53.20098],[-68.50117,-53.54465],[-68.47482,-53.75688],[-68.43607,-54.13508],[-68.39247,-54.52346],[-68.36583,-54.6932],[-68.23146,-54.6956],[-68.07335,-54.68396],[-67.95864,-54.67768],[-67.81603,-54.67768],[-67.67033,-54.69112],[-67.26421,-54.70546],[-66.98519,-54.71978],[-66.87668,-54.73321],[-66.76353,-54.75379],[-66.64572,-54.78509],[-66.52327,-54.81457],[-66.45351,-54.836],[-66.39151,-54.84404],[-66.31556,-54.836],[-66.23805,-54.80832],[-66.19155,-54.78598],[-66.1466,-54.77257],[-65.91098,-54.75737],[-65.85518,-54.72963],[-65.80248,-54.70725],[-65.62422,-54.70725],[-65.56997,-54.72336],[-65.51261,-54.7341],[-65.42426,-54.72247],[-65.32195,-54.71262],[-65.2429,-54.70635],[-65.184,-54.68575],[-65.12509,-54.63285],[-65.10494,-54.58886],[-65.10029,-54.51874],[-65.14369,-54.47013],[-65.27545,-54.46112],[-65.35141,-54.46833],[-65.44906,-54.48274],[-65.61337,-54.48274],[-65.71257,-54.47463]]],[[[-65.80775,-22.10466],[-65.85438,-22.0541],[-65.9258,-21.96948],[-66.00418,-21.94648],[-66.06072,-21.9336],[-66.08652,-21.90691],[-66.10933,-21.85259],[-66.17183,-21.80931],[-66.23532,-21.80562],[-66.26707,-21.82773],[-66.28393,-21.90599],[-66.31866,-22.09455],[-66.44465,-22.14142],[-66.72341,-22.20297],[-66.77103,-22.23971],[-66.78492,-22.31406],[-66.79286,-22.36728],[-66.80476,-22.43424],[-66.82857,-22.45624],[-66.89603,-22.46633],[-66.9873,-22.49933],[-67.03095,-22.53415],[-67.04484,-22.65871],[-67.11329,-22.71089],[-67.16884,-22.75847],[-67.17678,-22.8106],[-67.13313,-22.86089],[-67.06964,-22.91298],[-66.99722,-22.9888],[-66.99722,-23.03629],[-67.01408,-23.10474],[-67.05773,-23.21328],[-67.08551,-23.32538],[-67.10238,-23.38002],[-67.13313,-23.4756],[-67.15198,-23.53655],[-67.17976,-23.6102],[-67.19761,-23.70652],[-67.23531,-23.79279],[-67.25218,-23.87536],[-67.28095,-23.94429],[-67.33352,-23.99868],[-67.43075,-24.04036],[-67.649,-24.12731],[-67.92181,-24.22867],[-68.13312,-24.30916],[-68.23629,-24.35165],[-68.35137,-24.45735],[-68.45355,-24.55845],[-68.51506,-24.63151],[-68.57557,-24.74508],[-68.57557,-24.79193],[-68.54879,-24.84595],[-68.51407,-24.88285],[-68.46645,-24.91345],[-68.42677,-24.9944],[-68.40097,-25.06721],[-68.39998,-25.1292],[-68.45851,-25.13638],[-68.50216,-25.15704],[-68.53093,-25.23334],[-68.56665,-25.31408],[-68.59839,-25.40641],[-68.60732,-25.48793],[-68.51605,-25.74377],[-68.43966,-25.98658],[-68.41585,-26.06235],[-68.39105,-26.13095],[-68.39998,-26.18527],[-68.47637,-26.25202],[-68.54085,-26.30272],[-68.56168,-26.36585],[-68.56665,-26.49998],[-68.54581,-26.54614],[-68.48232,-26.62421],[-68.37816,-26.75451],[-68.29681,-26.85014],[-68.25712,-26.92535],[-68.25613,-26.9952],[-68.28788,-27.02967],[-68.34542,-27.04823],[-68.41089,-27.06148],[-68.4843,-27.07473],[-68.5101,-27.09593],[-68.53093,-27.14096],[-68.58053,-27.15685],[-68.60434,-27.15332],[-68.63609,-27.13919],[-68.66089,-27.12154],[-68.70752,-27.10476],[-68.75414,-27.11271],[-68.80771,-27.14802],[-68.86525,-27.20627],[-68.8712,-27.2442],[-68.87914,-27.30416],[-68.89501,-27.34558],[-68.94164,-27.39052],[-68.99521,-27.44335],[-69.01505,-27.49529],[-69.03192,-27.55511],[-69.05176,-27.62633],[-69.06862,-27.67554],[-69.08648,-27.72736],[-69.10731,-27.78179],[-69.11227,-27.80022],[-69.1141,-27.80793],[-69.14898,-27.95544],[-69.19561,-27.99311],[-69.27795,-28.01063],[-69.3206,-28.06842],[-69.35136,-28.13405],[-69.41981,-28.20664],[-69.52596,-28.31237],[-69.63409,-28.42061],[-69.65493,-28.45638],[-69.65592,-28.55228],[-69.67675,-28.62284],[-69.7204,-28.67159],[-69.75413,-28.71249],[-69.76703,-28.7612],[-69.75215,-28.81511],[-69.74619,-28.85248],[-69.78389,-28.92978],[-69.81663,-28.98534],[-69.82556,-29.02785],[-69.82258,-29.08162],[-69.79778,-29.12756],[-69.81861,-29.15961],[-69.8702,-29.17607],[-69.91484,-29.19686],[-69.96147,-29.23842],[-70.04579,-29.331],[-70.06564,-29.37856],[-70.05968,-29.42437],[-70.01901,-29.52024],[-69.98131,-29.62291],[-69.95353,-29.70653],[-69.9198,-29.80213],[-69.92278,-29.94493],[-69.92774,-30.04202],[-69.9198,-30.12013],[-69.86524,-30.17418],[-69.83449,-30.21105],[-69.85234,-30.26505],[-69.90095,-30.33443],[-69.96345,-30.42514],[-70.02099,-30.43626],[-70.11921,-30.44824],[-70.14996,-30.48672],[-70.17873,-30.55936],[-70.21742,-30.62682],[-70.24817,-30.70021],[-70.27992,-30.75734],[-70.30174,-30.80251],[-70.32853,-30.87321],[-70.32952,-30.95662],[-70.32059,-31.01616],[-70.29083,-31.05866],[-70.30174,-31.09604],[-70.33349,-31.14445],[-70.36821,-31.19114],[-70.41881,-31.20132],[-70.49123,-31.20217],[-70.51702,-31.22423],[-70.55174,-31.56127],[-70.5567,-31.64491],[-70.53686,-31.7133],[-70.49718,-31.76982],[-70.44559,-31.84401],[-70.394,-31.91899],[-70.32059,-31.92741],[-70.24024,-31.94256],[-70.2075,-32.00736],[-70.21047,-32.05278],[-70.25512,-32.09649],[-70.30174,-32.10237],[-70.34936,-32.1259],[-70.3325,-32.1956],[-70.29877,-32.27784],[-70.27893,-32.32144],[-70.24365,-32.37015],[-70.23825,-32.37759],[-70.16286,-32.4672],[-70.1321,-32.5358],[-70.12218,-32.6077],[-70.11524,-32.72295],[-70.1073,-32.79553],[-70.0706,-32.84722],[-69.98726,-32.9172],[-69.99322,-32.96466],[-70.02496,-33.0279],[-70.05472,-33.09275],[-70.06266,-33.16752],[-70.05671,-33.22812],[-70.01702,-33.28038],[-69.97833,-33.3036],[-69.93369,-33.31687],[-69.88607,-33.29531],[-69.86524,-33.2837],[-69.84044,-33.27955],[-69.81266,-33.2895],[-69.76207,-33.31272],[-69.73231,-33.35085],[-69.74421,-33.40221],[-69.76802,-33.47672],[-69.80969,-33.64205],[-69.85631,-33.76255],[-69.8583,-33.84581],[-69.83945,-33.93392],[-69.82953,-34.04579],[-69.80969,-34.12467],[-69.79977,-34.19198],[-69.81266,-34.27318],[-69.85334,-34.31006],[-69.93865,-34.30924],[-69.99818,-34.32727],[-70.02198,-34.45416],[-70.13706,-34.56779],[-70.21147,-34.64536],[-70.23825,-34.70247],[-70.26603,-34.82146],[-70.29381,-34.9541],[-70.31563,-35.00368],[-70.31563,-35.05811],[-70.33051,-35.15955],[-70.35531,-35.20982],[-70.41285,-35.22765],[-70.51801,-35.24062],[-70.53488,-35.27221],[-70.53785,-35.31594],[-70.51503,-35.3475],[-70.45154,-35.36126],[-70.42873,-35.40008],[-70.41385,-35.44939],[-70.40392,-35.5342],[-70.38408,-35.64715],[-70.37615,-35.73255],[-70.36424,-35.78569],[-70.33547,-35.83476],[-70.32357,-35.88461],[-70.34738,-35.94005],[-70.37317,-35.96816],[-70.37019,-36.03638],[-70.37119,-36.11335],[-70.40194,-36.17103],[-70.5448,-36.18224],[-70.58944,-36.20386],[-70.6321,-36.23827],[-70.67773,-36.29586],[-70.68567,-36.36619],[-70.73229,-36.43806],[-70.77297,-36.45083],[-70.86622,-36.45402],[-70.93566,-36.46599],[-71.00015,-36.50427],[-71.03586,-36.54493],[-71.06364,-36.68428],[-71.12812,-36.73677],[-71.17276,-36.80034],[-71.19062,-36.88688],[-71.19261,-36.97173],[-71.17276,-37.04541],[-71.13705,-37.12297],[-71.10927,-37.18622],[-71.13407,-37.24942],[-71.16582,-37.28968],[-71.1807,-37.35674],[-71.1678,-37.40877],[-71.13011,-37.4647],[-71.12217,-37.51665],[-71.16384,-37.59451],[-71.1936,-37.65108],[-71.18864,-37.71232],[-71.16979,-37.76332],[-71.13507,-37.84797],[-71.09737,-37.91687],[-71.05471,-38.00213],[-71.01205,-38.13802],[-71.02197,-38.3017],[-71.01007,-38.38573],[-70.98328,-38.42615],[-70.90392,-38.48675],[-70.85828,-38.531],[-70.83745,-38.58375],[-70.85233,-38.62561],[-70.88805,-38.6659],[-70.95253,-38.70849],[-71.0686,-38.76808],[-71.25907,-38.86083],[-71.44657,-38.95116],[-71.46046,-38.99435],[-71.46046,-39.04907],[-71.45252,-39.12299],[-71.43863,-39.20068],[-71.42375,-39.29441],[-71.43367,-39.3443],[-71.46344,-39.40258],[-71.5051,-39.47843],[-71.54181,-39.53583],[-71.5428,-39.58096],[-71.56859,-39.61689],[-71.6926,-39.62147],[-71.72732,-39.65891],[-71.74319,-39.72227],[-71.73526,-39.79548],[-71.67673,-39.87242],[-71.6301,-39.92646],[-71.62923,-39.99109],[-71.65403,-40.10975],[-71.80904,-40.12516],[-71.83849,-40.1844],[-71.83849,-40.24713],[-71.81369,-40.30153],[-71.75944,-40.32044],[-71.70054,-40.34053],[-71.68504,-40.37597],[-71.71914,-40.40548],[-71.75479,-40.43498],[-71.80904,-40.47391],[-71.85864,-40.54462],[-71.8912,-40.61408],[-71.91879,-40.68902],[-71.95748,-40.74691],[-71.95351,-40.7965],[-71.89994,-40.88206],[-71.87216,-41.0057],[-71.9168,-41.37896],[-71.91978,-41.51281],[-71.88605,-41.57889],[-71.88605,-41.6286],[-71.92176,-41.67381],[-71.93962,-41.71233],[-71.92573,-41.76193],[-71.90887,-41.80706],[-71.87315,-41.88982],[-71.81462,-41.97469],[-71.79655,-42.00051],[-71.79506,-42.00265],[-71.77593,-42.02999],[-71.74815,-42.11026],[-71.7928,-42.14851],[-72.02494,-42.16175],[-72.07156,-42.1941],[-72.12712,-42.25875],[-72.142,-42.31599],[-72.12414,-42.36365],[-72.09339,-42.4252],[-72.06958,-42.47278],[-72.06363,-42.51886],[-72.0914,-42.56125],[-72.14597,-42.61238],[-72.14101,-42.689],[-72.11422,-42.73856],[-72.08049,-42.80774],[-72.0924,-42.88702],[-72.13406,-42.93933],[-72.14299,-42.98943],[-72.12061,-43.04718],[-72.08341,-43.10379],[-72.0369,-43.13208],[-71.9532,-43.14905],[-71.84159,-43.1547],[-71.72844,-43.19992],[-71.70829,-43.25752],[-71.71914,-43.30378],[-71.77184,-43.34212],[-71.83694,-43.36805],[-71.8788,-43.39621],[-71.89895,-43.43675],[-71.89895,-43.4795],[-71.8695,-43.52335],[-71.81524,-43.56155],[-71.72689,-43.61881],[-71.66178,-43.67041],[-71.66333,-43.70292],[-71.72844,-43.73205],[-71.76099,-43.78243],[-71.75169,-43.82158],[-71.69899,-43.86183],[-71.66953,-43.89088],[-71.62148,-43.95229],[-71.62148,-44.00583],[-71.66488,-44.03481],[-71.74084,-44.10052],[-71.79664,-44.15171],[-71.79354,-44.22284],[-71.78889,-44.30055],[-71.81989,-44.38148],[-71.77184,-44.42356],[-71.18368,-44.45548],[-71.13507,-44.48167],[-71.09638,-44.52413],[-71.08646,-44.55595],[-71.11721,-44.59128],[-71.15987,-44.61176],[-71.18566,-44.69574],[-71.22931,-44.80143],[-71.27891,-44.81902],[-71.33149,-44.81762],[-71.37614,-44.80143],[-71.43863,-44.78101],[-71.49717,-44.77608],[-71.6182,-44.80354],[-71.71939,-44.79932],[-71.78089,-44.80495],[-71.86819,-44.81621],[-72.02791,-44.82536],[-72.08347,-44.84224],[-72.0924,-44.88584],[-72.03783,-44.9308],[-71.9793,-44.97223],[-71.91581,-45.00169],[-71.65391,-45.01081],[-71.58149,-45.03465],[-71.53685,-45.0697],[-71.47038,-45.15231],[-71.39895,-45.19987],[-71.32752,-45.24528],[-71.29082,-45.28997],[-71.29975,-45.3409],[-71.36225,-45.37575],[-71.43467,-45.41546],[-71.47931,-45.44818],[-71.50411,-45.51495],[-71.55867,-45.55317],[-71.6053,-45.56915],[-71.69756,-45.56915],[-71.75212,-45.59623],[-71.79379,-45.65104],[-71.81859,-45.76327],[-71.8176,-45.82828],[-71.80966,-45.86353],[-71.78784,-45.88425],[-71.72633,-45.9091],[-71.6807,-45.94223],[-71.65391,-45.98154],[-71.65183,-46.00368],[-71.65093,-46.01324],[-71.68665,-46.04905],[-71.72137,-46.07727],[-71.82653,-46.1268],[-71.87415,-46.1488],[-71.88803,-46.18659],[-71.87613,-46.22366],[-71.8424,-46.2614],[-71.81661,-46.30596],[-71.80173,-46.35186],[-71.78784,-46.47156],[-71.75708,-46.52073],[-71.72732,-46.57667],[-71.70252,-46.6128],[-71.70351,-46.66253],[-71.73129,-46.71765],[-71.76899,-46.74349],[-71.85399,-46.8009],[-71.93305,-46.85499],[-71.97645,-46.90373],[-71.9997,-46.97887],[-72.00125,-47.04545],[-71.9997,-47.10246],[-71.99195,-47.13727],[-71.9501,-47.16468],[-71.92375,-47.19944],[-71.9284,-47.24576],[-71.947,-47.2647],[-71.9935,-47.27312],[-72.05395,-47.27732],[-72.08186,-47.2973],[-72.09581,-47.33093],[-72.11751,-47.38343],[-72.17331,-47.4212],[-72.26167,-47.45371],[-72.34227,-47.48724],[-72.38257,-47.51237],[-72.37017,-47.549],[-72.33607,-47.58665],[-72.35622,-47.62323],[-72.39807,-47.67127],[-72.41047,-47.70257],[-72.45549,-47.77025],[-72.49219,-47.83156],[-72.51898,-47.88614],[-72.56164,-47.94864],[-72.56957,-47.99845],[-72.51898,-48.03428],[-72.47533,-48.05683],[-72.41779,-48.09395],[-72.38009,-48.15487],[-72.35727,-48.2144],[-72.36819,-48.28707],[-72.39993,-48.36292],[-72.46739,-48.41497],[-72.55965,-48.45578],[-72.63306,-48.48274],[-72.66779,-48.50247],[-72.66624,-48.52428],[-72.64299,-48.64015],[-72.61973,-48.71078],[-72.62128,-48.80683],[-72.64764,-48.85785],[-72.70034,-48.9027],[-72.76234,-48.94039],[-72.86465,-48.95973],[-72.93595,-48.9872],[-72.9995,-49.02076],[-73.03671,-49.08171],[-73.11886,-49.19631],[-73.14521,-49.28536],[-73.18086,-49.34296],[-73.34827,-49.33892],[-73.42113,-49.36114],[-73.46918,-49.39949],[-73.51413,-49.4499],[-73.53118,-49.53649],[-73.51413,-49.59279],[-73.48468,-49.69417],[-73.46918,-49.79333],[-73.45833,-49.85933],[-73.48158,-49.91226],[-73.49863,-49.96015],[-73.49863,-50.01995],[-73.48468,-50.08066],[-73.49863,-50.14527],[-73.46608,-50.184],[-73.40718,-50.23261],[-73.34052,-50.27424],[-73.24752,-50.36232],[-73.23667,-50.51239],[-73.21807,-50.63053],[-73.19946,-50.6944],[-73.17311,-50.73758],[-73.10491,-50.75916],[-73.04291,-50.74641],[-72.9685,-50.7101],[-72.9096,-50.67672],[-72.85225,-50.64822],[-72.77939,-50.63643],[-72.74374,-50.65609],[-72.68019,-50.67279],[-72.61198,-50.65117],[-72.54998,-50.63446],[-72.48953,-50.61774],[-72.45233,-50.61283],[-72.39342,-50.62758],[-72.34692,-50.6551],[-72.34692,-50.72188],[-72.34227,-50.75622],[-72.30197,-50.8062],[-72.28647,-50.88646],[-72.32522,-50.99195],[-72.37637,-51.03388],[-72.44458,-51.09428],[-72.43062,-51.14974],[-72.33452,-51.20318],[-72.29422,-51.2459],[-72.30352,-51.29148],[-72.33917,-51.34476],[-72.35729,-51.43804],[-72.37182,-51.46974],[-72.42995,-51.49839],[-72.45659,-51.52854],[-72.44206,-51.55867],[-72.37908,-51.60532],[-72.28947,-51.68498],[-72.21439,-51.736],[-72.05938,-51.79895],[-72.0061,-51.88574],[-72.00852,-51.95297],[-71.94555,-51.98132],[-71.57014,-51.99623],[-71.23241,-51.99271],[-70.85109,-52.00226],[-70.47597,-52.01657],[-70.35507,-52.01275],[-70.17991,-52.01657],[-69.94119,-52.04041],[-69.82804,-52.07853],[-69.69008,-52.11948],[-69.51337,-52.1775],[-69.20336,-52.19746],[-69.05145,-52.24684],[-68.94759,-52.29142],[-68.76158,-52.33122],[-68.51822,-52.36342],[-68.40971,-52.36626],[-68.53682,-52.25822],[-68.60503,-52.20126],[-68.72748,-52.09758],[-68.83444,-51.99462],[-68.95999,-51.84931],[-69.0375,-51.76017],[-69.1212,-51.68816],[-69.1553,-51.64105],[-69.1088,-51.60833],[-69.07005,-51.57848],[-69.05765,-51.53414],[-69.0902,-51.48012],[-69.12585,-51.41636],[-69.18786,-51.29633],[-69.24056,-51.21678],[-69.26691,-51.11083],[-69.28551,-51.05727],[-69.32116,-51.02706],[-69.33046,-51.00073],[-69.29016,-50.96267],[-69.27311,-50.89428],[-69.28241,-50.81404],[-69.23746,-50.73366],[-69.22196,-50.63643],[-69.1429,-50.51338],[-69.06385,-50.44729],[-68.97704,-50.39791],[-68.89179,-50.35441],[-68.80344,-50.3089],[-68.64998,-50.25739],[-68.50272,-50.2217],[-68.29501,-50.15918],[-68.16325,-50.11447],[-68.09505,-50.06872],[-68.01909,-50.01098],[-67.97724,-49.96913],[-67.92299,-49.91326],[-67.88114,-49.86632],[-67.84084,-49.79533],[-67.82223,-49.72023],[-67.79743,-49.65505],[-67.75868,-49.48113],[-67.75093,-49.31569],[-67.71218,-49.14361],[-67.66103,-49.0675],[-67.61142,-49.01161],[-67.57112,-48.97703],[-67.48277,-48.93021],[-67.39751,-48.88232],[-67.34326,-48.84051],[-67.28436,-48.78743],[-67.25645,-48.73736],[-67.2053,-48.68315],[-67.08285,-48.64118],[-66.99604,-48.61966],[-66.91389,-48.60019],[-66.84258,-48.5684],[-66.75733,-48.52633],[-66.69998,-48.4832],[-66.60387,-48.43694],[-66.35586,-48.29792],[-66.07064,-48.12852],[-66.00864,-48.11403],[-65.96059,-48.07883],[-65.93579,-48.02806],[-65.91874,-48.0011],[-65.88153,-47.9762],[-65.87068,-47.94299],[-65.89548,-47.90559],[-65.92203,-47.87961],[-65.95109,-47.83248],[-65.96078,-47.78856],[-65.95594,-47.73158],[-65.87601,-47.65332],[-65.80819,-47.61742],[-65.77429,-47.56351],[-65.7393,-47.42036],[-65.74525,-47.32362],[-65.80403,-47.16995],[-65.85673,-47.12567],[-65.94199,-47.08874],[-66.01019,-47.07291],[-66.32176,-47.06446],[-66.68603,-47.04862],[-66.77283,-47.01481],[-66.84568,-46.96089],[-66.94954,-46.87513],[-67.05029,-46.7871],[-67.16655,-46.70426],[-67.27971,-46.63405],[-67.40061,-46.55736],[-67.44556,-46.50191],[-67.50292,-46.43785],[-67.53857,-46.37479],[-67.55872,-46.32772],[-67.57112,-46.23451],[-67.55717,-46.14223],[-67.54787,-46.04548],[-67.53547,-45.96904],[-67.51997,-45.9324],[-67.49207,-45.89033],[-67.45176,-45.84824],[-67.40216,-45.82124],[-67.36806,-45.78882],[-67.34171,-45.75098],[-67.33086,-45.69146],[-67.31691,-45.63946],[-67.27816,-45.60043],[-67.2332,-45.56029],[-67.17895,-45.52121],[-67.1402,-45.47992],[-67.0937,-45.42773],[-67.04874,-45.38202],[-67.00689,-45.33846],[-66.95884,-45.28286],[-66.89839,-45.24795],[-66.81313,-45.21738],[-66.71393,-45.20646],[-66.59767,-45.20755],[-66.53722,-45.19772],[-66.50932,-45.16385],[-66.50002,-45.11684],[-66.47676,-45.0862],[-66.41166,-45.05665],[-66.33881,-45.03255],[-66.2675,-45.00077],[-66.17605,-44.95911],[-66.07994,-44.94924],[-65.99469,-44.96459],[-65.88928,-44.97337],[-65.79163,-45.00625],[-65.70482,-45.02817],[-65.63042,-45.02269],[-65.60252,-44.97995],[-65.57927,-44.92071],[-65.58237,-44.85921],[-65.62887,-44.81854],[-65.66762,-44.80204],[-65.71722,-44.77564],[-65.72808,-44.73932],[-65.71412,-44.69857],[-65.67847,-44.66991],[-65.63352,-44.64014],[-65.58082,-44.60815],[-65.51881,-44.57724],[-65.43046,-44.52753],[-65.37466,-44.50321],[-65.35296,-44.47889],[-65.339,-44.44127],[-65.308,-44.3992],[-65.2863,-44.37926],[-65.2522,-44.3316],[-65.2398,-44.31053],[-65.2646,-44.28502],[-65.30955,-44.2606],[-65.31265,-44.23395],[-65.2987,-44.17395],[-65.2739,-44.13947],[-65.24135,-44.08605],[-65.22585,-44.05041],[-65.21965,-44.01809],[-65.23515,-43.99803],[-65.25995,-43.94671],[-65.2801,-43.90875],[-65.3266,-43.83836],[-65.32505,-43.62779],[-65.29095,-43.58851],[-65.24445,-43.55032],[-65.1716,-43.48625],[-65.12354,-43.45025],[-65.08479,-43.39396],[-65.07084,-43.341],[-65.03519,-43.29589],[-64.99024,-43.25413],[-64.92978,-43.20895],[-64.83368,-43.15018],[-64.76547,-43.12982],[-64.69262,-43.11511],[-64.61512,-43.1004],[-64.54071,-43.07776],[-64.47096,-43.05284],[-64.40121,-43.02339],[-64.3609,-43.00072],[-64.34075,-42.97124],[-64.3733,-42.95422],[-64.41826,-42.94514],[-64.52056,-42.94401],[-64.60272,-42.94401],[-64.68642,-42.92131],[-64.74842,-42.88838],[-64.82593,-42.85658],[-64.89723,-42.81679],[-64.95613,-42.79064],[-64.98404,-42.75878],[-65.00109,-42.72804],[-64.97784,-42.68704],[-64.94218,-42.66994],[-64.90033,-42.65854],[-64.84298,-42.64486],[-64.79183,-42.62548],[-64.73447,-42.59239],[-64.68797,-42.56728],[-64.60737,-42.54445],[-64.50351,-42.53188],[-64.40586,-42.54216],[-64.2989,-42.59696],[-64.2524,-42.63574],[-64.2307,-42.68818],[-64.24,-42.76333],[-64.20435,-42.81452],[-64.14854,-42.85203],[-64.06949,-42.85999],[-63.97028,-42.85203],[-63.86643,-42.83271],[-63.78117,-42.81111],[-63.73157,-42.76902],[-63.69127,-42.71893],[-63.64632,-42.65398],[-63.61221,-42.5513],[-63.57656,-42.3855],[-63.60136,-42.30989],[-63.62617,-42.22616],[-63.67577,-42.14231],[-63.70522,-42.10207],[-63.76257,-42.08136],[-63.81993,-42.08827],[-63.90208,-42.11127],[-64.02764,-42.16529],[-64.10979,-42.19745],[-64.19039,-42.22271],[-64.17179,-42.23763],[-64.10824,-42.25829],[-64.08034,-42.28237],[-64.04314,-42.31218],[-64.04624,-42.35344],[-64.08189,-42.38779],[-64.18729,-42.42098],[-64.3578,-42.42671],[-64.48181,-42.41412],[-64.56086,-42.39466],[-64.57171,-42.36031],[-64.54071,-42.32938],[-64.49576,-42.28467],[-64.52521,-42.2537],[-64.61822,-42.22386],[-64.75152,-42.18252],[-64.87708,-42.14576],[-64.98249,-42.09747],[-65.01039,-42.02266],[-65.01488,-41.96929],[-65.01659,-41.94892],[-65.00729,-41.87394],[-64.98714,-41.80581],[-64.97164,-41.73644],[-64.96544,-41.64847],[-64.96079,-41.5627],[-64.97319,-41.48959],[-64.99644,-41.42338],[-65.01659,-41.31985],[-65.06774,-41.17066],[-65.08634,-41.05739],[-65.07549,-40.95913],[-65.04759,-40.87479],[-65.01659,-40.81147],[-64.99489,-40.76922],[-64.94838,-40.73752],[-64.88948,-40.73517],[-64.81353,-40.761],[-64.72982,-40.79856],[-64.65232,-40.82555],[-64.56706,-40.85135],[-64.45081,-40.90057],[-64.3609,-40.93337],[-64.2648,-40.97317],[-64.15784,-41.01178],[-64.04159,-41.04102],[-63.98268,-41.0644],[-63.89278,-41.10879],[-63.79512,-41.15433],[-63.16424,-41.13215],[-62.96273,-41.10996],[-62.82632,-41.07024],[-62.78329,-41.03385],[-62.77517,-41.02699],[-62.65271,-40.98371],[-62.54731,-40.94508],[-62.40315,-40.89003],[-62.3241,-40.85604],[-62.25589,-40.82203],[-62.20164,-40.78331],[-62.14584,-40.68464],[-62.12879,-40.63173],[-62.13034,-40.58701],[-62.16134,-40.55169],[-62.23884,-40.50338],[-62.3241,-40.44796],[-62.37215,-40.42909],[-62.44965,-40.36534],[-62.47136,-40.3169],[-62.43725,-40.27197],[-62.3799,-40.22701],[-62.3427,-40.1844],[-62.321,-40.13108],[-62.32565,-40.04333],[-62.3241,-39.97565],[-62.29155,-39.92099],[-62.23419,-39.86509],[-62.15514,-39.82344],[-62.13189,-39.79367],[-62.10244,-39.71621],[-62.08849,-39.6506],[-62.07298,-39.5909],[-62.05903,-39.53354],[-62.04663,-39.47494],[-62.05438,-39.41748],[-62.08074,-39.36477],[-62.12414,-39.32521],[-62.20629,-39.29523],[-62.26519,-39.27603],[-62.3148,-39.21481],[-62.32565,-39.14512],[-62.3241,-39.06212],[-62.3179,-39.00553],[-62.33495,-38.96577],[-62.3675,-38.93563],[-62.3892,-38.89945],[-62.40005,-38.86325],[-62.3799,-38.80891],[-62.34425,-38.78596],[-62.2869,-38.78113],[-62.22024,-38.78234],[-62.14739,-38.80771],[-62.06058,-38.84997],[-62.01098,-38.92478],[-62.00478,-38.97541],[-62.01563,-39.01998],[-62.04043,-39.05008],[-62.05438,-39.08739],[-62.04663,-39.12828],[-61.99858,-39.16074],[-61.93348,-39.18358],[-61.88697,-39.17396],[-61.85907,-39.14031],[-61.83892,-39.08619],[-61.83117,-39.04527],[-61.78622,-39.01275],[-61.73817,-38.99348],[-61.68701,-38.98384],[-61.4669,-38.97541],[-61.24524,-38.96456],[-60.82052,-38.9513],[-60.63606,-38.93081],[-60.495,-38.90548],[-60.31829,-38.88376],[-60.14468,-38.85359],[-59.94782,-38.81978],[-59.81297,-38.79925],[-59.5727,-38.76058],[-59.41925,-38.7352],[-59.22859,-38.6977],[-59.05808,-38.66382],[-58.81006,-38.60933],[-58.4427,-38.50509],[-58.30939,-38.47476],[-58.18383,-38.43227],[-58.03812,-38.37883],[-57.85676,-38.30102],[-57.73276,-38.2426],[-57.6134,-38.17927],[-57.5328,-38.12929],[-57.49715,-38.08416],[-57.4894,-38.00848],[-57.4832,-37.90949],[-57.44134,-37.87034],[-57.40414,-37.81893],[-57.34989,-37.7442],[-57.28479,-37.67184],[-57.10963,-37.52078],[-57.04607,-37.46543],[-56.98717,-37.39527],[-56.95307,-37.33983],[-56.91897,-37.28436],[-56.86626,-37.20168],[-56.82441,-37.13374],[-56.75621,-37.05585],[-56.6694,-36.97664],[-56.6415,-36.8961],[-56.64925,-36.81797],[-56.65855,-36.70123],[-56.67715,-36.56938],[-56.7004,-36.42109],[-56.71591,-36.34497],[-56.74846,-36.32249],[-56.80116,-36.32499],[-56.82751,-36.33998],[-56.89416,-36.35746],[-56.95462,-36.34622],[-56.99802,-36.32749],[-57.06932,-36.29501],[-57.15148,-36.24002],[-57.21503,-36.1925],[-57.26153,-36.15496],[-57.30649,-36.09737],[-57.34524,-36.03221],[-57.36694,-35.96198],[-57.38244,-35.88416],[-57.37624,-35.82385],[-57.36849,-35.76979],[-57.33749,-35.72702],[-57.29254,-35.67667],[-57.23828,-35.61746],[-57.17783,-35.53299],[-57.16233,-35.48631],[-57.16233,-35.42444],[-57.19488,-35.36884],[-57.25688,-35.28411],[-57.31579,-35.22082],[-57.41654,-35.16255],[-57.50645,-35.10043],[-57.59635,-35.01922],[-57.67076,-34.97478],[-57.76376,-34.92396],[-57.89552,-34.8642],[-57.99627,-34.82858],[-58.05828,-34.81204],[-58.14043,-34.78786],[-58.24118,-34.7573],[-58.33947,-34.71453],[-58.34659,-34.71144],[-58.42564,-34.67065],[-58.48145,-34.62857],[-58.4954,-34.57626],[-58.50228,-34.4378],[-58.53658,-34.41013],[-58.54692,-34.40179],[-58.5747,-34.36167],[-58.57073,-34.29449],[-58.52708,-34.25924],[-58.48542,-34.22398],[-58.45863,-34.18952],[-58.41696,-34.15258],[-58.33661,-34.12713],[-58.34851,-34.10249],[-58.37852,-34.08333],[-58.38813,-34.04292],[-58.44238,-33.99154],[-58.48371,-33.92833],[-58.51083,-33.84362],[-58.50696,-33.75776],[-58.51342,-33.51688],[-58.48758,-33.37893],[-58.47467,-33.27424],[-58.45917,-33.18024],[-58.43333,-33.12509],[-58.31967,-33.10454],[-58.19051,-33.08398],[-58.15951,-33.04284],[-58.16338,-32.98978],[-58.16984,-32.92909],[-58.17372,-32.88246],[-58.17888,-32.82929],[-58.19955,-32.78261],[-58.19438,-32.72612],[-58.18663,-32.69134],[-58.18663,-32.64894],[-58.19309,-32.61196],[-58.22022,-32.53359],[-58.22022,-32.49438],[-58.19438,-32.42899],[-58.16726,-32.38428],[-58.14272,-32.34828],[-58.12076,-32.28496],[-58.12205,-32.26531],[-58.15047,-32.24565],[-58.19826,-32.19538],[-58.21376,-32.16477],[-58.20342,-32.12978],[-58.17243,-32.0893],[-58.18147,-32.06303],[-58.20213,-32.02033],[-58.22409,-31.97213],[-58.22151,-31.88224],[-58.12851,-31.84714],[-58.09364,-31.8197],[-58.07814,-31.77689],[-58.0536,-31.72747],[-58.03422,-31.68021],[-58.01226,-31.63734],[-58.0071,-31.57243],[-58.02001,-31.54712],[-58.0381,-31.5185],[-58.07555,-31.49317],[-58.09105,-31.46783],[-58.08718,-31.44359],[-58.06005,-31.40061],[-58.03293,-31.36312],[-57.98772,-31.31126],[-57.95156,-31.27595],[-57.93477,-31.24172],[-57.90764,-31.18759],[-57.8986,-31.10579],[-57.88181,-31.03166],[-57.85727,-30.96302],[-57.84048,-30.91981],[-57.83144,-30.87326],[-57.83144,-30.83667],[-57.86114,-30.78564],[-57.88181,-30.74458],[-57.91152,-30.68017],[-57.93218,-30.59126],[-57.89989,-30.54789],[-57.87148,-30.49226],[-57.83402,-30.42991],[-57.79785,-30.37866],[-57.72552,-30.32628],[-57.61444,-30.22366],[-57.51111,-30.12874],[-57.39616,-30.04828],[-57.33932,-29.989],[-57.32253,-29.95432],[-57.31478,-29.85915],[-57.29928,-29.77286],[-57.0965,-29.75828],[-57.02546,-29.66293],[-56.96604,-29.6023],[-56.93634,-29.55625],[-56.89888,-29.51579],[-56.8498,-29.48769],[-56.74001,-29.3842],[-56.68059,-29.31777],[-56.65864,-29.26934],[-56.63668,-29.23215],[-56.56435,-29.16111],[-56.50751,-29.10696],[-56.38868,-28.98388],[-56.30602,-28.90249],[-56.26469,-28.8335],[-56.15877,-28.7418],[-56.0619,-28.64096],[-55.99474,-28.57293],[-55.93403,-28.50712],[-55.9082,-28.47079],[-55.88107,-28.42877],[-55.82295,-28.37537],[-55.6912,-28.364],[-55.68475,-28.33104],[-55.70412,-28.2992],[-55.72479,-28.26963],[-55.72479,-28.24232],[-55.70154,-28.20932],[-55.65375,-28.17858],[-55.6099,-28.13879],[-55.60983,-28.13873],[-55.50263,-28.08518],[-55.46129,-28.06467],[-55.40317,-28.04415],[-55.35021,-28.02477],[-55.30759,-27.98257],[-55.26626,-27.93466],[-55.21072,-27.90727],[-55.14614,-27.88558],[-55.09318,-27.86388],[-55.02472,-27.83648],[-54.97306,-27.8022],[-54.9356,-27.75992],[-54.90331,-27.71762],[-54.86714,-27.6776],[-54.8439,-27.64328],[-54.81806,-27.6181],[-54.72119,-27.5975],[-54.68373,-27.58147],[-54.60494,-27.51963],[-54.5494,-27.50703],[-54.4887,-27.49099],[-54.44091,-27.47266],[-54.40087,-27.45891],[-54.36858,-27.46808],[-54.32983,-27.47724],[-54.28979,-27.4761],[-54.25491,-27.45547],[-54.22391,-27.43025],[-54.20971,-27.40503],[-54.19808,-27.36947],[-54.16321,-27.32703],[-54.07667,-27.30981],[-53.99788,-27.26964],[-53.95655,-27.2237],[-53.89971,-27.1835],[-53.78347,-27.15937],[-53.74343,-27.11799],[-53.71501,-27.06969],[-53.68659,-27.02368],[-53.67497,-26.97879],[-53.69047,-26.70566],[-53.67626,-26.6468],[-53.65689,-26.56827],[-53.63105,-26.45153],[-53.6091,-26.35667],[-53.60135,-26.29531],[-53.60651,-26.24087],[-53.63751,-26.1783],[-53.6711,-26.12148],[-53.70339,-26.06349],[-53.74084,-26.00081],[-53.75893,-25.93811],[-53.77313,-25.86258],[-53.78088,-25.78701],[-53.7938,-25.6823],[-53.86742,-25.63456],[-53.9178,-25.60195],[-54.01209,-25.56933],[-54.08442,-25.55185],[-54.1335,-25.54836],[-54.21229,-25.55302],[-54.2872,-25.58098],[-54.33241,-25.59729],[-54.37245,-25.63107],[-54.39828,-25.63689],[-54.45124,-25.61826],[-54.4732,-25.60312],[-54.51195,-25.5903],[-54.54295,-25.58564],[-54.57872,-25.60787],[-54.59558,-25.64275],[-54.60947,-25.68478],[-54.60153,-25.75717],[-54.57475,-25.80541],[-54.55491,-25.86256],[-54.57376,-25.9054],[-54.60054,-25.97766],[-54.63626,-26.10601],[-54.65213,-26.18349],[-54.65709,-26.24401],[-54.67098,-26.33029],[-54.68288,-26.4396],[-54.72256,-26.48134],[-54.77812,-26.53993],[-54.77613,-26.61002],[-54.78506,-26.65879],[-54.84955,-26.6783],[-54.87435,-26.70312],[-54.91105,-26.75894],[-54.94379,-26.78285],[-54.99538,-26.80322],[-55.04994,-26.8404],[-55.08268,-26.88465],[-55.12534,-26.96337],[-55.30093,-26.9899],[-55.35549,-27.01376],[-55.38922,-27.0332],[-55.41402,-27.06059],[-55.45966,-27.10917],[-55.51819,-27.12948],[-55.56382,-27.19303],[-55.57374,-27.31738],[-55.60053,-27.35175],[-55.64319,-27.38523],[-55.68882,-27.41782],[-55.74934,-27.43895],[-55.79596,-27.42927],[-55.86144,-27.39932],[-55.91203,-27.36585],[-55.96732,-27.35047],[-55.99437,-27.34294],[-56.07572,-27.33765],[-56.15608,-27.35704],[-56.20171,-27.38787],[-56.25826,-27.43719],[-56.28008,-27.47944],[-56.28901,-27.53136],[-56.32572,-27.5683],[-56.37135,-27.58853],[-56.42195,-27.59028],[-56.47155,-27.5639],[-56.48643,-27.54455],[-56.50131,-27.5164],[-56.53008,-27.49441],[-56.57175,-27.47592],[-56.60449,-27.47768],[-56.66302,-27.50145],[-56.70964,-27.51816],[-56.75329,-27.5252],[-56.78702,-27.50761],[-56.81381,-27.48209],[-56.86143,-27.46184],[-56.90905,-27.4592],[-56.96559,-27.4768],[-57.0152,-27.49177],[-57.07472,-27.49969],[-57.13127,-27.49617],[-57.21261,-27.48473],[-57.28503,-27.46448],[-57.36142,-27.44511],[-57.44872,-27.43103],[-57.52908,-27.4143],[-57.59158,-27.39492],[-57.67888,-27.36409],[-57.75527,-27.33853],[-57.80685,-27.32179],[-57.88126,-27.30152],[-58.25645,-27.31756],[-58.57772,-27.32771],[-58.60446,-27.27242],[-58.63522,-27.24597],[-58.63918,-27.20186],[-58.59057,-27.15508],[-58.51815,-27.09151],[-58.46657,-27.04292],[-58.40804,-26.9952],[-58.31638,-26.90778],[-58.30883,-26.90058],[-58.24534,-26.83243],[-58.20467,-26.78728],[-58.17391,-26.71375],[-58.18681,-26.49199],[-58.17094,-26.40584],[-58.11935,-26.33206],[-58.07173,-26.2538],[-58.04891,-26.21286],[-57.94872,-26.1452],[-57.88622,-26.1167],[-57.86042,-26.09176],[-57.85149,-26.04987],[-57.84455,-25.9946],[-57.78503,-25.92324],[-57.75725,-25.85631],[-57.73642,-25.80094],[-57.70765,-25.76343],[-57.664,-25.74288],[-57.57074,-25.66332],[-57.54197,-25.60787],[-57.5509,-25.46196],[-57.58364,-25.40641],[-57.63721,-25.34815],[-57.77511,-25.20103],[-57.81082,-25.16063],[-57.86042,-25.1283],[-57.93483,-25.10225],[-58.01121,-25.08069],[-58.06677,-25.03845],[-58.11538,-24.998],[-58.16498,-24.95753],[-58.18978,-24.93234],[-58.24038,-24.91345],[-58.26716,-24.92245],[-58.29593,-24.94763],[-58.33165,-24.96113],[-58.36736,-24.94224],[-58.41498,-24.88285],[-58.43879,-24.84505],[-58.47153,-24.80453],[-58.56776,-24.78382],[-58.6749,-24.77751],[-58.75625,-24.76761],[-58.81974,-24.74959],[-58.86934,-24.72346],[-58.92489,-24.6829],[-59.13323,-24.56837],[-59.3366,-24.45373],[-59.5489,-24.30555],[-59.70068,-24.21601],[-59.88222,-24.1092],[-59.97349,-24.05758],[-60.01218,-24.02496],[-60.05782,-24.0168],[-60.08956,-24.03402],[-60.14313,-24.04942],[-60.24432,-24.05033],[-60.31277,-24.04308],[-60.38023,-24.01952],[-60.42587,-24.00321],[-60.51515,-23.97602],[-60.63321,-23.93522],[-60.75027,-23.9053],[-60.86039,-23.8799],[-60.94174,-23.84724],[-61.00721,-23.81457],[-61.03796,-23.77372],[-61.07368,-23.7374],[-61.08856,-23.69744],[-61.10146,-23.6611],[-61.1203,-23.61838],[-61.15007,-23.58384],[-61.2086,-23.56838],[-61.26812,-23.54292],[-61.32764,-23.52109],[-61.39411,-23.48197],[-61.45859,-23.44648],[-61.52506,-23.40643],[-61.56474,-23.36181],[-61.60939,-23.32447],[-61.66296,-23.30533],[-61.7076,-23.28438],[-61.7324,-23.24701],[-61.76514,-23.20416],[-61.83855,-23.13758],[-61.93478,-23.07371],[-61.98537,-23.0372],[-61.99232,-22.96323],[-62.04291,-22.91207],[-62.07664,-22.85997],[-62.12029,-22.81243],[-62.15105,-22.75298],[-62.17882,-22.69807],[-62.2066,-22.63857],[-62.23835,-22.55889],[-62.29787,-22.52224],[-62.31368,-22.5125],[-62.36037,-22.48375],[-62.42585,-22.44983],[-62.49926,-22.39113],[-62.5558,-22.34802],[-62.60342,-22.32049],[-62.62723,-22.27092],[-62.63021,-22.22501],[-62.68179,-22.19195],[-62.7304,-22.17541],[-62.78993,-22.14969],[-62.80481,-22.09639],[-62.81671,-22.00076],[-63.67087,-22.01823],[-63.68377,-22.05042],[-63.73635,-22.08076],[-63.78,-22.06513],[-63.82662,-22.03846],[-63.87126,-22.02559],[-63.91591,-22.03387],[-63.9536,-22.10374],[-64.01313,-22.19011],[-64.16094,-22.48191],[-64.19666,-22.53232],[-64.22939,-22.60744],[-64.24626,-22.69258],[-64.26213,-22.78865],[-64.30876,-22.85632],[-64.36134,-22.80146],[-64.40201,-22.73376],[-64.43277,-22.67428],[-64.44269,-22.60286],[-64.47542,-22.53324],[-64.51808,-22.43974],[-64.54586,-22.34068],[-64.58455,-22.27],[-64.70558,-22.20205],[-64.88217,-22.14417],[-65.01609,-22.12855],[-65.15597,-22.13131],[-65.17636,-22.13095],[-65.46847,-22.1258],[-65.7393,-22.1258],[-65.80775,-22.10466]]]]}}]}