{"type":"FeatureCollection","crs":{"type":"name","properties":{"name":"urn:ogc:def:crs:OGC:1.3:CRS84"}},"features":[{"type":"Feature","properties":{"shapeName":"Buenos Aires","shapeISO":"AR-B","shapeID":"19177384B97722443848736","shapeGroup":"ARG","shapeType":"ADM1"},"geometry":{"type":"Polygon","coordinates":[[[-58.53658,-34.41013],[-58.54692,-34.40179],[-58.5747,-34.36167],[-58.57073,-34.29449],[-58.48542,-34.22398],[-58.45863,-34.18952],[-58.41696,-34.15258],[-58.33661,-34.12713],[-58.34851,-34.10249],[-58.37852,-34.08333],[-58.38813,-34.04292],[-58.44238,-33.99154],[-58.48371,-33.92833],[-58.51083,-33.84362],[-58.50696,-33.75776],[-58.51342,-33.51688],[-58.48758,-33.37893],[-58.47467,-33.27424],[-58.45917,-33.18024],[-58.43333,-33.12509],[-58.31967,-33.10454],[-58.19051,-33.08398],[-58.15951,-33.04284],[-58.17888,-32.82929],[-58.19955,-32.78261],[-58.19438,-32.72612],[-58.18663,-32.69134],[-58.18663,-32.64894],[-58.19309,-32.61196],[-58.22022,-32.53359],[-58.22022,-32.49438],[-58.19438,-32.42899],[-58.16726,-32.38428],[-58.14272,-32.34828],[-58.12076,-32.28496],[-58.12205,-32.26531],[-58.15047,-32.24565],[-58.19826,-32.19538],[-58.21376,-32.16477],[-58.20342,-32.12978],[-58.17243,-32.0893],[-58.18147,-32.06303],[-58.22409,-31.97213],[-58.22151,-31.88224],[-58.12851,-31.84714],[-58.09364,-31.8197],[-58.07814,-31.77689],[-58.0536,-31.72747],[-58.03422,-31.68021],[-58.01226,-31.63734],[-58.0071,-31.57243],[-58.02001,-31.54712],[-58.0381,-31.5185],[-58.07555,-31.49317],[-58.09105,-31.46783],[-58.08718,-31.44359],[-58.06005,-31.40061],[-58.03293,-31.36312],[-57.98772,-31.31126],[-57.95156,-31.27595],[-57.90764,-31.18759],[-57.8986,-31.10579],[-57.88181,-31.03166],[-57.84048,-30.91981],[-57.83144,-30.87326],[-57.83144,-30.83667],[-57.86114,-30.78564],[-57.91152,-30.68017],[-57.93218,-30.59126],[-57.95789,-30.57608],[-57.97511,-30.54938],[-58.03626,-30.43435],[-58.07846,-30.40167],[-58.12583,-30.3623],[-58.17405,-30.29986],[-58.19989,-30.25895],[-58.22142,-30.24035],[-58.37041,-30.20687],[-58.56074,-30.17039],[-58.59003,-30.15773],[-58.61931,-30.15177],[-58.6572,-30.16071],[-58.72954,-30.20017],[-58.76744,-30.21133],[-58.82342,-30.21282],[-58.88629,-30.20389],[-58.93882,-30.2024],[-59.02408,-30.22473],[-59.06542,-30.24631],[-59.10418,-30.27011],[-59.14207,-30.29688],[-59.18341,-30.3296],[-59.24197,-30.3348],[-59.30312,-30.32068],[-59.33499,-30.30432],[-59.42197,-30.2835],[-59.459,-30.29093],[-59.51154,-30.31324],[-59.60283,-30.32439],[-59.6278,-30.3571],[-59.61833,-30.40465],[-59.59077,-30.46554],[-59.57871,-30.539],[-59.58646,-30.63612],[-59.61058,-30.71167],[-59.65795,-30.77089],[-59.73546,-30.87813],[-59.86292,-31.01625],[-59.99813,-31.18291],[-60.08856,-31.28233],[-60.12645,-31.33531],[-60.14282,-31.38384],[-60.20655,-31.46762],[-60.28061,-31.55353],[-60.37448,-31.64668],[-60.42444,-31.70312],[-60.55104,-31.71411],[-60.58032,-31.72656],[-60.6096,-31.75659],[-60.68797,-31.88685],[-60.70692,-31.9972],[-60.7095,-32.25758],[-60.75515,-32.37331],[-60.7896,-32.53827],[-60.79304,-32.60286],[-60.76893,-32.66378],[-60.7362,-32.75799],[-60.70003,-32.84775],[-60.64835,-32.93309],[-60.62855,-32.97428],[-60.54242,-33.10207],[-60.39688,-33.21382],[-60.2969,-33.30194],[-60.36238,-33.34339],[-60.40107,-33.36328],[-60.43182,-33.40055],[-60.45464,-33.48913],[-60.49035,-33.54289],[-60.534,-33.59992],[-60.58757,-33.62636],[-60.6342,-33.62553],[-60.67289,-33.60901],[-60.71952,-33.57017],[-60.75325,-33.55116],[-60.93777,-33.55281],[-60.9963,-33.56604],[-61.04683,-33.61356],[-61.19874,-33.76961],[-61.40025,-33.98839],[-61.58006,-34.17198],[-61.74902,-34.37308],[-62.26674,-34.3846],[-62.87248,-34.38461],[-63.40605,-34.38588],[-63.39365,-34.56095],[-63.36924,-35.00446],[-63.35471,-35.37263],[-63.34744,-35.75682],[-63.34101,-36.38894],[-63.35875,-37.3351],[-63.36182,-38.19537],[-63.37696,-38.8379],[-63.39409,-39.36424],[-63.39508,-39.51288],[-63.40605,-39.85081],[-63.41845,-40.169],[-63.4138,-40.30744],[-63.40915,-40.59996],[-63.389,-40.70697],[-63.32855,-40.72107],[-63.2681,-40.71755],[-63.18749,-40.72225],[-63.0925,-40.73564],[-63.02901,-40.75217],[-62.96751,-40.78448],[-62.91096,-40.82203],[-62.86334,-40.87156],[-62.81473,-40.94803],[-62.78329,-41.03385],[-62.77517,-41.02699],[-62.54731,-40.94508],[-62.40315,-40.89003],[-62.3241,-40.85604],[-62.25589,-40.82203],[-62.20164,-40.78331],[-62.14584,-40.68464],[-62.12879,-40.63173],[-62.13034,-40.58701],[-62.16134,-40.55169],[-62.3241,-40.44796],[-62.37215,-40.42909],[-62.44965,-40.36534],[-62.47136,-40.3169],[-62.43725,-40.27197],[-62.3799,-40.22701],[-62.3427,-40.1844],[-62.321,-40.13108],[-62.32565,-40.04333],[-62.3241,-39.97565],[-62.29155,-39.92099],[-62.23419,-39.86509],[-62.15514,-39.82344],[-62.13189,-39.79367],[-62.10244,-39.71621],[-62.08849,-39.6506],[-62.05903,-39.53354],[-62.04663,-39.47494],[-62.05438,-39.41748],[-62.08074,-39.36477],[-62.12414,-39.32521],[-62.20629,-39.29523],[-62.26519,-39.27603],[-62.3148,-39.21481],[-62.32565,-39.14512],[-62.3241,-39.06212],[-62.3179,-39.00553],[-62.33495,-38.96577],[-62.3675,-38.93563],[-62.3892,-38.89945],[-62.40005,-38.86325],[-62.3799,-38.80891],[-62.34425,-38.78596],[-62.2869,-38.78113],[-62.22024,-38.78234],[-62.14739,-38.80771],[-62.06058,-38.84997],[-62.01098,-38.92478],[-62.00478,-38.97541],[-62.01563,-39.01998],[-62.04043,-39.05008],[-62.05438,-39.08739],[-62.04663,-39.12828],[-61.99858,-39.16074],[-61.93348,-39.18358],[-61.88697,-39.17396],[-61.85907,-39.14031],[-61.83892,-39.08619],[-61.83117,-39.04527],[-61.78622,-39.01275],[-61.73817,-38.99348],[-61.68701,-38.98384],[-61.4669,-38.97541],[-61.24524,-38.96456],[-60.82052,-38.9513],[-60.63606,-38.93081],[-60.495,-38.90548],[-60.31829,-38.88376],[-59.94782,-38.81978],[-59.41925,-38.7352],[-59.22859,-38.6977],[-59.05808,-38.66382],[-58.81006,-38.60933],[-58.4427,-38.50509],[-58.30939,-38.47476],[-58.18383,-38.43227],[-58.03812,-38.37883],[-57.85676,-38.30102],[-57.73276,-38.2426],[-57.6134,-38.17927],[-57.5328,-38.12929],[-57.49715,-38.08416],[-57.4894,-38.00848],[-57.4832,-37.90949],[-57.44134,-37.87034],[-57.34989,-37.7442],[-57.28479,-37.67184],[-57.04607,-37.46543],[-56.98717,-37.39527],[-56.82441,-37.13374],[-56.75621,-37.05585],[-56.6694,-36.97664],[-56.6415,-36.8961],[-56.65855,-36.70123],[-56.67715,-36.56938],[-56.7004,-36.42109],[-56.71591,-36.34497],[-56.74846,-36.32249],[-56.80116,-36.32499],[-56.82751,-36.33998],[-56.89416,-36.35746],[-56.95462,-36.34622],[-57.06932,-36.29501],[-57.15148,-36.24002],[-57.21503,-36.1925],[-57.26153,-36.15496],[-57.30649,-36.09737],[-57.34524,-36.03221],[-57.36694,-35.96198],[-57.38244,-35.88416],[-57.37624,-35.82385],[-57.36849,-35.76979],[-57.33749,-35.72702],[-57.23828,-35.61746],[-57.17783,-35.53299],[-57.16233,-35.48631],[-57.16233,-35.42444],[-57.19488,-35.36884],[-57.25688,-35.28411],[-57.31579,-35.22082],[-57.41654,-35.16255],[-57.50645,-35.10043],[-57.59635,-35.01922],[-57.67076,-34.97478],[-57.76376,-34.92396],[-57.89552,-34.8642],[-57.99627,-34.82858],[-58.05828,-34.81204],[-58.24118,-34.7573],[-58.33947,-34.71453],[-58.36266,-34.74207],[-58.40745,-34.77956],[-58.46256,-34.79159],[-58.52802,-34.79654],[-58.60983,-34.78734],[-58.64859,-34.77037],[-58.6994,-34.72933],[-58.73041,-34.68897],[-58.74505,-34.64151],[-58.74935,-34.5997],[-58.74505,-34.55999],[-58.70457,-34.49542],[-58.66409,-34.46347],[-58.62878,-34.43933],[-58.58916,-34.42228],[-58.53658,-34.41013]]]}},{"type":"Feature","properties":{"shapeName":"Catamarca","shapeISO":"AR-K","shapeID":"19177384B98145761763330","shapeGroup":"ARG","shapeType":"ADM1"},"geometry":{"type":"Polygon","coordinates":[[[-65.32852,-30.11613],[-65.12931,-30.08547],[-65.08625,-30.06982],[-65.04749,-30.0415],[-65.00788,-30.00645],[-64.91487,-29.91328],[-64.8745,-29.87478],[-64.84489,-29.84093],[-64.83951,-29.80708],[-64.85162,-29.77671],[-64.85835,-29.7183],[-64.87315,-29.64114],[-64.88472,-29.56771],[-64.90884,-29.45303],[-64.92412,-29.35961],[-64.94935,-29.05311],[-64.95986,-28.8581],[-64.96482,-28.72],[-64.9941,-28.68449],[-65.02338,-28.66031],[-65.05266,-28.62857],[-65.05783,-28.60513],[-65.04319,-28.5832],[-65.01907,-28.56354],[-64.9941,-28.53176],[-64.97515,-28.50452],[-64.96568,-28.46137],[-64.97773,-28.29922],[-64.99496,-28.1968],[-64.99927,-28.06845],[-65.01304,-28.02741],[-65.01907,-27.98863],[-65.02252,-27.9369],[-65.13362,-27.92397],[-65.17926,-27.90266],[-65.20768,-27.87221],[-65.23266,-27.85927],[-65.26194,-27.8585],[-65.32567,-27.88515],[-65.35151,-27.91483],[-65.39973,-27.94679],[-65.44021,-27.94984],[-65.485,-27.93614],[-65.51858,-27.91103],[-65.55303,-27.89276],[-65.61418,-27.84023],[-65.73475,-27.72746],[-65.78126,-27.67104],[-65.83293,-27.57642],[-65.86566,-27.48859],[-65.87513,-27.43204],[-65.88633,-27.3877],[-65.89149,-27.33645],[-65.93972,-27.32192],[-66.0646,-27.2959],[-66.05599,-27.24461],[-66.03446,-27.22164],[-66.00345,-27.19559],[-65.95523,-27.15116],[-65.90097,-27.09367],[-65.82184,-27.01663],[-65.78551,-26.97107],[-65.73572,-26.92669],[-65.72765,-26.87148],[-65.72226,-26.74057],[-65.73303,-26.69249],[-65.79358,-26.63597],[-65.89585,-26.56498],[-66.00082,-26.54451],[-66.02638,-26.52044],[-66.0385,-26.47467],[-66.03446,-26.42045],[-66.00754,-26.3638],[-65.96314,-26.31918],[-65.93757,-26.28058],[-65.92853,-26.24172],[-65.98278,-26.18686],[-66.03187,-26.15208],[-66.06288,-26.13816],[-66.09474,-26.14125],[-66.11972,-26.16135],[-66.13781,-26.18763],[-66.15675,-26.22781],[-66.18345,-26.26721],[-66.21618,-26.2896],[-66.26182,-26.30659],[-66.30747,-26.31122],[-66.35139,-26.30196],[-66.37981,-26.27416],[-66.41684,-26.22704],[-66.47024,-26.14589],[-66.54344,-26.04767],[-66.6554,-25.90831],[-66.69416,-25.85252],[-66.71741,-25.80911],[-66.71052,-25.75793],[-66.6976,-25.69276],[-66.67521,-25.66559],[-66.63387,-25.65239],[-66.52794,-25.6392],[-66.47024,-25.62677],[-66.42373,-25.60813],[-66.39876,-25.5794],[-66.36345,-25.53278],[-66.3445,-25.49858],[-66.34622,-25.46126],[-66.37206,-25.42315],[-66.39531,-25.39282],[-66.41512,-25.35702],[-66.41856,-25.3002],[-66.4289,-25.25814],[-66.5288,-25.25113],[-66.60459,-25.25113],[-66.86985,-25.24646],[-67.47787,-25.24802],[-67.61825,-25.25581],[-67.78705,-25.23477],[-67.82581,-25.22309],[-67.95607,-25.20546],[-68.04488,-25.18476],[-68.15388,-25.16649],[-68.28576,-25.14091],[-68.39998,-25.1292],[-68.45851,-25.13638],[-68.50216,-25.15704],[-68.53093,-25.23334],[-68.56665,-25.31408],[-68.59839,-25.40641],[-68.60732,-25.48793],[-68.51605,-25.74377],[-68.41585,-26.06235],[-68.39105,-26.13095],[-68.39998,-26.18527],[-68.47637,-26.25202],[-68.54085,-26.30272],[-68.56168,-26.36585],[-68.56665,-26.49998],[-68.54581,-26.54614],[-68.37816,-26.75451],[-68.29681,-26.85014],[-68.25712,-26.92535],[-68.25613,-26.9952],[-68.28788,-27.02967],[-68.34542,-27.04823],[-68.4843,-27.07473],[-68.5101,-27.09593],[-68.53093,-27.14096],[-68.58053,-27.15685],[-68.60434,-27.15332],[-68.63609,-27.13919],[-68.66089,-27.12154],[-68.70752,-27.10476],[-68.75414,-27.11271],[-68.80771,-27.14802],[-68.86525,-27.20627],[-68.87914,-27.30416],[-68.89501,-27.34558],[-68.99521,-27.44335],[-69.01505,-27.49529],[-69.05176,-27.62633],[-69.08648,-27.72736],[-69.10731,-27.78179],[-69.1141,-27.80793],[-69.01947,-27.78996],[-68.861,-27.76557],[-68.71029,-27.74499],[-68.49498,-27.7389],[-68.45622,-27.73204],[-68.42005,-27.72975],[-68.38302,-27.73585],[-68.37096,-27.78157],[-68.36752,-27.92244],[-68.3546,-27.97874],[-68.31671,-28.00232],[-68.26848,-28.01904],[-68.21939,-28.04565],[-68.15566,-28.06237],[-68.06523,-28.06769],[-67.98341,-28.08593],[-67.91882,-28.11176],[-67.89126,-28.1391],[-67.84217,-28.21654],[-67.81719,-28.25068],[-67.7948,-28.28861],[-67.76897,-28.3159],[-67.73968,-28.32576],[-67.70437,-28.32727],[-67.66562,-28.31439],[-67.60619,-28.30453],[-67.18419,-28.32576],[-67.0619,-28.32955],[-66.98783,-28.31287],[-66.91119,-28.29012],[-66.8509,-28.28026],[-66.81301,-28.27723],[-66.75789,-28.28102],[-66.69588,-28.29771],[-66.64334,-28.31894],[-66.53914,-28.34471],[-66.46938,-28.36593],[-66.43837,-28.38033],[-66.42115,-28.39927],[-66.4022,-28.46289],[-66.39187,-28.51587],[-66.36517,-28.58774],[-66.34105,-28.62857],[-66.28938,-28.67543],[-66.25579,-28.70338],[-66.23512,-28.71849],[-66.2291,-28.73737],[-66.23168,-28.75171],[-66.25665,-28.76304],[-66.26785,-28.7804],[-66.27216,-28.80229],[-66.26354,-28.81964],[-66.22307,-28.83549],[-66.16623,-28.86943],[-65.93542,-29.01338],[-65.85618,-29.0834],[-65.7425,-29.19473],[-65.67791,-29.25261],[-65.64088,-29.29468],[-65.64002,-29.46203],[-65.62796,-29.50701],[-65.516,-29.7204],[-65.45571,-29.86465],[-65.3739,-30.01316],[-65.3317,-30.10112],[-65.32852,-30.11613]]]}},{"type":"Feature","properties":{"shapeName":"Chaco","shapeISO":"AR-H","shapeID":"19177384B38635755405886","shapeGroup":"ARG","shapeType":"ADM1"},"geometry":{"type":"Polygon","coordinates":[[[-58.31638,-26.90778],[-58.45998,-26.79117],[-58.57797,-26.68349],[-58.72352,-26.58496],[-58.9259,-26.42002],[-59.02064,-26.35522],[-59.05681,-26.33515],[-59.08954,-26.3282],[-59.11451,-26.3421],[-59.13949,-26.36216],[-59.16532,-26.37991],[-59.20322,-26.38222],[-59.22905,-26.37605],[-59.2635,-26.36293],[-59.30484,-26.30504],[-59.32551,-26.27107],[-59.36427,-26.2255],[-59.39269,-26.21082],[-59.40733,-26.19845],[-59.44867,-26.17372],[-59.50551,-26.16908],[-59.53996,-26.15285],[-59.59163,-26.11033],[-59.61488,-26.06778],[-59.639,-26.00356],[-59.68981,-25.95323],[-59.76129,-25.89204],[-59.87325,-25.80058],[-59.94387,-25.7494],[-59.98607,-25.71216],[-60.04808,-25.68034],[-60.0877,-25.6687],[-60.11956,-25.65705],[-60.14884,-25.6392],[-60.19535,-25.55764],[-60.21171,-25.53666],[-60.22808,-25.51179],[-60.25477,-25.47759],[-60.30386,-25.42782],[-60.36243,-25.329],[-60.39946,-25.3002],[-60.41668,-25.26905],[-60.44424,-25.24023],[-60.47525,-25.21296],[-60.49678,-25.20439],[-60.53209,-25.19582],[-60.59324,-25.16932],[-60.65697,-25.13268],[-60.67419,-25.11864],[-60.70778,-25.09759],[-60.74912,-25.07809],[-60.7784,-25.05156],[-60.8473,-25.0102],[-60.91189,-24.96415],[-60.97045,-24.94072],[-61.0204,-24.91417],[-61.05485,-24.89073],[-61.07035,-24.86417],[-61.08069,-24.82744],[-61.1005,-24.78522],[-61.13753,-24.73908],[-61.17456,-24.71014],[-61.21073,-24.68823],[-61.27016,-24.66867],[-61.41398,-24.63579],[-61.44413,-24.61622],[-61.46566,-24.5849],[-61.5225,-24.53085],[-61.66891,-24.40151],[-61.70422,-24.37954],[-61.80067,-24.37327],[-61.90919,-24.30736],[-61.94622,-24.26889],[-62.03579,-24.21314],[-62.08057,-24.20764],[-62.12191,-24.19036],[-62.16153,-24.18014],[-62.20803,-24.16443],[-62.28296,-24.16443],[-62.27952,-24.24298],[-62.27521,-24.40151],[-62.30191,-24.45091],[-62.38975,-24.5661],[-62.54305,-24.7516],[-62.66707,-24.90401],[-62.81434,-25.09369],[-62.88065,-25.16932],[-62.99605,-25.3111],[-63.13127,-25.47137],[-63.22256,-25.57551],[-63.27165,-25.66947],[-62.84792,-25.67335],[-62.32947,-25.67258],[-61.89885,-25.67102],[-61.63876,-25.66792],[-61.63817,-25.87204],[-61.63952,-26.0789],[-61.63548,-26.38188],[-61.63952,-26.67445],[-61.63985,-27.35591],[-61.62724,-28.00944],[-61.24691,-28.00916],[-60.89208,-28.01448],[-60.21429,-28.02058],[-59.71597,-28.01872],[-59.16089,-28.01872],[-58.80722,-28.01002],[-58.78897,-27.96657],[-58.7683,-27.86003],[-58.7838,-27.69925],[-58.80361,-27.66265],[-58.82428,-27.60771],[-58.83461,-27.56497],[-58.82256,-27.51838],[-58.80533,-27.47942],[-58.7571,-27.43204],[-58.67356,-27.38999],[-58.6305,-27.37776],[-58.59864,-27.36093],[-58.57772,-27.32771],[-58.60446,-27.27242],[-58.63522,-27.24597],[-58.63918,-27.20186],[-58.59057,-27.15508],[-58.51815,-27.09151],[-58.46657,-27.04292],[-58.40804,-26.9952],[-58.31638,-26.90778]]]}},{"type":"Feature","properties":{"shapeName":"Chubut","shapeISO":"AR-U","shapeID":"19177384B69455221212116","shapeGroup":"ARG","shapeType":"ADM1"},"geometry":{"type":"Polygon","coordinates":[[[-71.79506,-42.00265],[-71.77593,-42.02999],[-71.74815,-42.11026],[-71.7928,-42.14851],[-72.02494,-42.16175],[-72.07156,-42.1941],[-72.12712,-42.25875],[-72.142,-42.31599],[-72.12414,-42.36365],[-72.06958,-42.47278],[-72.06363,-42.51886],[-72.0914,-42.56125],[-72.14597,-42.61238],[-72.14101,-42.689],[-72.11422,-42.73856],[-72.08049,-42.80774],[-72.0924,-42.88702],[-72.13406,-42.93933],[-72.14299,-42.98943],[-72.12061,-43.04718],[-72.08341,-43.10379],[-72.0369,-43.13208],[-71.9532,-43.14905],[-71.84159,-43.1547],[-71.72844,-43.19992],[-71.70829,-43.25752],[-71.71914,-43.30378],[-71.77184,-43.34212],[-71.83694,-43.36805],[-71.8788,-43.39621],[-71.89895,-43.43675],[-71.89895,-43.4795],[-71.8695,-43.52335],[-71.81524,-43.56155],[-71.72689,-43.61881],[-71.66178,-43.67041],[-71.66333,-43.70292],[-71.72844,-43.73205],[-71.76099,-43.78243],[-71.75169,-43.82158],[-71.69899,-43.86183],[-71.66953,-43.89088],[-71.62148,-43.95229],[-71.62148,-44.00583],[-71.66488,-44.03481],[-71.74084,-44.10052],[-71.79664,-44.15171],[-71.78889,-44.30055],[-71.81989,-44.38148],[-71.77184,-44.42356],[-71.18368,-44.45548],[-71.13507,-44.48167],[-71.09638,-44.52413],[-71.08646,-44.55595],[-71.11721,-44.59128],[-71.15987,-44.61176],[-71.18566,-44.69574],[-71.22931,-44.80143],[-71.27891,-44.81902],[-71.33149,-44.81762],[-71.43863,-44.78101],[-71.49717,-44.77608],[-71.6182,-44.80354],[-71.71939,-44.79932],[-71.78089,-44.80495],[-71.86819,-44.81621],[-72.02791,-44.82536],[-72.08347,-44.84224],[-72.0924,-44.88584],[-72.03783,-44.9308],[-71.9793,-44.97223],[-71.91581,-45.00169],[-71.65391,-45.01081],[-71.58149,-45.03465],[-71.53685,-45.0697],[-71.47038,-45.15231],[-71.32752,-45.24528],[-71.29082,-45.28997],[-71.29975,-45.3409],[-71.43467,-45.41546],[-71.47931,-45.44818],[-71.50411,-45.51495],[-71.55867,-45.55317],[-71.6053,-45.56915],[-71.69756,-45.56915],[-71.75212,-45.59623],[-71.79379,-45.65104],[-71.81859,-45.76327],[-71.8176,-45.82828],[-71.80966,-45.86353],[-71.78784,-45.88425],[-71.72633,-45.9091],[-71.6807,-45.94223],[-71.65391,-45.98154],[-71.65183,-46.00368],[-71.44459,-46.00428],[-71.20451,-45.9905],[-70.67642,-45.99126],[-70.16295,-45.98957],[-69.68097,-45.98789],[-69.08516,-45.98621],[-68.56685,-45.98452],[-67.75064,-45.96769],[-67.53547,-45.96904],[-67.51997,-45.9324],[-67.49207,-45.89033],[-67.45176,-45.84824],[-67.40216,-45.82124],[-67.36806,-45.78882],[-67.34171,-45.75098],[-67.33086,-45.69146],[-67.31691,-45.63946],[-67.27816,-45.60043],[-67.2332,-45.56029],[-67.17895,-45.52121],[-67.0937,-45.42773],[-67.00689,-45.33846],[-66.95884,-45.28286],[-66.89839,-45.24795],[-66.81313,-45.21738],[-66.71393,-45.20646],[-66.59767,-45.20755],[-66.53722,-45.19772],[-66.50932,-45.16385],[-66.50002,-45.11684],[-66.47676,-45.0862],[-66.41166,-45.05665],[-66.33881,-45.03255],[-66.17605,-44.95911],[-66.07994,-44.94924],[-65.99469,-44.96459],[-65.88928,-44.97337],[-65.79163,-45.00625],[-65.70482,-45.02817],[-65.63042,-45.02269],[-65.60252,-44.97995],[-65.57927,-44.92071],[-65.58237,-44.85921],[-65.62887,-44.81854],[-65.66762,-44.80204],[-65.71722,-44.77564],[-65.72808,-44.73932],[-65.71412,-44.69857],[-65.67847,-44.66991],[-65.63352,-44.64014],[-65.58082,-44.60815],[-65.51881,-44.57724],[-65.43046,-44.52753],[-65.37466,-44.50321],[-65.35296,-44.47889],[-65.339,-44.44127],[-65.308,-44.3992],[-65.2863,-44.37926],[-65.2522,-44.3316],[-65.2398,-44.31053],[-65.2646,-44.28502],[-65.30955,-44.2606],[-65.31265,-44.23395],[-65.2987,-44.17395],[-65.2739,-44.13947],[-65.24135,-44.08605],[-65.22585,-44.05041],[-65.21965,-44.01809],[-65.23515,-43.99803],[-65.2801,-43.90875],[-65.3266,-43.83836],[-65.32505,-43.62779],[-65.29095,-43.58851],[-65.24445,-43.55032],[-65.1716,-43.48625],[-65.12354,-43.45025],[-65.08479,-43.39396],[-65.07084,-43.341],[-65.03519,-43.29589],[-64.99024,-43.25413],[-64.92978,-43.20895],[-64.83368,-43.15018],[-64.76547,-43.12982],[-64.61512,-43.1004],[-64.54071,-43.07776],[-64.47096,-43.05284],[-64.40121,-43.02339],[-64.3609,-43.00072],[-64.34075,-42.97124],[-64.3733,-42.95422],[-64.41826,-42.94514],[-64.60272,-42.94401],[-64.68642,-42.92131],[-64.74842,-42.88838],[-64.82593,-42.85658],[-64.89723,-42.81679],[-64.95613,-42.79064],[-64.98404,-42.75878],[-65.00109,-42.72804],[-64.97784,-42.68704],[-64.94218,-42.66994],[-64.84298,-42.64486],[-64.79183,-42.62548],[-64.68797,-42.56728],[-64.60737,-42.54445],[-64.50351,-42.53188],[-64.40586,-42.54216],[-64.2989,-42.59696],[-64.2524,-42.63574],[-64.2307,-42.68818],[-64.24,-42.76333],[-64.20435,-42.81452],[-64.14854,-42.85203],[-64.06949,-42.85999],[-63.97028,-42.85203],[-63.86643,-42.83271],[-63.78117,-42.81111],[-63.73157,-42.76902],[-63.69127,-42.71893],[-63.64632,-42.65398],[-63.61221,-42.5513],[-63.57656,-42.3855],[-63.62617,-42.22616],[-63.67577,-42.14231],[-63.70522,-42.10207],[-63.76257,-42.08136],[-63.81993,-42.08827],[-63.90208,-42.11127],[-64.02764,-42.16529],[-64.10979,-42.19745],[-64.19039,-42.22271],[-64.17179,-42.23763],[-64.10824,-42.25829],[-64.04314,-42.31218],[-64.04624,-42.35344],[-64.08189,-42.38779],[-64.18729,-42.42098],[-64.3578,-42.42671],[-64.48181,-42.41412],[-64.56086,-42.39466],[-64.57171,-42.36031],[-64.49576,-42.28467],[-64.52521,-42.2537],[-64.75152,-42.18252],[-64.87708,-42.14576],[-64.98249,-42.09747],[-65.01039,-42.02266],[-65.01488,-41.96929],[-65.76213,-41.9735],[-66.63274,-41.98571],[-67.57563,-41.9906],[-68.71563,-42.00036],[-69.87863,-41.99304],[-70.72953,-41.99304],[-71.53941,-41.99972],[-71.79506,-42.00265]]]}},{"type":"Feature","properties":{"shapeName":"Ciudad Autónoma de Buenos Aires","shapeISO":"AR-C","shapeID":"19177384B49506124846693","shapeGroup":"ARG","shapeType":"ADM1"},"geometry":{"type":"Polygon","coordinates":[[[-58.33947,-34.71453],[-58.42564,-34.67065],[-58.48145,-34.62857],[-58.4954,-34.57626],[-58.50228,-34.4378],[-58.53658,-34.41013],[-58.58916,-34.42228],[-58.62878,-34.43933],[-58.66409,-34.46347],[-58.70457,-34.49542],[-58.74505,-34.55999],[-58.74935,-34.5997],[-58.74505,-34.64151],[-58.73041,-34.68897],[-58.6994,-34.72933],[-58.64859,-34.77037],[-58.60983,-34.78734],[-58.52802,-34.79654],[-58.46256,-34.79159],[-58.40745,-34.77956],[-58.36266,-34.74207],[-58.33947,-34.71453]]]}},{"type":"Feature","properties":{"shapeName":"Córdoba","shapeISO":"AR-X","shapeID":"19177384B39000171219781","shapeGroup":"ARG","shapeType":"ADM1"},"geometry":{"type":"Polygon","coordinates":[[[-62.87248,-34.38461],[-62.85375,-34.33198],[-62.747,-34.17968],[-62.70797,-34.12065],[-62.65549,-34.05044],[-62.59225,-33.96008],[-62.53708,-33.87522],[-62.4671,-33.78803],[-62.40924,-33.70187],[-62.3137,-33.57639],[-62.25987,-33.499],[-62.17913,-33.39458],[-62.09704,-33.27765],[-62.02169,-33.19211],[-61.83598,-33.00498],[-61.80638,-32.97902],[-61.801,-32.89319],[-61.801,-32.82084],[-61.81714,-32.77899],[-61.84002,-32.74278],[-61.86693,-32.71108],[-61.89385,-32.6907],[-61.92076,-32.66238],[-61.92076,-32.49683],[-61.94498,-32.47072],[-61.98804,-32.4412],[-62.04322,-32.38781],[-62.10108,-32.31164],[-62.18586,-32.20695],[-62.20335,-32.16937],[-62.20201,-32.10898],[-62.19124,-32.00177],[-62.20066,-31.94241],[-62.22084,-31.88301],[-62.22084,-31.80528],[-62.22612,-31.75366],[-62.21406,-31.71484],[-62.19081,-31.6892],[-62.16067,-31.66135],[-62.10512,-31.629],[-62.07955,-31.56137],[-62.04994,-31.46615],[-62.02303,-31.35935],[-61.95306,-31.12464],[-61.90192,-30.98631],[-61.88174,-30.89397],[-61.85617,-30.79808],[-61.8481,-30.75646],[-61.86021,-30.71598],[-61.98401,-30.57473],[-62.06206,-30.50751],[-62.07955,-30.47273],[-62.0809,-30.43909],[-62.06475,-30.40892],[-62.0486,-30.31719],[-62.03514,-30.26723],[-62.01765,-30.12068],[-62.07382,-30.08038],[-62.10193,-30.0236],[-62.15894,-29.88556],[-62.17272,-29.84598],[-62.18306,-29.79816],[-62.2132,-29.77872],[-62.57233,-29.78545],[-62.97711,-29.79965],[-63.195,-29.8004],[-63.26992,-29.78396],[-63.31901,-29.75704],[-63.36897,-29.71965],[-63.4215,-29.67701],[-63.49643,-29.65306],[-63.62906,-29.64782],[-63.72293,-29.63809],[-63.78235,-29.62237],[-63.86159,-29.58418],[-63.90637,-29.56546],[-63.93996,-29.53324],[-63.98646,-29.48153],[-64.11479,-29.43053],[-64.22072,-29.42753],[-64.43,-29.48378],[-64.64789,-29.52125],[-64.78837,-29.55104],[-64.88472,-29.56771],[-64.87315,-29.64114],[-64.85835,-29.7183],[-64.85162,-29.77671],[-64.83951,-29.80708],[-64.84489,-29.84093],[-64.8745,-29.87478],[-64.91487,-29.91328],[-65.00788,-30.00645],[-65.04749,-30.0415],[-65.08625,-30.06982],[-65.12931,-30.08547],[-65.32852,-30.11613],[-65.32126,-30.12999],[-65.37374,-30.26839],[-65.41814,-30.37409],[-65.44506,-30.44257],[-65.48408,-30.5307],[-65.50561,-30.59559],[-65.53925,-30.67663],[-65.57962,-30.75415],[-65.6173,-30.85008],[-65.63916,-30.9136],[-65.66241,-30.96752],[-65.68652,-31.01477],[-65.70203,-31.08856],[-65.70289,-31.13353],[-65.696,-31.25288],[-65.69804,-31.36969],[-65.6967,-31.52696],[-65.70203,-31.87295],[-65.59007,-31.88027],[-65.55045,-31.90147],[-65.49189,-31.92267],[-65.36959,-31.98625],[-65.3162,-32.01108],[-65.26366,-32.0381],[-65.22577,-32.07532],[-65.1896,-32.12712],[-65.17582,-32.18472],[-65.16807,-32.22844],[-65.15342,-32.27287],[-65.13964,-32.30563],[-65.11381,-32.32383],[-65.07936,-32.32165],[-64.99754,-32.32092],[-64.95707,-32.31655],[-64.92434,-32.30636],[-64.89936,-32.30345],[-64.87611,-32.31437],[-64.86578,-32.35221],[-64.85975,-32.41839],[-64.84252,-32.48089],[-64.83391,-32.54553],[-64.8408,-32.59778],[-64.87267,-32.65291],[-64.92951,-32.7884],[-64.96137,-32.86945],[-64.98032,-32.92658],[-64.99754,-32.96416],[-65.00271,-33.03206],[-64.99668,-33.0963],[-65.01907,-33.12227],[-65.05697,-33.15327],[-65.09142,-33.19148],[-65.09917,-33.23831],[-65.09486,-33.28728],[-65.0785,-33.32903],[-65.05008,-33.67589],[-65.04922,-33.95342],[-65.03608,-34.35578],[-65.02656,-34.73335],[-65.01378,-34.99653],[-64.29202,-35.00446],[-63.71316,-35.01042],[-63.36924,-35.00446],[-63.39365,-34.56095],[-63.40605,-34.38588],[-62.87248,-34.38461]]]}},{"type":"Feature","properties":{"shapeName":"Corrientes","shapeISO":"AR-W","shapeID":"19177384B61983540054875","shapeGroup":"ARG","shapeType":"ADM1"},"geometry":{"type":"Polygon","coordinates":[[[-57.93218,-30.59126],[-57.89989,-30.54789],[-57.87148,-30.49226],[-57.83402,-30.42991],[-57.79785,-30.37866],[-57.72552,-30.32628],[-57.51111,-30.12874],[-57.39616,-30.04828],[-57.33932,-29.989],[-57.32253,-29.95432],[-57.31478,-29.85915],[-57.29928,-29.77286],[-57.0965,-29.75828],[-57.02546,-29.66293],[-56.96604,-29.6023],[-56.93634,-29.55625],[-56.89888,-29.51579],[-56.8498,-29.48769],[-56.74001,-29.3842],[-56.68059,-29.31777],[-56.65864,-29.26934],[-56.63668,-29.23215],[-56.50751,-29.10696],[-56.38868,-28.98388],[-56.30602,-28.90249],[-56.26469,-28.8335],[-56.15877,-28.7418],[-55.99474,-28.57293],[-55.93403,-28.50712],[-55.9082,-28.47079],[-55.88107,-28.42877],[-55.82295,-28.37537],[-55.6912,-28.364],[-55.68475,-28.33104],[-55.70412,-28.2992],[-55.72479,-28.26963],[-55.72479,-28.24232],[-55.70154,-28.20932],[-55.65375,-28.17858],[-55.6099,-28.13879],[-55.69028,-28.05097],[-55.72731,-27.98026],[-55.75659,-27.91255],[-55.82721,-27.69773],[-55.84186,-27.63671],[-55.86597,-27.59397],[-55.92281,-27.52908],[-55.93831,-27.49929],[-55.96587,-27.42975],[-55.96846,-27.38693],[-55.96732,-27.35047],[-55.99437,-27.34294],[-56.07572,-27.33765],[-56.15608,-27.35704],[-56.20171,-27.38787],[-56.25826,-27.43719],[-56.28008,-27.47944],[-56.28901,-27.53136],[-56.32572,-27.5683],[-56.37135,-27.58853],[-56.42195,-27.59028],[-56.47155,-27.5639],[-56.48643,-27.54455],[-56.50131,-27.5164],[-56.53008,-27.49441],[-56.57175,-27.47592],[-56.60449,-27.47768],[-56.66302,-27.50145],[-56.70964,-27.51816],[-56.75329,-27.5252],[-56.78702,-27.50761],[-56.81381,-27.48209],[-56.86143,-27.46184],[-56.90905,-27.4592],[-57.0152,-27.49177],[-57.07472,-27.49969],[-57.13127,-27.49617],[-57.21261,-27.48473],[-57.28503,-27.46448],[-57.36142,-27.44511],[-57.44872,-27.43103],[-57.52908,-27.4143],[-57.59158,-27.39492],[-57.67888,-27.36409],[-57.80685,-27.32179],[-57.88126,-27.30152],[-58.25645,-27.31756],[-58.57772,-27.32771],[-58.59864,-27.36093],[-58.6305,-27.37776],[-58.67356,-27.38999],[-58.7571,-27.43204],[-58.80533,-27.47942],[-58.82256,-27.51838],[-58.83461,-27.56497],[-58.82428,-27.60771],[-58.80361,-27.66265],[-58.7838,-27.69925],[-58.7683,-27.86003],[-58.78897,-27.96657],[-58.80722,-28.01002],[-58.83547,-28.06541],[-58.86906,-28.09656],[-58.92246,-28.14062],[-58.99911,-28.19984],[-59.02064,-28.24309],[-59.01375,-28.39169],[-59.01547,-28.48711],[-59.04131,-28.59152],[-59.05595,-28.66031],[-59.07403,-28.72604],[-59.09987,-28.8121],[-59.14121,-28.92071],[-59.16016,-29.00058],[-59.18772,-29.05254],[-59.24456,-29.12103],[-59.31432,-29.1639],[-59.39269,-29.20375],[-59.44522,-29.25561],[-59.4745,-29.31345],[-59.50981,-29.37201],[-59.53737,-29.42828],[-59.5391,-29.62013],[-59.56149,-29.7219],[-59.61575,-29.81684],[-59.62091,-29.87958],[-59.60283,-29.95199],[-59.57441,-29.99153],[-59.54599,-30.0497],[-59.55288,-30.09143],[-59.58646,-30.16816],[-59.60197,-30.2649],[-59.60283,-30.32439],[-59.51154,-30.31324],[-59.459,-30.29093],[-59.42197,-30.2835],[-59.33499,-30.30432],[-59.30312,-30.32068],[-59.24197,-30.3348],[-59.18341,-30.3296],[-59.14207,-30.29688],[-59.10418,-30.27011],[-59.06542,-30.24631],[-59.02408,-30.22473],[-58.93882,-30.2024],[-58.88629,-30.20389],[-58.82342,-30.21282],[-58.76744,-30.21133],[-58.72954,-30.20017],[-58.6572,-30.16071],[-58.61931,-30.15177],[-58.59003,-30.15773],[-58.56074,-30.17039],[-58.37041,-30.20687],[-58.22142,-30.24035],[-58.19989,-30.25895],[-58.17405,-30.29986],[-58.12583,-30.3623],[-58.07846,-30.40167],[-58.03626,-30.43435],[-57.97511,-30.54938],[-57.95789,-30.57608],[-57.93218,-30.59126]]]}},{"type":"Feature","properties":{"shapeName":"Formosa","shapeISO":"AR-P","shapeID":"19177384B45303095947895","shapeGroup":"ARG","shapeType":"ADM1"},"geometry":{"type":"Polygon","coordinates":[[[-58.31638,-26.90778],[-58.20467,-26.78728],[-58.17391,-26.71375],[-58.18681,-26.49199],[-58.17094,-26.40584],[-58.11935,-26.33206],[-58.07173,-26.2538],[-58.04891,-26.21286],[-57.94872,-26.1452],[-57.88622,-26.1167],[-57.86042,-26.09176],[-57.85149,-26.04987],[-57.84455,-25.9946],[-57.78503,-25.92324],[-57.75725,-25.85631],[-57.73642,-25.80094],[-57.70765,-25.76343],[-57.664,-25.74288],[-57.57074,-25.66332],[-57.54197,-25.60787],[-57.5509,-25.46196],[-57.58364,-25.40641],[-57.77511,-25.20103],[-57.81082,-25.16063],[-57.86042,-25.1283],[-57.93483,-25.10225],[-58.01121,-25.08069],[-58.06677,-25.03845],[-58.16498,-24.95753],[-58.18978,-24.93234],[-58.24038,-24.91345],[-58.26716,-24.92245],[-58.29593,-24.94763],[-58.33165,-24.96113],[-58.36736,-24.94224],[-58.41498,-24.88285],[-58.43879,-24.84505],[-58.47153,-24.80453],[-58.56776,-24.78382],[-58.6749,-24.77751],[-58.75625,-24.76761],[-58.81974,-24.74959],[-58.86934,-24.72346],[-58.92489,-24.6829],[-59.13323,-24.56837],[-59.3366,-24.45373],[-59.5489,-24.30555],[-59.88222,-24.1092],[-59.97349,-24.05758],[-60.01218,-24.02496],[-60.05782,-24.0168],[-60.08956,-24.03402],[-60.14313,-24.04942],[-60.24432,-24.05033],[-60.31277,-24.04308],[-60.42587,-24.00321],[-60.51515,-23.97602],[-60.63321,-23.93522],[-60.75027,-23.9053],[-60.86039,-23.8799],[-60.94174,-23.84724],[-61.00721,-23.81457],[-61.03796,-23.77372],[-61.07368,-23.7374],[-61.10146,-23.6611],[-61.1203,-23.61838],[-61.15007,-23.58384],[-61.2086,-23.56838],[-61.26812,-23.54292],[-61.32764,-23.52109],[-61.39411,-23.48197],[-61.45859,-23.44648],[-61.52506,-23.40643],[-61.56474,-23.36181],[-61.60939,-23.32447],[-61.66296,-23.30533],[-61.7076,-23.28438],[-61.7324,-23.24701],[-61.76514,-23.20416],[-61.83855,-23.13758],[-61.93478,-23.07371],[-61.98537,-23.0372],[-61.99232,-22.96323],[-62.04291,-22.91207],[-62.07664,-22.85997],[-62.12029,-22.81243],[-62.17882,-22.69807],[-62.2066,-22.63857],[-62.23835,-22.55889],[-62.31368,-22.5125],[-62.30707,-22.65336],[-62.30535,-22.87095],[-62.29588,-23.40315],[-62.28727,-23.97335],[-62.28296,-24.16443],[-62.20803,-24.16443],[-62.16153,-24.18014],[-62.12191,-24.19036],[-62.08057,-24.20764],[-62.03579,-24.21314],[-61.94622,-24.26889],[-61.90919,-24.30736],[-61.80067,-24.37327],[-61.70422,-24.37954],[-61.66891,-24.40151],[-61.5225,-24.53085],[-61.46566,-24.5849],[-61.44413,-24.61622],[-61.41398,-24.63579],[-61.27016,-24.66867],[-61.21073,-24.68823],[-61.17456,-24.71014],[-61.13753,-24.73908],[-61.1005,-24.78522],[-61.08069,-24.82744],[-61.07035,-24.86417],[-61.05485,-24.89073],[-61.0204,-24.91417],[-60.97045,-24.94072],[-60.91189,-24.96415],[-60.8473,-25.0102],[-60.7784,-25.05156],[-60.74912,-25.07809],[-60.70778,-25.09759],[-60.67419,-25.11864],[-60.65697,-25.13268],[-60.59324,-25.16932],[-60.53209,-25.19582],[-60.49678,-25.20439],[-60.47525,-25.21296],[-60.44424,-25.24023],[-60.41668,-25.26905],[-60.39946,-25.3002],[-60.36243,-25.329],[-60.30386,-25.42782],[-60.25477,-25.47759],[-60.22808,-25.51179],[-60.21171,-25.53666],[-60.19535,-25.55764],[-60.14884,-25.6392],[-60.11956,-25.65705],[-60.0877,-25.6687],[-60.04808,-25.68034],[-59.98607,-25.71216],[-59.94387,-25.7494],[-59.87325,-25.80058],[-59.76129,-25.89204],[-59.68981,-25.95323],[-59.639,-26.00356],[-59.61488,-26.06778],[-59.59163,-26.11033],[-59.53996,-26.15285],[-59.50551,-26.16908],[-59.44867,-26.17372],[-59.40733,-26.19845],[-59.39269,-26.21082],[-59.36427,-26.2255],[-59.32551,-26.27107],[-59.30484,-26.30504],[-59.2635,-26.36293],[-59.22905,-26.37605],[-59.20322,-26.38222],[-59.16532,-26.37991],[-59.13949,-26.36216],[-59.11451,-26.3421],[-59.08954,-26.3282],[-59.05681,-26.33515],[-59.02064,-26.35522],[-58.9259,-26.42002],[-58.72352,-26.58496],[-58.57797,-26.68349],[-58.45998,-26.79117],[-58.31638,-26.90778]]]}},{"type":"Feature","properties":{"shapeName":"Jujuy","shapeISO":"AR-Y","shapeID":"19177384B3883129267492","shapeGroup":"ARG","shapeType":"ADM1"},"geometry":{"type":"Polygon","coordinates":[[[-65.17636,-22.13095],[-65.46847,-22.1258],[-65.7393,-22.1258],[-65.80775,-22.10466],[-65.85438,-22.0541],[-65.9258,-21.96948],[-66.00418,-21.94648],[-66.06072,-21.9336],[-66.08652,-21.90691],[-66.10933,-21.85259],[-66.17183,-21.80931],[-66.23532,-21.80562],[-66.26707,-21.82773],[-66.28393,-21.90599],[-66.31866,-22.09455],[-66.44465,-22.14142],[-66.72341,-22.20297],[-66.77103,-22.23971],[-66.78492,-22.31406],[-66.80476,-22.43424],[-66.82857,-22.45624],[-66.89603,-22.46633],[-66.9873,-22.49933],[-67.03095,-22.53415],[-67.04484,-22.65871],[-67.11329,-22.71089],[-67.16884,-22.75847],[-67.17678,-22.8106],[-67.13313,-22.86089],[-67.06964,-22.91298],[-66.99722,-22.9888],[-66.99722,-23.03629],[-67.01408,-23.10474],[-67.05773,-23.21328],[-67.08551,-23.32538],[-67.15198,-23.53655],[-67.17976,-23.6102],[-67.19761,-23.70652],[-67.14795,-23.71964],[-67.08905,-23.75653],[-67.05339,-23.7849],[-66.98054,-23.82177],[-66.95109,-23.85155],[-66.86738,-23.91391],[-66.78833,-23.99183],[-66.76012,-24.02677],[-66.72341,-24.05395],[-66.69365,-24.06663],[-66.65099,-24.10105],[-66.61528,-24.12097],[-66.58453,-24.14089],[-66.56568,-24.1608],[-66.50417,-24.18253],[-66.4625,-24.18705],[-66.40893,-24.178],[-66.3504,-24.16261],[-66.30973,-24.13636],[-66.2879,-24.10377],[-66.27104,-24.07026],[-66.24921,-24.03855],[-66.23334,-23.76192],[-66.24028,-23.65837],[-66.276,-23.59293],[-66.30576,-23.54474],[-66.32064,-23.48015],[-66.32858,-23.42373],[-66.32064,-23.3782],[-66.30477,-23.35361],[-66.24128,-23.34997],[-66.19465,-23.36272],[-66.15199,-23.39004],[-66.06866,-23.4483],[-66.02203,-23.47196],[-65.98533,-23.51108],[-65.95556,-23.54838],[-65.93374,-23.58839],[-65.91191,-23.66382],[-65.90144,-23.84797],[-65.87922,-23.88629],[-65.80366,-23.96754],[-65.68557,-24.03772],[-65.65001,-24.0783],[-65.60684,-24.1936],[-65.55224,-24.29318],[-65.50843,-24.36087],[-65.44557,-24.3973],[-65.337,-24.42852],[-65.23732,-24.45915],[-65.18375,-24.4736],[-65.13315,-24.47811],[-65.07264,-24.47902],[-65.03097,-24.48353],[-65.00816,-24.50068],[-64.98038,-24.53137],[-64.94863,-24.55123],[-64.88911,-24.56747],[-64.86927,-24.58732],[-64.80181,-24.58912],[-64.76808,-24.56296],[-64.75221,-24.5395],[-64.74129,-24.51332],[-64.72046,-24.49256],[-64.69764,-24.48443],[-64.66689,-24.48714],[-64.64606,-24.50791],[-64.62721,-24.53228],[-64.60439,-24.55393],[-64.57165,-24.56927],[-64.53892,-24.56476],[-64.49923,-24.5404],[-64.45261,-24.48805],[-64.39796,-24.43141],[-64.3313,-24.42447],[-64.23352,-24.42563],[-64.1859,-24.39094],[-64.10146,-24.28392],[-64.07987,-24.24224],[-64.08178,-24.13857],[-64.09257,-24.02438],[-64.10463,-23.77652],[-64.11035,-23.61384],[-64.11536,-23.54703],[-64.13415,-23.53058],[-64.18006,-23.52313],[-64.2723,-23.53468],[-64.30209,-23.55438],[-64.35352,-23.59628],[-64.38146,-23.59337],[-64.40304,-23.57824],[-64.42654,-23.54972],[-64.45066,-23.53226],[-64.50146,-23.50723],[-64.54082,-23.49442],[-64.59669,-23.48743],[-64.66653,-23.49675],[-64.72748,-23.49442],[-64.7605,-23.48335],[-64.79034,-23.44899],[-64.79669,-23.41928],[-64.83098,-23.35401],[-64.87796,-23.30504],[-64.92431,-23.27938],[-64.9624,-23.2368],[-64.96875,-23.19479],[-64.95224,-23.16094],[-64.93129,-23.13233],[-64.91923,-23.1043],[-64.91796,-23.06575],[-64.94716,-23.02778],[-64.99034,-23.01025],[-65.04939,-23.00499],[-65.08938,-22.99973],[-65.1224,-22.97635],[-65.16303,-22.91846],[-65.25637,-22.63572],[-65.26589,-22.48738],[-65.257,-22.43926],[-65.21319,-22.36941],[-65.19605,-22.33007],[-65.17573,-22.27544],[-65.17129,-22.21197],[-65.17636,-22.13095]]]}},{"type":"Feature","properties":{"shapeName":"La Pampa","shapeISO":"AR-L","shapeID":"19177384B99972609216724","shapeGroup":"ARG","shapeType":"ADM1"},"geometry":{"type":"Polygon","coordinates":[[[-63.36924,-35.00446],[-63.71316,-35.01042],[-64.29202,-35.00446],[-65.01378,-34.99653],[-65.01136,-35.52061],[-65.00893,-36.00016],[-65.28262,-35.9982],[-65.60717,-36.00016],[-66.07219,-35.9982],[-66.56586,-35.98663],[-67.01677,-35.99037],[-67.41156,-35.98841],[-67.81603,-35.98057],[-68.1648,-35.98449],[-68.17691,-36.08046],[-68.16722,-36.37353],[-68.16238,-36.64023],[-68.16965,-36.84596],[-68.15996,-37.08012],[-68.16722,-37.3309],[-68.16589,-37.52732],[-68.1648,-37.54045],[-67.9776,-37.54852],[-67.83919,-37.56614],[-67.76618,-37.59029],[-67.70396,-37.6245],[-67.68047,-37.6612],[-67.65697,-37.68833],[-67.62777,-37.71446],[-67.62015,-37.74459],[-67.62586,-37.7742],[-67.67856,-37.8038],[-67.77499,-37.84483],[-67.82856,-37.90983],[-67.83947,-37.95286],[-67.83947,-37.99353],[-67.81665,-38.01776],[-67.78689,-38.03652],[-67.73927,-38.04589],[-67.6867,-38.06776],[-67.61924,-38.08104],[-67.58551,-38.10993],[-67.5607,-38.15909],[-67.54186,-38.18794],[-67.48828,-38.21133],[-67.43967,-38.22302],[-67.3613,-38.21991],[-67.27301,-38.20821],[-67.19464,-38.19652],[-67.15992,-38.18404],[-67.12222,-38.17859],[-67.09246,-38.19106],[-67.07658,-38.21913],[-67.0746,-38.25185],[-67.04484,-38.30792],[-67.01012,-38.34684],[-66.91389,-38.4075],[-66.74028,-38.45956],[-66.69167,-38.48054],[-66.61726,-38.49839],[-66.5627,-38.52479],[-66.50913,-38.57056],[-66.49028,-38.61244],[-66.4625,-38.63646],[-66.41985,-38.65971],[-66.33056,-38.6783],[-66.1262,-38.6992],[-65.79287,-38.72939],[-65.70061,-38.74719],[-65.66192,-38.76111],[-65.62124,-38.77349],[-65.58057,-38.77349],[-65.5399,-38.75802],[-65.48037,-38.75028],[-65.41093,-38.76034],[-65.36133,-38.77658],[-65.26212,-38.79282],[-65.20855,-38.80906],[-65.15498,-38.80751],[-65.08355,-38.79514],[-64.75717,-38.80983],[-64.63911,-38.81988],[-64.51114,-38.84538],[-64.46253,-38.86238],[-64.33654,-38.89327],[-64.20261,-38.93032],[-64.1034,-38.96581],[-63.99725,-39.01902],[-63.87325,-39.09297],[-63.74131,-39.17377],[-63.62821,-39.24679],[-63.55182,-39.2898],[-63.51214,-39.31974],[-63.46452,-39.34046],[-63.39409,-39.36424],[-63.37696,-38.8379],[-63.36182,-38.19537],[-63.35875,-37.3351],[-63.34101,-36.38894],[-63.34744,-35.75682],[-63.35471,-35.37263],[-63.36924,-35.00446]]]}},{"type":"Feature","properties":{"shapeName":"La Roja","shapeISO":"AR-F","shapeID":"19177384B72583408220290","shapeGroup":"ARG","shapeType":"ADM1"},"geometry":{"type":"Polygon","coordinates":[[[-69.1141,-27.80793],[-69.14898,-27.95544],[-69.19561,-27.99311],[-69.27795,-28.01063],[-69.3206,-28.06842],[-69.35136,-28.13405],[-69.41981,-28.20664],[-69.63409,-28.42061],[-69.53792,-28.42957],[-69.45525,-28.43941],[-69.37429,-28.45759],[-69.30367,-28.48484],[-69.22788,-28.52798],[-69.1676,-28.58396],[-69.0987,-28.65351],[-69.05564,-28.7419],[-68.99104,-28.83021],[-68.92129,-28.93654],[-68.88511,-28.97497],[-68.861,-29.00585],[-68.861,-29.03522],[-68.87822,-29.05932],[-68.9187,-29.09243],[-68.94109,-29.1278],[-68.94971,-29.15789],[-68.93937,-29.19173],[-68.93765,-29.32397],[-68.95832,-29.58269],[-68.96004,-29.62013],[-68.90578,-29.63435],[-68.80847,-29.64259],[-68.73182,-29.63211],[-68.68187,-29.62013],[-68.64483,-29.60291],[-68.60694,-29.60141],[-68.57593,-29.61863],[-68.54062,-29.6351],[-68.46225,-29.64782],[-68.34513,-29.65306],[-68.2702,-29.66204],[-68.22025,-29.68375],[-68.16255,-29.73611],[-68.08417,-29.80189],[-67.98772,-29.87436],[-67.81117,-30.03404],[-67.73796,-30.08398],[-67.63634,-30.15922],[-67.54419,-30.2344],[-67.49854,-30.27606],[-67.48562,-30.31324],[-67.48046,-30.35115],[-67.41414,-30.41653],[-67.28065,-30.53826],[-67.15663,-30.65464],[-67.06104,-30.73462],[-67.02573,-30.78273],[-67.00592,-30.83525],[-66.98181,-30.88034],[-66.98525,-30.91803],[-67.00161,-30.95349],[-67.00678,-30.99115],[-67.00678,-31.03249],[-66.96458,-31.06643],[-66.96458,-31.10552],[-66.98267,-31.1807],[-66.99214,-31.24405],[-67.01109,-31.27129],[-67.00506,-31.30588],[-66.97922,-31.34193],[-66.96028,-31.41398],[-66.96286,-31.4735],[-66.93874,-31.5227],[-66.89138,-31.57994],[-66.82248,-31.62762],[-66.77683,-31.67527],[-66.74239,-31.70605],[-66.71827,-31.76099],[-66.7131,-31.84296],[-66.65282,-31.8437],[-66.61406,-31.84808],[-66.58995,-31.86418],[-66.54603,-31.88246],[-66.49952,-31.89343],[-66.38067,-31.90294],[-66.30747,-31.91244],[-66.25665,-31.92121],[-66.17398,-31.91683],[-66.10594,-31.90732],[-66.03015,-31.86491],[-65.96987,-31.84589],[-65.88116,-31.84589],[-65.82776,-31.8693],[-65.76576,-31.87369],[-65.70203,-31.87295],[-65.6967,-31.52696],[-65.69804,-31.36969],[-65.696,-31.25288],[-65.70289,-31.13353],[-65.70203,-31.08856],[-65.68652,-31.01477],[-65.66241,-30.96752],[-65.63916,-30.9136],[-65.6173,-30.85008],[-65.57962,-30.75415],[-65.53925,-30.67663],[-65.50561,-30.59559],[-65.48408,-30.5307],[-65.44506,-30.44257],[-65.41814,-30.37409],[-65.37374,-30.26839],[-65.32126,-30.12999],[-65.32852,-30.11613],[-65.3317,-30.10112],[-65.3739,-30.01316],[-65.45571,-29.86465],[-65.516,-29.7204],[-65.62796,-29.50701],[-65.64002,-29.46203],[-65.64088,-29.29468],[-65.67791,-29.25261],[-65.7425,-29.19473],[-65.85618,-29.0834],[-65.93542,-29.01338],[-66.16623,-28.86943],[-66.22307,-28.83549],[-66.26354,-28.81964],[-66.27216,-28.80229],[-66.26785,-28.7804],[-66.25665,-28.76304],[-66.23168,-28.75171],[-66.2291,-28.73737],[-66.23512,-28.71849],[-66.25579,-28.70338],[-66.28938,-28.67543],[-66.34105,-28.62857],[-66.36517,-28.58774],[-66.39187,-28.51587],[-66.4022,-28.46289],[-66.42115,-28.39927],[-66.43837,-28.38033],[-66.46938,-28.36593],[-66.53914,-28.34471],[-66.64334,-28.31894],[-66.69588,-28.29771],[-66.75789,-28.28102],[-66.81301,-28.27723],[-66.8509,-28.28026],[-66.91119,-28.29012],[-66.98783,-28.31287],[-67.0619,-28.32955],[-67.18419,-28.32576],[-67.60619,-28.30453],[-67.66562,-28.31439],[-67.70437,-28.32727],[-67.73968,-28.32576],[-67.76897,-28.3159],[-67.7948,-28.28861],[-67.81719,-28.25068],[-67.84217,-28.21654],[-67.89126,-28.1391],[-67.91882,-28.11176],[-67.98341,-28.08593],[-68.06523,-28.06769],[-68.15566,-28.06237],[-68.21939,-28.04565],[-68.26848,-28.01904],[-68.31671,-28.00232],[-68.3546,-27.97874],[-68.36752,-27.92244],[-68.37096,-27.78157],[-68.38302,-27.73585],[-68.42005,-27.72975],[-68.45622,-27.73204],[-68.49498,-27.7389],[-68.71029,-27.74499],[-68.861,-27.76557],[-69.01947,-27.78996],[-69.1141,-27.80793]]]}},{"type":"Feature","properties":{"shapeName":"Mendoza","shapeISO":"AR-M","shapeID":"19177384B51705615570562","shapeGroup":"ARG","shapeType":"ADM1"},"geometry":{"type":"Polygon","coordinates":[[[-66.56586,-35.98663],[-66.54943,-35.85532],[-66.5284,-35.72058],[-66.49476,-35.60271],[-66.47794,-35.49151],[-66.45481,-35.35444],[-66.4506,-35.20854],[-66.47454,-34.95269],[-66.48316,-34.88348],[-66.51158,-34.82482],[-66.53914,-34.78098],[-66.571,-34.7364],[-66.60976,-34.66277],[-66.63129,-34.62663],[-66.66057,-34.59544],[-66.69071,-34.52665],[-66.69932,-34.44572],[-66.72602,-34.39315],[-66.72861,-34.34125],[-66.71913,-34.24449],[-66.70277,-34.19393],[-66.68296,-34.16115],[-66.67365,-34.09837],[-66.68172,-34.04598],[-66.70594,-33.99802],[-66.74093,-33.96232],[-66.81898,-33.85957],[-66.8607,-33.79809],[-66.93605,-33.70411],[-67.00506,-33.58984],[-67.03865,-33.54392],[-67.06621,-33.48576],[-67.09721,-33.24768],[-67.13117,-33.06251],[-67.15136,-32.91013],[-67.14113,-32.82966],[-67.12046,-32.74712],[-67.1351,-32.67248],[-67.16352,-32.6239],[-67.21434,-32.54262],[-67.24556,-32.50591],[-67.2729,-32.45909],[-67.3039,-32.41839],[-67.32371,-32.37258],[-67.32371,-32.28816],[-67.32113,-32.1993],[-67.6527,-32.19565],[-67.75863,-32.18982],[-67.78877,-32.17597],[-67.85767,-32.12274],[-67.8904,-32.06291],[-67.91451,-32.04321],[-67.94379,-32.03299],[-67.98427,-32.04102],[-68.05403,-32.07605],[-68.08848,-32.09794],[-68.11948,-32.12056],[-68.16857,-32.13806],[-68.22714,-32.14025],[-68.27364,-32.15046],[-68.31068,-32.1767],[-68.38646,-32.22261],[-68.48809,-32.26559],[-68.58541,-32.31437],[-68.64655,-32.32529],[-68.67498,-32.3231],[-68.72579,-32.31437],[-68.76971,-32.28525],[-68.80847,-32.2503],[-68.82913,-32.22261],[-68.83947,-32.1665],[-68.83775,-32.09721],[-68.92387,-32.07386],[-68.96176,-32.04394],[-68.99966,-32.02276],[-69.03669,-31.97894],[-69.08233,-31.95995],[-69.1142,-31.95995],[-69.15209,-31.98698],[-69.19171,-32.02714],[-69.25372,-32.04321],[-69.36482,-32.04978],[-69.42252,-32.06802],[-69.47678,-32.10232],[-69.51639,-32.16504],[-69.53706,-32.20294],[-69.56462,-32.235],[-69.59993,-32.25539],[-69.68175,-32.2736],[-69.77562,-32.28962],[-69.87811,-32.31728],[-69.91256,-32.31801],[-69.96251,-32.31],[-70.0004,-32.29908],[-70.03399,-32.29981],[-70.07188,-32.30709],[-70.12011,-32.32237],[-70.24365,-32.37015],[-70.16286,-32.4672],[-70.1321,-32.5358],[-70.12218,-32.6077],[-70.11524,-32.72295],[-70.1073,-32.79553],[-70.0706,-32.84722],[-69.98726,-32.9172],[-69.99322,-32.96466],[-70.02496,-33.0279],[-70.05472,-33.09275],[-70.06266,-33.16752],[-70.05671,-33.22812],[-70.01702,-33.28038],[-69.97833,-33.3036],[-69.93369,-33.31687],[-69.88607,-33.29531],[-69.86524,-33.2837],[-69.84044,-33.27955],[-69.81266,-33.2895],[-69.76207,-33.31272],[-69.73231,-33.35085],[-69.74421,-33.40221],[-69.76802,-33.47672],[-69.80969,-33.64205],[-69.85631,-33.76255],[-69.8583,-33.84581],[-69.83945,-33.93392],[-69.82953,-34.04579],[-69.80969,-34.12467],[-69.79977,-34.19198],[-69.81266,-34.27318],[-69.85334,-34.31006],[-69.93865,-34.30924],[-69.99818,-34.32727],[-70.02198,-34.45416],[-70.13706,-34.56779],[-70.21147,-34.64536],[-70.23825,-34.70247],[-70.26603,-34.82146],[-70.29381,-34.9541],[-70.31563,-35.00368],[-70.31563,-35.05811],[-70.33051,-35.15955],[-70.35531,-35.20982],[-70.41285,-35.22765],[-70.51801,-35.24062],[-70.53488,-35.27221],[-70.53785,-35.31594],[-70.51503,-35.3475],[-70.45154,-35.36126],[-70.42873,-35.40008],[-70.41385,-35.44939],[-70.40392,-35.5342],[-70.38408,-35.64715],[-70.37615,-35.73255],[-70.36424,-35.78569],[-70.33547,-35.83476],[-70.32357,-35.88461],[-70.34738,-35.94005],[-70.37317,-35.96816],[-70.37019,-36.03638],[-70.37119,-36.11335],[-70.40194,-36.17103],[-70.29182,-36.26147],[-70.2571,-36.32544],[-70.20316,-36.3924],[-70.17526,-36.43606],[-70.16286,-36.48468],[-70.10929,-36.57441],[-70.06365,-36.59592],[-70.00611,-36.60946],[-69.96643,-36.63255],[-69.91881,-36.66916],[-69.81663,-36.7781],[-69.73528,-36.8464],[-69.73429,-36.95667],[-69.72239,-37.02403],[-69.67973,-37.07074],[-69.64004,-37.10161],[-69.58449,-37.12218],[-69.51901,-37.14116],[-69.42279,-37.14827],[-69.3335,-37.14906],[-69.24818,-37.13483],[-69.14799,-37.13562],[-69.04878,-37.1633],[-69.00414,-37.18859],[-68.98926,-37.23284],[-68.97835,-37.29126],[-68.94561,-37.3244],[-68.87815,-37.34964],[-68.81863,-37.36384],[-68.69958,-37.35122],[-68.64403,-37.3662],[-68.58153,-37.39143],[-68.53688,-37.42374],[-68.46942,-37.4647],[-68.40097,-37.49461],[-68.32458,-37.51665],[-68.20694,-37.52571],[-68.16589,-37.52732],[-68.16722,-37.3309],[-68.15996,-37.08012],[-68.16965,-36.84596],[-68.16238,-36.64023],[-68.16722,-36.37353],[-68.17691,-36.08046],[-68.1648,-35.98449],[-67.81603,-35.98057],[-67.41156,-35.98841],[-67.01677,-35.99037],[-66.56586,-35.98663]]]}},{"type":"Feature","properties":{"shapeName":"Misiones","shapeISO":"AR-N","shapeID":"19177384B16625472822217","shapeGroup":"ARG","shapeType":"ADM1"},"geometry":{"type":"Polygon","coordinates":[[[-55.6099,-28.13879],[-55.46129,-28.06467],[-55.35021,-28.02477],[-55.30759,-27.98257],[-55.26626,-27.93466],[-55.21072,-27.90727],[-55.14614,-27.88558],[-55.02472,-27.83648],[-54.97306,-27.8022],[-54.9356,-27.75992],[-54.90331,-27.71762],[-54.86714,-27.6776],[-54.8439,-27.64328],[-54.81806,-27.6181],[-54.72119,-27.5975],[-54.68373,-27.58147],[-54.60494,-27.51963],[-54.5494,-27.50703],[-54.4887,-27.49099],[-54.40087,-27.45891],[-54.32983,-27.47724],[-54.28979,-27.4761],[-54.25491,-27.45547],[-54.22391,-27.43025],[-54.20971,-27.40503],[-54.19808,-27.36947],[-54.16321,-27.32703],[-54.07667,-27.30981],[-53.99788,-27.26964],[-53.95655,-27.2237],[-53.89971,-27.1835],[-53.78347,-27.15937],[-53.74343,-27.11799],[-53.68659,-27.02368],[-53.67497,-26.97879],[-53.69047,-26.70566],[-53.65689,-26.56827],[-53.6091,-26.35667],[-53.60135,-26.29531],[-53.60651,-26.24087],[-53.63751,-26.1783],[-53.74084,-26.00081],[-53.75893,-25.93811],[-53.77313,-25.86258],[-53.7938,-25.6823],[-53.9178,-25.60195],[-54.01209,-25.56933],[-54.08442,-25.55185],[-54.1335,-25.54836],[-54.21229,-25.55302],[-54.33241,-25.59729],[-54.37245,-25.63107],[-54.39828,-25.63689],[-54.45124,-25.61826],[-54.4732,-25.60312],[-54.51195,-25.5903],[-54.54295,-25.58564],[-54.57872,-25.60787],[-54.59558,-25.64275],[-54.60947,-25.68478],[-54.60153,-25.75717],[-54.57475,-25.80541],[-54.55491,-25.86256],[-54.57376,-25.9054],[-54.60054,-25.97766],[-54.63626,-26.10601],[-54.65213,-26.18349],[-54.65709,-26.24401],[-54.67098,-26.33029],[-54.68288,-26.4396],[-54.77812,-26.53993],[-54.77613,-26.61002],[-54.78506,-26.65879],[-54.84955,-26.6783],[-54.87435,-26.70312],[-54.91105,-26.75894],[-54.94379,-26.78285],[-54.99538,-26.80322],[-55.04994,-26.8404],[-55.08268,-26.88465],[-55.12534,-26.96337],[-55.30093,-26.9899],[-55.35549,-27.01376],[-55.38922,-27.0332],[-55.45966,-27.10917],[-55.51819,-27.12948],[-55.56382,-27.19303],[-55.57374,-27.31738],[-55.60053,-27.35175],[-55.64319,-27.38523],[-55.68882,-27.41782],[-55.74934,-27.43895],[-55.79596,-27.42927],[-55.86144,-27.39932],[-55.91203,-27.36585],[-55.96732,-27.35047],[-55.96846,-27.38693],[-55.96587,-27.42975],[-55.93831,-27.49929],[-55.92281,-27.52908],[-55.86597,-27.59397],[-55.84186,-27.63671],[-55.82721,-27.69773],[-55.75659,-27.91255],[-55.72731,-27.98026],[-55.69028,-28.05097],[-55.6099,-28.13879]]]}},{"type":"Feature","properties":{"shapeName":"Neuquén","shapeISO":"AR-Q","shapeID":"19177384B94928710157578","shapeGroup":"ARG","shapeType":"ADM1"},"geometry":{"type":"Polygon","coordinates":[[[-68.16589,-37.52732],[-68.20694,-37.52571],[-68.32458,-37.51665],[-68.40097,-37.49461],[-68.46942,-37.4647],[-68.53688,-37.42374],[-68.58153,-37.39143],[-68.64403,-37.3662],[-68.69958,-37.35122],[-68.81863,-37.36384],[-68.87815,-37.34964],[-68.94561,-37.3244],[-68.97835,-37.29126],[-68.98926,-37.23284],[-69.00414,-37.18859],[-69.04878,-37.1633],[-69.14799,-37.13562],[-69.24818,-37.13483],[-69.3335,-37.14906],[-69.42279,-37.14827],[-69.51901,-37.14116],[-69.58449,-37.12218],[-69.64004,-37.10161],[-69.67973,-37.07074],[-69.72239,-37.02403],[-69.73429,-36.95667],[-69.73528,-36.8464],[-69.81663,-36.7781],[-69.91881,-36.66916],[-69.96643,-36.63255],[-70.00611,-36.60946],[-70.06365,-36.59592],[-70.10929,-36.57441],[-70.16286,-36.48468],[-70.17526,-36.43606],[-70.20316,-36.3924],[-70.2571,-36.32544],[-70.29182,-36.26147],[-70.40194,-36.17103],[-70.5448,-36.18224],[-70.58944,-36.20386],[-70.6321,-36.23827],[-70.67773,-36.29586],[-70.68567,-36.36619],[-70.73229,-36.43806],[-70.77297,-36.45083],[-70.86622,-36.45402],[-70.93566,-36.46599],[-71.00015,-36.50427],[-71.03586,-36.54493],[-71.06364,-36.68428],[-71.12812,-36.73677],[-71.17276,-36.80034],[-71.19062,-36.88688],[-71.19261,-36.97173],[-71.17276,-37.04541],[-71.10927,-37.18622],[-71.13407,-37.24942],[-71.16582,-37.28968],[-71.1807,-37.35674],[-71.1678,-37.40877],[-71.13011,-37.4647],[-71.12217,-37.51665],[-71.1936,-37.65108],[-71.18864,-37.71232],[-71.16979,-37.76332],[-71.13507,-37.84797],[-71.09737,-37.91687],[-71.05471,-38.00213],[-71.01205,-38.13802],[-71.02197,-38.3017],[-71.01007,-38.38573],[-70.98328,-38.42615],[-70.90392,-38.48675],[-70.85828,-38.531],[-70.83745,-38.58375],[-70.85233,-38.62561],[-70.88805,-38.6659],[-70.95253,-38.70849],[-71.0686,-38.76808],[-71.44657,-38.95116],[-71.46046,-38.99435],[-71.46046,-39.04907],[-71.45252,-39.12299],[-71.42375,-39.29441],[-71.43367,-39.3443],[-71.5051,-39.47843],[-71.54181,-39.53583],[-71.5428,-39.58096],[-71.56859,-39.61689],[-71.6926,-39.62147],[-71.72732,-39.65891],[-71.74319,-39.72227],[-71.73526,-39.79548],[-71.67673,-39.87242],[-71.6301,-39.92646],[-71.62923,-39.99109],[-71.65403,-40.10975],[-71.80904,-40.12516],[-71.83849,-40.1844],[-71.83849,-40.24713],[-71.81369,-40.30153],[-71.70054,-40.34053],[-71.68504,-40.37597],[-71.75479,-40.43498],[-71.80904,-40.47391],[-71.85864,-40.54462],[-71.8912,-40.61408],[-71.91879,-40.68902],[-71.95748,-40.74691],[-71.95351,-40.7965],[-71.89994,-40.88206],[-71.87216,-41.0057],[-71.72613,-41.00681],[-71.66454,-41.01064],[-71.5801,-41.0231],[-71.48042,-41.03316],[-71.42836,-41.07194],[-71.39026,-41.08917],[-71.35153,-41.10257],[-71.28868,-41.09826],[-71.24995,-41.07337],[-71.19026,-41.05949],[-71.14836,-41.02885],[-71.06963,-40.97518],[-71.03789,-40.94497],[-71.01058,-40.90276],[-71.00106,-40.8706],[-71.02963,-40.81728],[-71.06836,-40.77499],[-71.05439,-40.73122],[-70.98455,-40.68742],[-70.87535,-40.62432],[-70.73186,-40.58142],[-70.57313,-40.53753],[-70.49567,-40.50084],[-70.44488,-40.4825],[-70.39853,-40.48056],[-70.3744,-40.4907],[-70.32615,-40.50181],[-70.2252,-40.48732],[-70.12552,-40.45738],[-70.04282,-40.39047],[-70.00611,-40.3489],[-69.98131,-40.3126],[-69.97139,-40.26265],[-69.98826,-40.21343],[-69.97139,-40.15962],[-69.95453,-40.06174],[-69.9404,-40.00356],[-69.87945,-39.92009],[-69.79899,-39.87395],[-69.697,-39.84526],[-69.51943,-39.79844],[-69.38696,-39.7566],[-69.3087,-39.7154],[-69.2839,-39.6864],[-69.24025,-39.62682],[-69.21049,-39.59014],[-69.16188,-39.55267],[-69.11227,-39.52206],[-69.01009,-39.4968],[-68.92775,-39.47077],[-68.83748,-39.42787],[-68.80771,-39.40411],[-68.77398,-39.36117],[-68.71029,-39.32186],[-68.64236,-39.24962],[-68.59601,-39.19699],[-68.55474,-39.14137],[-68.51411,-39.10591],[-68.36808,-39.01914],[-68.31474,-38.98263],[-68.24617,-38.95498],[-68.21316,-38.94659],[-68.16998,-38.92535],[-68.1503,-38.88533],[-68.14586,-38.84133],[-68.1648,-38.62992],[-68.16015,-38.32412],[-68.1617,-38.12076],[-68.1648,-37.8789],[-68.1741,-37.78586],[-68.1648,-37.54045],[-68.16589,-37.52732]]]}},{"type":"Feature","properties":{"shapeName":"Río Negro","shapeISO":"AR-R","shapeID":"19177384B64043309462999","shapeGroup":"ARG","shapeType":"ADM1"},"geometry":{"type":"Polygon","coordinates":[[[-63.39409,-39.36424],[-63.46452,-39.34046],[-63.51214,-39.31974],[-63.55182,-39.2898],[-63.62821,-39.24679],[-63.74131,-39.17377],[-63.87325,-39.09297],[-63.99725,-39.01902],[-64.1034,-38.96581],[-64.20261,-38.93032],[-64.33654,-38.89327],[-64.46253,-38.86238],[-64.51114,-38.84538],[-64.63911,-38.81988],[-64.75717,-38.80983],[-65.08355,-38.79514],[-65.15498,-38.80751],[-65.20855,-38.80906],[-65.26212,-38.79282],[-65.36133,-38.77658],[-65.41093,-38.76034],[-65.48037,-38.75028],[-65.5399,-38.75802],[-65.58057,-38.77349],[-65.62124,-38.77349],[-65.66192,-38.76111],[-65.70061,-38.74719],[-65.79287,-38.72939],[-66.1262,-38.6992],[-66.33056,-38.6783],[-66.41985,-38.65971],[-66.4625,-38.63646],[-66.49028,-38.61244],[-66.50913,-38.57056],[-66.5627,-38.52479],[-66.61726,-38.49839],[-66.69167,-38.48054],[-66.74028,-38.45956],[-66.91389,-38.4075],[-67.01012,-38.34684],[-67.04484,-38.30792],[-67.0746,-38.25185],[-67.07658,-38.21913],[-67.09246,-38.19106],[-67.12222,-38.17859],[-67.15992,-38.18404],[-67.19464,-38.19652],[-67.27301,-38.20821],[-67.3613,-38.21991],[-67.43967,-38.22302],[-67.48828,-38.21133],[-67.54186,-38.18794],[-67.5607,-38.15909],[-67.58551,-38.10993],[-67.61924,-38.08104],[-67.6867,-38.06776],[-67.73927,-38.04589],[-67.78689,-38.03652],[-67.81665,-38.01776],[-67.83947,-37.99353],[-67.83947,-37.95286],[-67.82856,-37.90983],[-67.77499,-37.84483],[-67.67856,-37.8038],[-67.62586,-37.7742],[-67.62015,-37.74459],[-67.62777,-37.71446],[-67.65697,-37.68833],[-67.68047,-37.6612],[-67.70396,-37.6245],[-67.76618,-37.59029],[-67.83919,-37.56614],[-67.9776,-37.54852],[-68.1648,-37.54045],[-68.1741,-37.78586],[-68.1648,-37.8789],[-68.1617,-38.12076],[-68.16015,-38.32412],[-68.1648,-38.62992],[-68.14586,-38.84133],[-68.1503,-38.88533],[-68.16998,-38.92535],[-68.21316,-38.94659],[-68.24617,-38.95498],[-68.31474,-38.98263],[-68.36808,-39.01914],[-68.51411,-39.10591],[-68.55474,-39.14137],[-68.59601,-39.19699],[-68.64236,-39.24962],[-68.71029,-39.32186],[-68.77398,-39.36117],[-68.80771,-39.40411],[-68.83748,-39.42787],[-68.92775,-39.47077],[-69.01009,-39.4968],[-69.11227,-39.52206],[-69.16188,-39.55267],[-69.21049,-39.59014],[-69.24025,-39.62682],[-69.2839,-39.6864],[-69.3087,-39.7154],[-69.38696,-39.7566],[-69.51943,-39.79844],[-69.697,-39.84526],[-69.79899,-39.87395],[-69.87945,-39.92009],[-69.9404,-40.00356],[-69.95453,-40.06174],[-69.97139,-40.15962],[-69.98826,-40.21343],[-69.97139,-40.26265],[-69.98131,-40.3126],[-70.00611,-40.3489],[-70.04282,-40.39047],[-70.12552,-40.45738],[-70.2252,-40.48732],[-70.32615,-40.50181],[-70.3744,-40.4907],[-70.39853,-40.48056],[-70.44488,-40.4825],[-70.49567,-40.50084],[-70.57313,-40.53753],[-70.73186,-40.58142],[-70.87535,-40.62432],[-70.98455,-40.68742],[-71.05439,-40.73122],[-71.06836,-40.77499],[-71.02963,-40.81728],[-71.00106,-40.8706],[-71.01058,-40.90276],[-71.03789,-40.94497],[-71.06963,-40.97518],[-71.14836,-41.02885],[-71.19026,-41.05949],[-71.24995,-41.07337],[-71.28868,-41.09826],[-71.35153,-41.10257],[-71.39026,-41.08917],[-71.42836,-41.07194],[-71.48042,-41.03316],[-71.5801,-41.0231],[-71.66454,-41.01064],[-71.72613,-41.00681],[-71.87216,-41.0057],[-71.9168,-41.37896],[-71.91978,-41.51281],[-71.88605,-41.57889],[-71.88605,-41.6286],[-71.92176,-41.67381],[-71.93962,-41.71233],[-71.92573,-41.76193],[-71.90887,-41.80706],[-71.87315,-41.88982],[-71.79506,-42.00265],[-71.53941,-41.99972],[-70.72953,-41.99304],[-69.87863,-41.99304],[-68.71563,-42.00036],[-67.57563,-41.9906],[-66.63274,-41.98571],[-65.76213,-41.9735],[-65.01488,-41.96929],[-65.01659,-41.94892],[-65.00729,-41.87394],[-64.98714,-41.80581],[-64.97164,-41.73644],[-64.96079,-41.5627],[-64.97319,-41.48959],[-64.99644,-41.42338],[-65.01659,-41.31985],[-65.06774,-41.17066],[-65.08634,-41.05739],[-65.07549,-40.95913],[-65.04759,-40.87479],[-64.99489,-40.76922],[-64.94838,-40.73752],[-64.88948,-40.73517],[-64.81353,-40.761],[-64.72982,-40.79856],[-64.65232,-40.82555],[-64.56706,-40.85135],[-64.45081,-40.90057],[-64.3609,-40.93337],[-64.2648,-40.97317],[-64.15784,-41.01178],[-64.04159,-41.04102],[-63.98268,-41.0644],[-63.89278,-41.10879],[-63.79512,-41.15433],[-63.16424,-41.13215],[-62.96273,-41.10996],[-62.82632,-41.07024],[-62.78329,-41.03385],[-62.81473,-40.94803],[-62.86334,-40.87156],[-62.91096,-40.82203],[-62.96751,-40.78448],[-63.02901,-40.75217],[-63.0925,-40.73564],[-63.18749,-40.72225],[-63.2681,-40.71755],[-63.32855,-40.72107],[-63.389,-40.70697],[-63.40915,-40.59996],[-63.4138,-40.30744],[-63.41845,-40.169],[-63.40605,-39.85081],[-63.39508,-39.51288],[-63.39409,-39.36424]]]}},{"type":"Feature","properties":{"shapeName":"Salta","shapeISO":"AR-A","shapeID":"19177384B81563233036116","shapeGroup":"ARG","shapeType":"ADM1"},"geometry":{"type":"Polygon","coordinates":[[[-65.92853,-26.24172],[-65.85963,-26.24326],[-65.79848,-26.24867],[-65.7425,-26.25562],[-65.70289,-26.25562],[-65.6538,-26.24635],[-65.6116,-26.21159],[-65.5694,-26.15981],[-65.54011,-26.11883],[-65.51772,-26.09254],[-65.47466,-26.0848],[-65.4049,-26.0995],[-65.36529,-26.10259],[-65.24816,-26.07784],[-65.21113,-26.08326],[-65.15773,-26.11187],[-65.10606,-26.15208],[-65.04233,-26.18068],[-64.9097,-26.24558],[-64.83046,-26.25562],[-64.7831,-26.25408],[-64.71937,-26.22936],[-64.63411,-26.21082],[-64.52301,-26.21236],[-64.47909,-26.2309],[-64.43602,-26.24017],[-64.36885,-26.24249],[-64.34043,-26.16135],[-64.2767,-25.94007],[-64.21727,-25.81609],[-64.10617,-25.63065],[-64.06914,-25.5794],[-64.01833,-25.58716],[-63.98905,-25.60503],[-63.95632,-25.61823],[-63.90293,-25.63454],[-63.83919,-25.65938],[-63.65661,-25.66481],[-63.27165,-25.66947],[-63.22256,-25.57551],[-63.13127,-25.47137],[-62.99605,-25.3111],[-62.88065,-25.16932],[-62.81434,-25.09369],[-62.66707,-24.90401],[-62.54305,-24.7516],[-62.38975,-24.5661],[-62.30191,-24.45091],[-62.27521,-24.40151],[-62.27952,-24.24298],[-62.28296,-24.16443],[-62.28727,-23.97335],[-62.29588,-23.40315],[-62.30535,-22.87095],[-62.30707,-22.65336],[-62.31368,-22.5125],[-62.36037,-22.48375],[-62.42585,-22.44983],[-62.49926,-22.39113],[-62.5558,-22.34802],[-62.60342,-22.32049],[-62.62723,-22.27092],[-62.63021,-22.22501],[-62.68179,-22.19195],[-62.7304,-22.17541],[-62.78993,-22.14969],[-62.80481,-22.09639],[-62.81671,-22.00076],[-63.67087,-22.01823],[-63.68377,-22.05042],[-63.73635,-22.08076],[-63.78,-22.06513],[-63.82662,-22.03846],[-63.87126,-22.02559],[-63.91591,-22.03387],[-63.9536,-22.10374],[-64.01313,-22.19011],[-64.16094,-22.48191],[-64.19666,-22.53232],[-64.22939,-22.60744],[-64.24626,-22.69258],[-64.26213,-22.78865],[-64.30876,-22.85632],[-64.36134,-22.80146],[-64.40201,-22.73376],[-64.43277,-22.67428],[-64.44269,-22.60286],[-64.51808,-22.43974],[-64.54586,-22.34068],[-64.58455,-22.27],[-64.70558,-22.20205],[-64.88217,-22.14417],[-65.01609,-22.12855],[-65.17636,-22.13095],[-65.17129,-22.21197],[-65.17573,-22.27544],[-65.19605,-22.33007],[-65.21319,-22.36941],[-65.257,-22.43926],[-65.26589,-22.48738],[-65.25637,-22.63572],[-65.16303,-22.91846],[-65.1224,-22.97635],[-65.08938,-22.99973],[-65.04939,-23.00499],[-64.99034,-23.01025],[-64.94716,-23.02778],[-64.91796,-23.06575],[-64.91923,-23.1043],[-64.93129,-23.13233],[-64.95224,-23.16094],[-64.96875,-23.19479],[-64.9624,-23.2368],[-64.92431,-23.27938],[-64.87796,-23.30504],[-64.83098,-23.35401],[-64.79669,-23.41928],[-64.79034,-23.44899],[-64.7605,-23.48335],[-64.72748,-23.49442],[-64.66653,-23.49675],[-64.59669,-23.48743],[-64.54082,-23.49442],[-64.50146,-23.50723],[-64.45066,-23.53226],[-64.42654,-23.54972],[-64.40304,-23.57824],[-64.38146,-23.59337],[-64.35352,-23.59628],[-64.30209,-23.55438],[-64.2723,-23.53468],[-64.18006,-23.52313],[-64.13415,-23.53058],[-64.11536,-23.54703],[-64.11035,-23.61384],[-64.10463,-23.77652],[-64.09257,-24.02438],[-64.08178,-24.13857],[-64.07987,-24.24224],[-64.10146,-24.28392],[-64.1859,-24.39094],[-64.23352,-24.42563],[-64.3313,-24.42447],[-64.39796,-24.43141],[-64.45261,-24.48805],[-64.49923,-24.5404],[-64.53892,-24.56476],[-64.57165,-24.56927],[-64.60439,-24.55393],[-64.62721,-24.53228],[-64.64606,-24.50791],[-64.66689,-24.48714],[-64.69764,-24.48443],[-64.72046,-24.49256],[-64.74129,-24.51332],[-64.75221,-24.5395],[-64.76808,-24.56296],[-64.80181,-24.58912],[-64.86927,-24.58732],[-64.88911,-24.56747],[-64.94863,-24.55123],[-64.98038,-24.53137],[-65.00816,-24.50068],[-65.03097,-24.48353],[-65.07264,-24.47902],[-65.13315,-24.47811],[-65.18375,-24.4736],[-65.23732,-24.45915],[-65.337,-24.42852],[-65.44557,-24.3973],[-65.50843,-24.36087],[-65.55224,-24.29318],[-65.60684,-24.1936],[-65.65001,-24.0783],[-65.68557,-24.03772],[-65.80366,-23.96754],[-65.87922,-23.88629],[-65.90144,-23.84797],[-65.91191,-23.66382],[-65.93374,-23.58839],[-65.95556,-23.54838],[-65.98533,-23.51108],[-66.02203,-23.47196],[-66.06866,-23.4483],[-66.15199,-23.39004],[-66.19465,-23.36272],[-66.24128,-23.34997],[-66.30477,-23.35361],[-66.32064,-23.3782],[-66.32858,-23.42373],[-66.32064,-23.48015],[-66.30576,-23.54474],[-66.276,-23.59293],[-66.24028,-23.65837],[-66.23334,-23.76192],[-66.24921,-24.03855],[-66.27104,-24.07026],[-66.2879,-24.10377],[-66.30973,-24.13636],[-66.3504,-24.16261],[-66.40893,-24.178],[-66.4625,-24.18705],[-66.50417,-24.18253],[-66.56568,-24.1608],[-66.58453,-24.14089],[-66.61528,-24.12097],[-66.65099,-24.10105],[-66.69365,-24.06663],[-66.72341,-24.05395],[-66.76012,-24.02677],[-66.78833,-23.99183],[-66.86738,-23.91391],[-66.95109,-23.85155],[-66.98054,-23.82177],[-67.05339,-23.7849],[-67.08905,-23.75653],[-67.14795,-23.71964],[-67.19761,-23.70652],[-67.23531,-23.79279],[-67.25218,-23.87536],[-67.28095,-23.94429],[-67.33352,-23.99868],[-67.43075,-24.04036],[-67.649,-24.12731],[-67.92181,-24.22867],[-68.13312,-24.30916],[-68.23629,-24.35165],[-68.35137,-24.45735],[-68.45355,-24.55845],[-68.51506,-24.63151],[-68.57557,-24.74508],[-68.57557,-24.79193],[-68.54879,-24.84595],[-68.51407,-24.88285],[-68.46645,-24.91345],[-68.42677,-24.9944],[-68.40097,-25.06721],[-68.39998,-25.1292],[-68.28576,-25.14091],[-68.15388,-25.16649],[-68.04488,-25.18476],[-67.95607,-25.20546],[-67.82581,-25.22309],[-67.78705,-25.23477],[-67.61825,-25.25581],[-67.47787,-25.24802],[-66.86985,-25.24646],[-66.60459,-25.25113],[-66.5288,-25.25113],[-66.4289,-25.25814],[-66.41856,-25.3002],[-66.41512,-25.35702],[-66.39531,-25.39282],[-66.37206,-25.42315],[-66.34622,-25.46126],[-66.3445,-25.49858],[-66.36345,-25.53278],[-66.39876,-25.5794],[-66.42373,-25.60813],[-66.47024,-25.62677],[-66.52794,-25.6392],[-66.63387,-25.65239],[-66.67521,-25.66559],[-66.6976,-25.69276],[-66.71052,-25.75793],[-66.71741,-25.80911],[-66.69416,-25.85252],[-66.6554,-25.90831],[-66.54344,-26.04767],[-66.47024,-26.14589],[-66.41684,-26.22704],[-66.37981,-26.27416],[-66.35139,-26.30196],[-66.30747,-26.31122],[-66.26182,-26.30659],[-66.21618,-26.2896],[-66.18345,-26.26721],[-66.15675,-26.22781],[-66.13781,-26.18763],[-66.11972,-26.16135],[-66.09474,-26.14125],[-66.06288,-26.13816],[-66.03187,-26.15208],[-65.98278,-26.18686],[-65.92853,-26.24172]]]}},{"type":"Feature","properties":{"shapeName":"San Juan","shapeISO":"AR-J","shapeID":"19177384B47339545206363","shapeGroup":"ARG","shapeType":"ADM1"},"geometry":{"type":"Polygon","coordinates":[[[-69.63409,-28.42061],[-69.65493,-28.45638],[-69.65592,-28.55228],[-69.67675,-28.62284],[-69.7204,-28.67159],[-69.75413,-28.71249],[-69.76703,-28.7612],[-69.75215,-28.81511],[-69.74619,-28.85248],[-69.78389,-28.92978],[-69.81663,-28.98534],[-69.82556,-29.02785],[-69.82258,-29.08162],[-69.79778,-29.12756],[-69.81861,-29.15961],[-69.8702,-29.17607],[-69.91484,-29.19686],[-69.96147,-29.23842],[-70.04579,-29.331],[-70.06564,-29.37856],[-70.05968,-29.42437],[-70.01901,-29.52024],[-69.98131,-29.62291],[-69.9198,-29.80213],[-69.92278,-29.94493],[-69.92774,-30.04202],[-69.9198,-30.12013],[-69.86524,-30.17418],[-69.83449,-30.21105],[-69.85234,-30.26505],[-69.96345,-30.42514],[-70.02099,-30.43626],[-70.11921,-30.44824],[-70.14996,-30.48672],[-70.17873,-30.55936],[-70.21742,-30.62682],[-70.24817,-30.70021],[-70.27992,-30.75734],[-70.30174,-30.80251],[-70.32853,-30.87321],[-70.32952,-30.95662],[-70.32059,-31.01616],[-70.29083,-31.05866],[-70.30174,-31.09604],[-70.33349,-31.14445],[-70.36821,-31.19114],[-70.41881,-31.20132],[-70.49123,-31.20217],[-70.51702,-31.22423],[-70.55174,-31.56127],[-70.5567,-31.64491],[-70.53686,-31.7133],[-70.394,-31.91899],[-70.32059,-31.92741],[-70.24024,-31.94256],[-70.2075,-32.00736],[-70.21047,-32.05278],[-70.25512,-32.09649],[-70.30174,-32.10237],[-70.34936,-32.1259],[-70.3325,-32.1956],[-70.29877,-32.27784],[-70.27893,-32.32144],[-70.24365,-32.37015],[-70.12011,-32.32237],[-70.07188,-32.30709],[-70.03399,-32.29981],[-70.0004,-32.29908],[-69.96251,-32.31],[-69.91256,-32.31801],[-69.87811,-32.31728],[-69.77562,-32.28962],[-69.68175,-32.2736],[-69.59993,-32.25539],[-69.56462,-32.235],[-69.53706,-32.20294],[-69.51639,-32.16504],[-69.47678,-32.10232],[-69.42252,-32.06802],[-69.36482,-32.04978],[-69.25372,-32.04321],[-69.19171,-32.02714],[-69.15209,-31.98698],[-69.1142,-31.95995],[-69.08233,-31.95995],[-69.03669,-31.97894],[-68.99966,-32.02276],[-68.96176,-32.04394],[-68.92387,-32.07386],[-68.83775,-32.09721],[-68.83947,-32.1665],[-68.82913,-32.22261],[-68.80847,-32.2503],[-68.76971,-32.28525],[-68.72579,-32.31437],[-68.67498,-32.3231],[-68.64655,-32.32529],[-68.58541,-32.31437],[-68.48809,-32.26559],[-68.38646,-32.22261],[-68.31068,-32.1767],[-68.27364,-32.15046],[-68.22714,-32.14025],[-68.16857,-32.13806],[-68.11948,-32.12056],[-68.08848,-32.09794],[-68.05403,-32.07605],[-67.98427,-32.04102],[-67.94379,-32.03299],[-67.91451,-32.04321],[-67.8904,-32.06291],[-67.85767,-32.12274],[-67.78877,-32.17597],[-67.75863,-32.18982],[-67.6527,-32.19565],[-67.32113,-32.1993],[-67.3039,-32.01838],[-67.29615,-31.89416],[-67.27721,-31.85613],[-67.25051,-31.82687],[-67.20056,-31.82174],[-67.02314,-31.82248],[-66.95252,-31.82833],[-66.85693,-31.86052],[-66.81214,-31.86491],[-66.76908,-31.85833],[-66.7131,-31.84296],[-66.71827,-31.76099],[-66.74239,-31.70605],[-66.77683,-31.67527],[-66.82248,-31.62762],[-66.89138,-31.57994],[-66.93874,-31.5227],[-66.96286,-31.4735],[-66.96028,-31.41398],[-66.97922,-31.34193],[-67.00506,-31.30588],[-67.01109,-31.27129],[-66.99214,-31.24405],[-66.98267,-31.1807],[-66.96458,-31.10552],[-66.96458,-31.06643],[-67.00678,-31.03249],[-67.00678,-30.99115],[-67.00161,-30.95349],[-66.98525,-30.91803],[-66.98181,-30.88034],[-67.00592,-30.83525],[-67.02573,-30.78273],[-67.06104,-30.73462],[-67.15663,-30.65464],[-67.28065,-30.53826],[-67.41414,-30.41653],[-67.48046,-30.35115],[-67.48562,-30.31324],[-67.49854,-30.27606],[-67.54419,-30.2344],[-67.63634,-30.15922],[-67.73796,-30.08398],[-67.81117,-30.03404],[-67.98772,-29.87436],[-68.08417,-29.80189],[-68.16255,-29.73611],[-68.22025,-29.68375],[-68.2702,-29.66204],[-68.34513,-29.65306],[-68.46225,-29.64782],[-68.54062,-29.6351],[-68.57593,-29.61863],[-68.60694,-29.60141],[-68.64483,-29.60291],[-68.68187,-29.62013],[-68.73182,-29.63211],[-68.80847,-29.64259],[-68.90578,-29.63435],[-68.96004,-29.62013],[-68.95832,-29.58269],[-68.93765,-29.32397],[-68.93937,-29.19173],[-68.94971,-29.15789],[-68.94109,-29.1278],[-68.9187,-29.09243],[-68.87822,-29.05932],[-68.861,-29.03522],[-68.861,-29.00585],[-68.88511,-28.97497],[-68.92129,-28.93654],[-68.99104,-28.83021],[-69.05564,-28.7419],[-69.0987,-28.65351],[-69.1676,-28.58396],[-69.22788,-28.52798],[-69.30367,-28.48484],[-69.37429,-28.45759],[-69.45525,-28.43941],[-69.53792,-28.42957],[-69.63409,-28.42061]]]}},{"type":"Feature","properties":{"shapeName":"San Luis","shapeISO":"AR-D","shapeID":"19177384B8726453430521","shapeGroup":"ARG","shapeType":"ADM1"},"geometry":{"type":"Polygon","coordinates":[[[-65.70203,-31.87295],[-65.76576,-31.87369],[-65.82776,-31.8693],[-65.88116,-31.84589],[-65.96987,-31.84589],[-66.03015,-31.86491],[-66.10594,-31.90732],[-66.17398,-31.91683],[-66.25665,-31.92121],[-66.30747,-31.91244],[-66.38067,-31.90294],[-66.49952,-31.89343],[-66.54603,-31.88246],[-66.58995,-31.86418],[-66.61406,-31.84808],[-66.65282,-31.8437],[-66.7131,-31.84296],[-66.76908,-31.85833],[-66.81214,-31.86491],[-66.85693,-31.86052],[-66.95252,-31.82833],[-67.02314,-31.82248],[-67.20056,-31.82174],[-67.25051,-31.82687],[-67.27721,-31.85613],[-67.29615,-31.89416],[-67.3039,-32.01838],[-67.32113,-32.1993],[-67.32371,-32.28816],[-67.32371,-32.37258],[-67.3039,-32.41839],[-67.2729,-32.45909],[-67.24556,-32.50591],[-67.21434,-32.54262],[-67.16352,-32.6239],[-67.1351,-32.67248],[-67.12046,-32.74712],[-67.14113,-32.82966],[-67.15136,-32.91013],[-67.13117,-33.06251],[-67.09721,-33.24768],[-67.06621,-33.48576],[-67.03865,-33.54392],[-67.00506,-33.58984],[-66.93605,-33.70411],[-66.8607,-33.79809],[-66.81898,-33.85957],[-66.74093,-33.96232],[-66.70594,-33.99802],[-66.68172,-34.04598],[-66.67365,-34.09837],[-66.68296,-34.16115],[-66.70277,-34.19393],[-66.71913,-34.24449],[-66.72861,-34.34125],[-66.72602,-34.39315],[-66.69932,-34.44572],[-66.69071,-34.52665],[-66.66057,-34.59544],[-66.63129,-34.62663],[-66.60976,-34.66277],[-66.571,-34.7364],[-66.53914,-34.78098],[-66.51158,-34.82482],[-66.48316,-34.88348],[-66.47454,-34.95269],[-66.4506,-35.20854],[-66.45481,-35.35444],[-66.47794,-35.49151],[-66.49476,-35.60271],[-66.5284,-35.72058],[-66.54943,-35.85532],[-66.56586,-35.98663],[-66.07219,-35.9982],[-65.60717,-36.00016],[-65.28262,-35.9982],[-65.00893,-36.00016],[-65.01136,-35.52061],[-65.01378,-34.99653],[-65.02656,-34.73335],[-65.03608,-34.35578],[-65.04922,-33.95342],[-65.05008,-33.67589],[-65.0785,-33.32903],[-65.09486,-33.28728],[-65.09917,-33.23831],[-65.09142,-33.19148],[-65.05697,-33.15327],[-65.01907,-33.12227],[-64.99668,-33.0963],[-65.00271,-33.03206],[-64.99754,-32.96416],[-64.98032,-32.92658],[-64.96137,-32.86945],[-64.92951,-32.7884],[-64.87267,-32.65291],[-64.8408,-32.59778],[-64.83391,-32.54553],[-64.84252,-32.48089],[-64.85975,-32.41839],[-64.86578,-32.35221],[-64.87611,-32.31437],[-64.89936,-32.30345],[-64.92434,-32.30636],[-64.95707,-32.31655],[-64.99754,-32.32092],[-65.07936,-32.32165],[-65.11381,-32.32383],[-65.13964,-32.30563],[-65.15342,-32.27287],[-65.16807,-32.22844],[-65.17582,-32.18472],[-65.1896,-32.12712],[-65.22577,-32.07532],[-65.26366,-32.0381],[-65.3162,-32.01108],[-65.36959,-31.98625],[-65.49189,-31.92267],[-65.55045,-31.90147],[-65.59007,-31.88027],[-65.70203,-31.87295]]]}},{"type":"Feature","properties":{"shapeName":"Santa Cruz","shapeISO":"AR-Z","shapeID":"19177384B63276911592202","shapeGroup":"ARG","shapeType":"ADM1"},"geometry":{"type":"Polygon","coordinates":[[[-71.65183,-46.00368],[-71.65093,-46.01324],[-71.68665,-46.04905],[-71.72137,-46.07727],[-71.87415,-46.1488],[-71.88803,-46.18659],[-71.87613,-46.22366],[-71.8424,-46.2614],[-71.81661,-46.30596],[-71.80173,-46.35186],[-71.78784,-46.47156],[-71.75708,-46.52073],[-71.72732,-46.57667],[-71.70252,-46.6128],[-71.70351,-46.66253],[-71.73129,-46.71765],[-71.93305,-46.85499],[-71.97645,-46.90373],[-71.9997,-46.97887],[-72.00125,-47.04545],[-71.9997,-47.10246],[-71.99195,-47.13727],[-71.9501,-47.16468],[-71.92375,-47.19944],[-71.9284,-47.24576],[-71.947,-47.2647],[-71.9935,-47.27312],[-72.05395,-47.27732],[-72.08186,-47.2973],[-72.11751,-47.38343],[-72.17331,-47.4212],[-72.26167,-47.45371],[-72.34227,-47.48724],[-72.38257,-47.51237],[-72.37017,-47.549],[-72.33607,-47.58665],[-72.35622,-47.62323],[-72.39807,-47.67127],[-72.41047,-47.70257],[-72.45549,-47.77025],[-72.49219,-47.83156],[-72.51898,-47.88614],[-72.56164,-47.94864],[-72.56957,-47.99845],[-72.51898,-48.03428],[-72.47533,-48.05683],[-72.41779,-48.09395],[-72.38009,-48.15487],[-72.35727,-48.2144],[-72.36819,-48.28707],[-72.39993,-48.36292],[-72.46739,-48.41497],[-72.55965,-48.45578],[-72.63306,-48.48274],[-72.66779,-48.50247],[-72.66624,-48.52428],[-72.64299,-48.64015],[-72.61973,-48.71078],[-72.62128,-48.80683],[-72.64764,-48.85785],[-72.70034,-48.9027],[-72.76234,-48.94039],[-72.86465,-48.95973],[-72.93595,-48.9872],[-72.9995,-49.02076],[-73.03671,-49.08171],[-73.11886,-49.19631],[-73.14521,-49.28536],[-73.18086,-49.34296],[-73.34827,-49.33892],[-73.42113,-49.36114],[-73.46918,-49.39949],[-73.51413,-49.4499],[-73.53118,-49.53649],[-73.48468,-49.69417],[-73.45833,-49.85933],[-73.48158,-49.91226],[-73.49863,-49.96015],[-73.49863,-50.01995],[-73.48468,-50.08066],[-73.49863,-50.14527],[-73.46608,-50.184],[-73.40718,-50.23261],[-73.34052,-50.27424],[-73.24752,-50.36232],[-73.23667,-50.51239],[-73.21807,-50.63053],[-73.19946,-50.6944],[-73.17311,-50.73758],[-73.10491,-50.75916],[-73.04291,-50.74641],[-72.9685,-50.7101],[-72.9096,-50.67672],[-72.85225,-50.64822],[-72.77939,-50.63643],[-72.74374,-50.65609],[-72.68019,-50.67279],[-72.61198,-50.65117],[-72.48953,-50.61774],[-72.45233,-50.61283],[-72.39342,-50.62758],[-72.34692,-50.6551],[-72.34692,-50.72188],[-72.34227,-50.75622],[-72.30197,-50.8062],[-72.28647,-50.88646],[-72.32522,-50.99195],[-72.37637,-51.03388],[-72.44458,-51.09428],[-72.43062,-51.14974],[-72.33452,-51.20318],[-72.29422,-51.2459],[-72.30352,-51.29148],[-72.33917,-51.34476],[-72.35729,-51.43804],[-72.37182,-51.46974],[-72.42995,-51.49839],[-72.45659,-51.52854],[-72.44206,-51.55867],[-72.37908,-51.60532],[-72.28947,-51.68498],[-72.21439,-51.736],[-72.05938,-51.79895],[-72.0061,-51.88574],[-72.00852,-51.95297],[-71.94555,-51.98132],[-71.57014,-51.99623],[-71.23241,-51.99271],[-70.85109,-52.00226],[-70.47597,-52.01657],[-70.35507,-52.01275],[-70.17991,-52.01657],[-69.94119,-52.04041],[-69.82804,-52.07853],[-69.69008,-52.11948],[-69.51337,-52.1775],[-69.20336,-52.19746],[-69.05145,-52.24684],[-68.94759,-52.29142],[-68.76158,-52.33122],[-68.51822,-52.36342],[-68.40971,-52.36626],[-68.72748,-52.09758],[-68.83444,-51.99462],[-69.0375,-51.76017],[-69.1212,-51.68816],[-69.1553,-51.64105],[-69.07005,-51.57848],[-69.05765,-51.53414],[-69.12585,-51.41636],[-69.18786,-51.29633],[-69.24056,-51.21678],[-69.26691,-51.11083],[-69.28551,-51.05727],[-69.32116,-51.02706],[-69.33046,-51.00073],[-69.29016,-50.96267],[-69.27311,-50.89428],[-69.28241,-50.81404],[-69.23746,-50.73366],[-69.22196,-50.63643],[-69.1429,-50.51338],[-69.06385,-50.44729],[-68.97704,-50.39791],[-68.80344,-50.3089],[-68.64998,-50.25739],[-68.50272,-50.2217],[-68.29501,-50.15918],[-68.16325,-50.11447],[-68.09505,-50.06872],[-68.01909,-50.01098],[-67.92299,-49.91326],[-67.88114,-49.86632],[-67.84084,-49.79533],[-67.82223,-49.72023],[-67.79743,-49.65505],[-67.75868,-49.48113],[-67.75093,-49.31569],[-67.71218,-49.14361],[-67.66103,-49.0675],[-67.61142,-49.01161],[-67.57112,-48.97703],[-67.48277,-48.93021],[-67.39751,-48.88232],[-67.34326,-48.84051],[-67.28436,-48.78743],[-67.25645,-48.73736],[-67.2053,-48.68315],[-67.08285,-48.64118],[-66.91389,-48.60019],[-66.84258,-48.5684],[-66.75733,-48.52633],[-66.69998,-48.4832],[-66.60387,-48.43694],[-66.35586,-48.29792],[-66.07064,-48.12852],[-66.00864,-48.11403],[-65.96059,-48.07883],[-65.93579,-48.02806],[-65.91874,-48.0011],[-65.88153,-47.9762],[-65.87068,-47.94299],[-65.89548,-47.90559],[-65.92203,-47.87961],[-65.95109,-47.83248],[-65.96078,-47.78856],[-65.95594,-47.73158],[-65.87601,-47.65332],[-65.80819,-47.61742],[-65.77429,-47.56351],[-65.7393,-47.42036],[-65.74525,-47.32362],[-65.80403,-47.16995],[-65.85673,-47.12567],[-65.94199,-47.08874],[-66.01019,-47.07291],[-66.32176,-47.06446],[-66.68603,-47.04862],[-66.77283,-47.01481],[-66.84568,-46.96089],[-66.94954,-46.87513],[-67.05029,-46.7871],[-67.16655,-46.70426],[-67.40061,-46.55736],[-67.44556,-46.50191],[-67.50292,-46.43785],[-67.53857,-46.37479],[-67.55872,-46.32772],[-67.57112,-46.23451],[-67.55717,-46.14223],[-67.54787,-46.04548],[-67.53547,-45.96904],[-67.75064,-45.96769],[-68.56685,-45.98452],[-69.08516,-45.98621],[-69.68097,-45.98789],[-70.16295,-45.98957],[-70.67642,-45.99126],[-71.20451,-45.9905],[-71.44459,-46.00428],[-71.65183,-46.00368]]]}},{"type":"Feature","properties":{"shapeName":"Santa Fe","shapeISO":"AR-S","shapeID":"19177384B6836410786482","shapeGroup":"ARG","shapeType":"ADM1"},"geometry":{"type":"Polygon","coordinates":[[[-59.60283,-30.32439],[-59.60197,-30.2649],[-59.58646,-30.16816],[-59.55288,-30.09143],[-59.54599,-30.0497],[-59.57441,-29.99153],[-59.60283,-29.95199],[-59.62091,-29.87958],[-59.61575,-29.81684],[-59.56149,-29.7219],[-59.5391,-29.62013],[-59.53737,-29.42828],[-59.50981,-29.37201],[-59.4745,-29.31345],[-59.44522,-29.25561],[-59.39269,-29.20375],[-59.31432,-29.1639],[-59.24456,-29.12103],[-59.18772,-29.05254],[-59.16016,-29.00058],[-59.14121,-28.92071],[-59.09987,-28.8121],[-59.07403,-28.72604],[-59.05595,-28.66031],[-59.04131,-28.59152],[-59.01547,-28.48711],[-59.01375,-28.39169],[-59.02064,-28.24309],[-58.99911,-28.19984],[-58.92246,-28.14062],[-58.86906,-28.09656],[-58.83547,-28.06541],[-58.80722,-28.01002],[-59.16089,-28.01872],[-59.71597,-28.01872],[-60.21429,-28.02058],[-60.89208,-28.01448],[-61.24691,-28.00916],[-61.62724,-28.00944],[-61.64894,-28.14375],[-61.6745,-28.25997],[-61.692,-28.38909],[-61.74448,-28.67519],[-61.77863,-28.88572],[-61.79545,-29.00348],[-61.81647,-29.08068],[-61.8375,-29.21657],[-61.87534,-29.36877],[-61.89427,-29.51891],[-61.9216,-29.66153],[-61.9445,-29.81011],[-61.97593,-29.96109],[-61.99477,-30.03917],[-62.01765,-30.12068],[-62.03514,-30.26723],[-62.0486,-30.31719],[-62.06475,-30.40892],[-62.0809,-30.43909],[-62.07955,-30.47273],[-62.06206,-30.50751],[-61.98401,-30.57473],[-61.86021,-30.71598],[-61.8481,-30.75646],[-61.85617,-30.79808],[-61.88174,-30.89397],[-61.90192,-30.98631],[-61.95306,-31.12464],[-62.02303,-31.35935],[-62.04994,-31.46615],[-62.07955,-31.56137],[-62.10512,-31.629],[-62.16067,-31.66135],[-62.19081,-31.6892],[-62.21406,-31.71484],[-62.22612,-31.75366],[-62.22084,-31.80528],[-62.22084,-31.88301],[-62.20066,-31.94241],[-62.19124,-32.00177],[-62.20201,-32.10898],[-62.20335,-32.16937],[-62.18586,-32.20695],[-62.10108,-32.31164],[-62.04322,-32.38781],[-61.98804,-32.4412],[-61.94498,-32.47072],[-61.92076,-32.49683],[-61.92076,-32.66238],[-61.89385,-32.6907],[-61.86693,-32.71108],[-61.84002,-32.74278],[-61.81714,-32.77899],[-61.801,-32.82084],[-61.801,-32.89319],[-61.80638,-32.97902],[-61.83598,-33.00498],[-62.02169,-33.19211],[-62.09704,-33.27765],[-62.17913,-33.39458],[-62.25987,-33.499],[-62.3137,-33.57639],[-62.40924,-33.70187],[-62.4671,-33.78803],[-62.53708,-33.87522],[-62.59225,-33.96008],[-62.65549,-34.05044],[-62.70797,-34.12065],[-62.747,-34.17968],[-62.85375,-34.33198],[-62.87248,-34.38461],[-62.26674,-34.3846],[-61.74902,-34.37308],[-61.58006,-34.17198],[-61.40025,-33.98839],[-61.19874,-33.76961],[-61.04683,-33.61356],[-60.9963,-33.56604],[-60.93777,-33.55281],[-60.75325,-33.55116],[-60.71952,-33.57017],[-60.67289,-33.60901],[-60.6342,-33.62553],[-60.58757,-33.62636],[-60.534,-33.59992],[-60.49035,-33.54289],[-60.45464,-33.48913],[-60.43182,-33.40055],[-60.40107,-33.36328],[-60.36238,-33.34339],[-60.2969,-33.30194],[-60.39688,-33.21382],[-60.54242,-33.10207],[-60.62855,-32.97428],[-60.64835,-32.93309],[-60.70003,-32.84775],[-60.7362,-32.75799],[-60.76893,-32.66378],[-60.79304,-32.60286],[-60.7896,-32.53827],[-60.75515,-32.37331],[-60.7095,-32.25758],[-60.70692,-31.9972],[-60.68797,-31.88685],[-60.6096,-31.75659],[-60.58032,-31.72656],[-60.55104,-31.71411],[-60.42444,-31.70312],[-60.37448,-31.64668],[-60.28061,-31.55353],[-60.20655,-31.46762],[-60.14282,-31.38384],[-60.12645,-31.33531],[-60.08856,-31.28233],[-59.99813,-31.18291],[-59.86292,-31.01625],[-59.73546,-30.87813],[-59.65795,-30.77089],[-59.61058,-30.71167],[-59.58646,-30.63612],[-59.57871,-30.539],[-59.59077,-30.46554],[-59.61833,-30.40465],[-59.6278,-30.3571],[-59.60283,-30.32439]]]}},{"type":"Feature","properties":{"shapeName":"Santiago del Estero","shapeISO":"AR-G","shapeID":"19177384B61792957744675","shapeGroup":"ARG","shapeType":"ADM1"},"geometry":{"type":"Polygon","coordinates":[[[-64.88472,-29.56771],[-64.78837,-29.55104],[-64.64789,-29.52125],[-64.43,-29.48378],[-64.22072,-29.42753],[-64.11479,-29.43053],[-63.98646,-29.48153],[-63.93996,-29.53324],[-63.90637,-29.56546],[-63.86159,-29.58418],[-63.78235,-29.62237],[-63.72293,-29.63809],[-63.62906,-29.64782],[-63.49643,-29.65306],[-63.4215,-29.67701],[-63.36897,-29.71965],[-63.31901,-29.75704],[-63.26992,-29.78396],[-63.195,-29.8004],[-62.97711,-29.79965],[-62.57233,-29.78545],[-62.2132,-29.77872],[-62.18306,-29.79816],[-62.17272,-29.84598],[-62.15894,-29.88556],[-62.10193,-30.0236],[-62.07382,-30.08038],[-62.01765,-30.12068],[-61.99477,-30.03917],[-61.97593,-29.96109],[-61.9445,-29.81011],[-61.9216,-29.66153],[-61.89427,-29.51891],[-61.87534,-29.36877],[-61.8375,-29.21657],[-61.81647,-29.08068],[-61.79545,-29.00348],[-61.77863,-28.88572],[-61.74448,-28.67519],[-61.692,-28.38909],[-61.6745,-28.25997],[-61.64894,-28.14375],[-61.62724,-28.00944],[-61.63985,-27.35591],[-61.63952,-26.67445],[-61.63548,-26.38188],[-61.63952,-26.0789],[-61.63817,-25.87204],[-61.63876,-25.66792],[-61.89885,-25.67102],[-62.32947,-25.67258],[-62.84792,-25.67335],[-63.27165,-25.66947],[-63.65661,-25.66481],[-63.83919,-25.65938],[-63.90293,-25.63454],[-63.95632,-25.61823],[-63.98905,-25.60503],[-64.01833,-25.58716],[-64.06914,-25.5794],[-64.10617,-25.63065],[-64.21727,-25.81609],[-64.2767,-25.94007],[-64.34043,-26.16135],[-64.36885,-26.24249],[-64.39872,-26.63153],[-64.4237,-26.66964],[-64.47752,-26.69609],[-64.50309,-26.73095],[-64.52462,-26.7682],[-64.56096,-26.81145],[-64.58652,-26.88109],[-64.59998,-26.93508],[-64.62824,-27.01424],[-64.73589,-27.22144],[-64.80714,-27.30943],[-64.90911,-27.4088],[-64.93392,-27.43767],[-64.92124,-27.45968],[-64.88045,-27.49684],[-64.88155,-27.53644],[-64.91903,-27.56625],[-64.92455,-27.61412],[-64.91297,-27.6898],[-64.89533,-27.75371],[-64.88872,-27.80638],[-64.90691,-27.83904],[-64.95596,-27.88338],[-65.02252,-27.9369],[-65.01907,-27.98863],[-65.01304,-28.02741],[-64.99927,-28.06845],[-64.99496,-28.1968],[-64.97773,-28.29922],[-64.96568,-28.46137],[-64.97515,-28.50452],[-64.9941,-28.53176],[-65.01907,-28.56354],[-65.04319,-28.5832],[-65.05783,-28.60513],[-65.05266,-28.62857],[-65.02338,-28.66031],[-64.9941,-28.68449],[-64.96482,-28.72],[-64.95986,-28.8581],[-64.94935,-29.05311],[-64.92412,-29.35961],[-64.90884,-29.45303],[-64.88472,-29.56771]]]}},{"type":"Feature","properties":{"shapeName":"Tierra del Fuego","shapeISO":"AR-V","shapeID":"19177384B7010788354129","shapeGroup":"ARG","shapeType":"ADM1"},"geometry":{"type":"MultiPolygon","coordinates":[[[[-64.45856,-54.66782],[-64.36865,-54.65348],[-64.2555,-54.63195],[-64.15164,-54.61849],[-64.00439,-54.6131],[-63.88193,-54.60323],[-63.79822,-54.58706],[-63.78737,-54.56191],[-63.82458,-54.53224],[-63.91448,-54.52324],[-64.03384,-54.52144],[-64.16714,-54.52414],[-64.29425,-54.52954],[-64.39501,-54.54123],[-64.50816,-54.56011],[-64.58722,-54.58347],[-64.65077,-54.614],[-64.62442,-54.65706],[-64.53916,-54.66782],[-64.45856,-54.66782]]],[[[-65.71257,-54.47463],[-65.91098,-54.43408],[-66.2489,-54.34201],[-66.70463,-54.12548],[-66.82088,-54.10095],[-67.03789,-54.0218],[-67.43936,-53.84385],[-67.63467,-53.71378],[-67.76798,-53.65411],[-67.91369,-53.54925],[-68.01599,-53.46352],[-68.08575,-53.35541],[-68.1338,-53.30357],[-68.18495,-53.28597],[-68.29656,-53.26279],[-68.35081,-53.24054],[-68.37617,-53.15321],[-68.37419,-53.09427],[-68.32558,-53.05792],[-68.25613,-52.99945],[-68.27994,-52.94628],[-68.42987,-52.8351],[-68.55717,-52.75912],[-68.55959,-52.89376],[-68.5499,-53.05274],[-68.5281,-53.20098],[-68.50117,-53.54465],[-68.47482,-53.75688],[-68.43607,-54.13508],[-68.39247,-54.52346],[-68.36583,-54.6932],[-68.23146,-54.6956],[-68.07335,-54.68396],[-67.95864,-54.67768],[-67.81603,-54.67768],[-67.67033,-54.69112],[-67.26421,-54.70546],[-66.98519,-54.71978],[-66.87668,-54.73321],[-66.76353,-54.75379],[-66.64572,-54.78509],[-66.52327,-54.81457],[-66.45351,-54.836],[-66.39151,-54.84404],[-66.31556,-54.836],[-66.23805,-54.80832],[-66.19155,-54.78598],[-66.1466,-54.77257],[-65.91098,-54.75737],[-65.85518,-54.72963],[-65.80248,-54.70725],[-65.62422,-54.70725],[-65.56997,-54.72336],[-65.51261,-54.7341],[-65.42426,-54.72247],[-65.2429,-54.70635],[-65.184,-54.68575],[-65.12509,-54.63285],[-65.10494,-54.58886],[-65.10029,-54.51874],[-65.14369,-54.47013],[-65.27545,-54.46112],[-65.35141,-54.46833],[-65.44906,-54.48274],[-65.61337,-54.48274],[-65.71257,-54.47463]]]]}},{"type":"Feature","properties":{"shapeName":"Tucumán","shapeISO":"AR-T","shapeID":"19177384B70412318542153","shapeGroup":"ARG","shapeType":"ADM1"},"geometry":{"type":"Polygon","coordinates":[[[-65.02252,-27.9369],[-64.95596,-27.88338],[-64.90691,-27.83904],[-64.88872,-27.80638],[-64.89533,-27.75371],[-64.91297,-27.6898],[-64.92455,-27.61412],[-64.91903,-27.56625],[-64.88155,-27.53644],[-64.88045,-27.49684],[-64.92124,-27.45968],[-64.93392,-27.43767],[-64.90911,-27.4088],[-64.80714,-27.30943],[-64.73589,-27.22144],[-64.62824,-27.01424],[-64.59998,-26.93508],[-64.58652,-26.88109],[-64.56096,-26.81145],[-64.52462,-26.7682],[-64.50309,-26.73095],[-64.47752,-26.69609],[-64.4237,-26.66964],[-64.39872,-26.63153],[-64.36885,-26.24249],[-64.43602,-26.24017],[-64.47909,-26.2309],[-64.52301,-26.21236],[-64.63411,-26.21082],[-64.71937,-26.22936],[-64.7831,-26.25408],[-64.83046,-26.25562],[-64.9097,-26.24558],[-65.04233,-26.18068],[-65.10606,-26.15208],[-65.15773,-26.11187],[-65.21113,-26.08326],[-65.24816,-26.07784],[-65.36529,-26.10259],[-65.4049,-26.0995],[-65.47466,-26.0848],[-65.51772,-26.09254],[-65.54011,-26.11883],[-65.5694,-26.15981],[-65.6116,-26.21159],[-65.6538,-26.24635],[-65.70289,-26.25562],[-65.7425,-26.25562],[-65.79848,-26.24867],[-65.85963,-26.24326],[-65.92853,-26.24172],[-65.93757,-26.28058],[-65.96314,-26.31918],[-66.00754,-26.3638],[-66.03446,-26.42045],[-66.0385,-26.47467],[-66.02638,-26.52044],[-66.00082,-26.54451],[-65.89585,-26.56498],[-65.79358,-26.63597],[-65.73303,-26.69249],[-65.72226,-26.74057],[-65.72765,-26.87148],[-65.73572,-26.92669],[-65.78551,-26.97107],[-65.82184,-27.01663],[-65.90097,-27.09367],[-65.95523,-27.15116],[-66.00345,-27.19559],[-66.03446,-27.22164],[-66.05599,-27.24461],[-66.0646,-27.2959],[-65.93972,-27.32192],[-65.89149,-27.33645],[-65.88633,-27.3877],[-65.87513,-27.43204],[-65.86566,-27.48859],[-65.83293,-27.57642],[-65.78126,-27.67104],[-65.73475,-27.72746],[-65.61418,-27.84023],[-65.55303,-27.89276],[-65.51858,-27.91103],[-65.485,-27.93614],[-65.44021,-27.94984],[-65.39973,-27.94679],[-65.35151,-27.91483],[-65.32567,-27.88515],[-65.26194,-27.8585],[-65.23266,-27.85927],[-65.20768,-27.87221],[-65.17926,-27.90266],[-65.13362,-27.92397],[-65.02252,-27.9369]]]}}]}