{"type":"FeatureCollection","crs":{"type":"name","properties":{"name":"urn:ogc:def:crs:OGC:1.3:CRS84"}},"features":[{"type":"Feature","properties":{"shapeName":"Colombia","shapeISO":"COL","shapeID":"68469763B31724326448438","shapeGroup":"COL","shapeType":"ADM0"},"geometry":{"type":"Polygon","coordinates":[[[-70.09067,6.97513],[-70.29966,6.96793],[-70.41249,7.00746],[-70.51869,7.07333],[-70.70453,7.08486],[-70.86541,7.07488],[-71.07154,7.015],[-71.23241,7.03496],[-71.3581,7.03995],[-71.49384,7.04993],[-71.69494,7.03995],[-71.7804,7.03995],[-71.92117,7.03995],[-72.02675,7.10481],[-72.11724,7.25445],[-72.12227,7.37413],[-72.19265,7.42897],[-72.27309,7.42398],[-72.34348,7.42398],[-72.41889,7.52866],[-72.42894,7.62833],[-72.43397,7.67318],[-72.43397,7.74292],[-72.4038,7.88737],[-72.439,7.96704],[-72.38872,8.02678],[-72.35856,8.06162],[-72.31331,8.12633],[-72.33845,8.21093],[-72.33845,8.36018],[-72.41889,8.47705],[-72.54457,8.57649],[-72.62501,8.71069],[-72.72053,8.89451],[-72.79092,9.11299],[-72.83114,9.15766],[-72.93169,9.0981],[-72.93169,9.22218],[-72.98699,9.28173],[-73.06743,9.27676],[-73.19814,9.1924],[-73.36404,9.18248],[-73.26852,9.31645],[-73.25847,9.39582],[-73.13781,9.50988],[-73.0624,9.63382],[-72.95682,9.86422],[-72.99201,9.9187],[-72.93169,10.11673],[-72.88644,10.36904],[-72.88644,10.45805],[-72.79594,10.58656],[-72.67529,10.90268],[-72.61496,10.94217],[-72.5496,10.98165],[-72.44402,11.13461],[-72.32337,11.15927],[-72.2379,11.1642],[-71.98653,11.64962],[-71.95134,11.65947],[-71.65975,11.75793],[-71.34804,11.84651],[-71.33296,11.96457],[-71.14192,11.98916],[-71.08159,12.09241],[-71.16203,12.19563],[-71.23241,12.31354],[-71.30782,12.35283],[-71.4134,12.40684],[-71.58936,12.44121],[-71.68488,12.41666],[-71.77538,12.36756],[-71.83068,12.35774],[-71.90106,12.35774],[-71.9262,12.2595],[-71.90106,12.20545],[-71.92117,12.18088],[-72.01167,12.15631],[-72.02172,12.25459],[-72.10719,12.25459],[-72.15243,12.20545],[-72.15243,12.09241],[-72.17757,12.04817],[-72.21834,11.90015],[-72.46098,11.79838],[-72.76575,11.7085],[-73.11054,11.42335],[-73.321,11.28871],[-73.77608,11.26816],[-73.99165,11.34156],[-74.08446,11.34743],[-74.19224,11.28578],[-74.19224,11.10075],[-74.18027,11.05667],[-74.24613,10.97439],[-74.30003,10.89796],[-74.32098,10.78916],[-74.38086,10.76269],[-74.45272,10.78622],[-74.4587,10.87444],[-74.4587,10.93618],[-74.4617,10.98908],[-74.57248,11.0361],[-74.77008,11.0743],[-74.87486,10.9979],[-74.97367,10.95087],[-75.03354,10.88032],[-75.1563,10.81857],[-75.2551,10.71415],[-75.25809,10.69944],[-75.34492,10.65531],[-75.44072,10.60529],[-75.48863,10.54348],[-75.47964,10.46989],[-75.50958,10.41395],[-75.48863,10.36388],[-75.5036,10.29098],[-75.58743,10.25563],[-75.66826,10.14955],[-75.61437,10.16429],[-75.56048,10.20554],[-75.51557,10.20849],[-75.51557,10.14071],[-75.55749,10.07882],[-75.56946,10.0228],[-75.57246,9.92255],[-75.62036,9.8053],[-75.64431,9.74924],[-75.68922,9.70793],[-75.66228,9.69317],[-75.58743,9.6548],[-75.57545,9.58396],[-75.58443,9.4629],[-75.63832,9.42155],[-75.72515,9.4186],[-75.78503,9.43041],[-75.94371,9.43041],[-75.96467,9.38906],[-76.06347,9.36247],[-76.11137,9.27088],[-76.17125,9.23542],[-76.18622,9.15858],[-76.21915,9.11424],[-76.25807,9.0285],[-76.28502,8.93979],[-76.46166,8.81999],[-76.56944,8.7105],[-76.62034,8.68387],[-76.71914,8.63355],[-76.8868,8.61579],[-76.9377,8.55954],[-76.87782,8.51217],[-76.79699,8.45591],[-76.7401,8.39667],[-76.74309,8.24263],[-76.72812,8.05591],[-76.73112,7.93435],[-76.78501,7.91359],[-76.83591,7.91359],[-76.89279,7.94918],[-76.88381,8.03516],[-76.81495,8.04702],[-76.81495,8.09741],[-76.85387,8.11816],[-76.88082,8.11816],[-76.92573,8.1152],[-76.92573,8.15373],[-76.91375,8.19818],[-76.96165,8.2041],[-76.96465,8.2604],[-76.99758,8.26337],[-77.02453,8.28114],[-77.09339,8.38779],[-77.14129,8.44998],[-77.25207,8.49736],[-77.25506,8.54178],[-77.29698,8.59211],[-77.3329,8.66019],[-77.36883,8.66019],[-77.41374,8.63059],[-77.41673,8.58027],[-77.45865,8.50995],[-77.4317,8.48034],[-77.36883,8.38557],[-77.3359,8.29373],[-77.27302,8.21077],[-77.21315,8.12483],[-77.21315,8.05369],[-77.20716,7.99217],[-77.16824,7.9477],[-77.15925,7.93287],[-77.18321,7.91211],[-77.25207,7.91211],[-77.285,7.89728],[-77.30895,7.8617],[-77.33889,7.80831],[-77.36584,7.74898],[-77.41973,7.67184],[-77.47362,7.60433],[-77.51853,7.55685],[-77.56044,7.52123],[-77.61733,7.56575],[-77.62032,7.60433],[-77.66523,7.65478],[-77.70715,7.68148],[-77.74008,7.68148],[-77.74607,7.62807],[-77.7311,7.57762],[-77.73709,7.50342],[-77.74308,7.48858],[-77.78499,7.47374],[-77.82391,7.47374],[-77.84487,7.35498],[-77.8808,7.22134],[-77.8778,7.19758],[-77.80295,7.1144],[-77.71912,7.04309],[-77.68918,6.98069],[-77.70415,6.93017],[-77.71912,6.90342],[-77.69817,6.841],[-77.68619,6.82316],[-77.67122,6.85586],[-77.64428,6.85586],[-77.59338,6.83208],[-77.56643,6.8083],[-77.54547,6.7414],[-77.52452,6.66112],[-77.50655,6.66112],[-77.50655,6.68788],[-77.45566,6.7087],[-77.40476,6.67004],[-77.3838,6.62841],[-77.35386,6.55703],[-77.34787,6.51836],[-77.34787,6.48266],[-77.37781,6.39043],[-77.38679,6.3577],[-77.38979,6.28926],[-77.39578,6.25653],[-77.46464,6.27736],[-77.47362,6.25355],[-77.47362,6.24462],[-77.47362,6.15533],[-77.41374,6.07793],[-77.34787,6.00647],[-77.31195,5.94394],[-77.27602,5.89629],[-77.27302,5.83673],[-77.24608,5.77269],[-77.24907,5.71907],[-77.31195,5.64161],[-77.36284,5.61777],[-77.44069,5.61777],[-77.48859,5.59095],[-77.5335,5.53434],[-77.55745,5.50454],[-77.55745,5.46579],[-77.49458,5.45685],[-77.41673,5.44195],[-77.39578,5.38532],[-77.36584,5.27502],[-77.36584,5.16172],[-77.3359,4.92761],[-77.32991,4.85303],[-77.31793,4.77248],[-77.28799,4.70385],[-77.32392,4.6382],[-77.32991,4.53077],[-77.37781,4.40615],[-77.38979,4.36137],[-77.44368,4.30763],[-77.50356,4.26882],[-77.50356,4.23001],[-77.4347,4.23896],[-77.35985,4.25389],[-77.3329,4.23001],[-77.285,4.21806],[-77.29698,4.17925],[-77.38081,4.15834],[-77.41973,4.14939],[-77.43769,4.08966],[-77.41075,4.03068],[-77.39877,3.96796],[-77.3359,3.96497],[-77.29997,4.05756],[-77.2371,4.07249],[-77.19518,4.02769],[-77.22512,3.97692],[-77.28799,3.96497],[-77.29698,3.8903],[-77.26704,3.83653],[-77.19219,3.83653],[-77.10237,3.88731],[-77.04548,3.89926],[-77.06345,3.85744],[-77.12033,3.81562],[-77.12632,3.77081],[-77.17422,3.72002],[-77.17422,3.69014],[-77.12632,3.66624],[-77.16225,3.64533],[-77.20117,3.6274],[-77.22213,3.57137],[-77.2341,3.56241],[-77.26704,3.50563],[-77.25805,3.47276],[-77.28799,3.47276],[-77.31494,3.43391],[-77.33889,3.39505],[-77.33889,3.33528],[-77.40176,3.36218],[-77.43769,3.31735],[-77.45865,3.28746],[-77.51554,3.26354],[-77.52751,3.18283],[-77.57841,3.14397],[-77.65249,3.0259],[-77.67702,2.9925],[-77.67256,2.96356],[-77.65918,2.9502],[-77.65918,2.91903],[-77.68593,2.89454],[-77.68593,2.85446],[-77.72829,2.82551],[-77.74836,2.7459],[-77.76619,2.71473],[-77.76619,2.66351],[-77.77288,2.62565],[-77.82639,2.5967],[-77.88881,2.62565],[-77.949,2.64347],[-77.978,2.63366],[-78.04228,2.60015],[-78.04228,2.51081],[-78.10935,2.4801],[-78.21275,2.57782],[-78.24908,2.56107],[-78.27703,2.61691],[-78.32454,2.63645],[-78.4,2.58061],[-78.42794,2.53036],[-78.48104,2.48569],[-78.51737,2.40751],[-78.5537,2.36842],[-78.57606,2.32095],[-78.60401,2.25183],[-78.63475,2.25183],[-78.6627,2.20436],[-78.66549,2.14013],[-78.65431,2.03679],[-78.62636,2.00328],[-78.57047,2.00328],[-78.52576,1.99211],[-78.54811,1.9558],[-78.5565,1.89225],[-78.5006,1.86432],[-78.5006,1.80566],[-78.5565,1.78611],[-78.61519,1.79449],[-78.71579,1.80566],[-78.82479,1.79728],[-78.85273,1.73583],[-78.90583,1.69952],[-78.95614,1.66599],[-78.99526,1.64644],[-78.94775,1.58219],[-78.91422,1.55984],[-78.84994,1.53749],[-78.81081,1.50117],[-78.80802,1.43412],[-78.7633,1.38663],[-78.72697,1.35589],[-78.67387,1.31678],[-78.63475,1.26649],[-78.60121,1.23855],[-78.57047,1.22178],[-78.53973,1.2134],[-78.52576,1.18825],[-78.49222,1.18546],[-78.43074,1.15822],[-78.38043,1.1191],[-78.31057,1.04086],[-78.30777,1.03807],[-78.27144,1.00454],[-78.20996,0.98498],[-78.18481,0.95704],[-78.14009,0.94865],[-78.07861,0.91792],[-78.02271,0.88159],[-77.9277,0.87041],[-77.88019,0.83967],[-77.84665,0.80894],[-77.79076,0.80055],[-77.68735,0.82361],[-77.67059,0.81522],[-77.63425,0.78728],[-77.60631,0.72301],[-77.59513,0.6755],[-77.50011,0.65873],[-77.42186,0.60005],[-77.40509,0.53857],[-77.40509,0.46312],[-77.38832,0.40722],[-77.35479,0.3681],[-77.29889,0.34854],[-77.22623,0.32059],[-77.19829,0.31221],[-77.15916,0.3178],[-77.11444,0.32618],[-77.07811,0.32897],[-77.04178,0.31221],[-76.99148,0.28147],[-76.92161,0.2647],[-76.87131,0.22348],[-76.85175,0.22348],[-76.77908,0.21789],[-76.73716,0.19274],[-76.70083,0.19274],[-76.67009,0.24863],[-76.64494,0.24863],[-76.60581,0.24025],[-76.56948,0.23466],[-76.50241,0.22627],[-76.43254,0.22907],[-76.39342,0.23466],[-76.39342,0.27937],[-76.38503,0.31011],[-76.36268,0.3688],[-76.30678,0.37159],[-76.29002,0.40792],[-76.26486,0.40792],[-76.1922,0.37998],[-76.17543,0.37439],[-76.11116,0.37159],[-76.09718,0.31291],[-76.04967,0.31291],[-76.00216,0.30732],[-75.97142,0.26819],[-75.93789,0.18715],[-75.86243,0.12566],[-75.82051,0.1061],[-75.76462,0.06418],[-75.70313,0.04182],[-75.55781,0.02785],[-75.49353,-0.01686],[-75.4069,-0.09232],[-75.34221,-0.09558],[-75.24549,-0.11892],[-75.22215,-0.10892],[-75.16879,-0.08891],[-75.10876,-0.10225],[-75.05874,-0.13226],[-74.96202,-0.20563],[-74.88198,-0.28567],[-74.80528,-0.21897],[-74.74191,-0.26566],[-74.75192,-0.36571],[-74.64853,-0.39572],[-74.56183,-0.45242],[-74.4451,-0.52578],[-74.33838,-0.67251],[-74.31504,-0.75255],[-74.31837,-0.80924],[-74.28502,-0.83591],[-74.26168,-0.86592],[-74.28502,-0.92928],[-74.245,-0.96929],[-74.22166,-1.02598],[-74.19831,-1.05599],[-74.01489,-1.06099],[-73.95153,-1.13768],[-73.87816,-1.16769],[-73.82146,-1.23104],[-73.73475,-1.27105],[-73.6347,-1.29439],[-73.53132,-1.38441],[-73.53132,-1.44442],[-73.46462,-1.49443],[-73.44461,-1.64361],[-73.44794,-1.69362],[-73.42793,-1.76695],[-73.36791,-1.81362],[-73.23451,-1.81695],[-73.15447,-1.82029],[-73.07776,-1.89028],[-73.12445,-1.97361],[-73.05108,-2.09026],[-73.0811,-2.15691],[-73.14113,-2.23356],[-73.14113,-2.29688],[-73.04441,-2.36352],[-72.93436,-2.38351],[-72.90434,-2.4335],[-72.84765,-2.46015],[-72.79429,-2.4335],[-72.77095,-2.4135],[-72.72759,-2.4135],[-72.64088,-2.43683],[-72.59086,-2.38685],[-72.51415,-2.40018],[-72.4708,-2.44682],[-72.37075,-2.44682],[-72.33073,-2.48681],[-72.27737,-2.48347],[-72.22735,-2.44016],[-72.0706,-2.43683],[-72.03058,-2.39351],[-71.97055,-2.38351],[-71.90719,-2.41017],[-71.79713,-2.28355],[-71.73377,-2.22023],[-71.69041,-2.2369],[-71.6604,-2.26355],[-71.64039,-2.24023],[-71.59704,-2.24023],[-71.54701,-2.26355],[-71.49699,-2.28688],[-71.40694,-2.32687],[-71.38026,-2.43016],[-71.35692,-2.43016],[-71.30356,-2.42017],[-71.23019,-2.41017],[-71.17683,-2.42017],[-71.14681,-2.35019],[-71.10346,-2.33686],[-71.01008,-2.31021],[-70.99007,-2.29688],[-70.95339,-2.29688],[-70.90003,-2.31021],[-70.84,-2.33353],[-70.7733,-2.37019],[-70.69326,-2.37352],[-70.66658,-2.4335],[-70.62989,-2.46681],[-70.62989,-2.51679],[-70.58654,-2.52012],[-70.5732,-2.51013],[-70.5544,-2.49761],[-70.5168,-2.49761],[-70.47293,-2.51013],[-70.41027,-2.55395],[-70.3288,-2.58525],[-70.30373,-2.62907],[-70.24733,-2.64159],[-70.216,-2.68541],[-70.1784,-2.72297],[-70.122,-2.72297],[-70.07814,-2.74801],[-70.09067,-2.83564],[-70.1408,-2.917],[-70.20347,-2.98584],[-70.22227,-3.07345],[-70.27867,-3.16106],[-70.44787,-3.40505],[-70.52307,-3.5239],[-70.75493,-3.80532],[-70.65467,-3.80532],[-70.58573,-3.80532],[-70.5356,-3.83659],[-70.49173,-3.88035],[-70.41653,-3.85535],[-70.35387,-3.79907],[-70.22853,-3.8616],[-70.16587,-3.95538],[-70.15333,-4.0429],[-70.07814,-4.09916],[-69.99667,-4.15541],[-69.94027,-4.22416],[-69.92147,-4.11791],[-69.90267,-3.89911],[-69.86507,-3.74279],[-69.81494,-3.46135],[-69.73974,-3.14854],[-69.5016,-1.86827],[-69.43894,-1.57387],[-69.38881,-1.44858],[-69.38881,-1.36088],[-69.37627,-1.27317],[-69.39507,-1.23558],[-69.40761,-1.17292],[-69.42641,-1.11653],[-69.49534,-1.01002],[-69.53294,-0.94736],[-69.56427,-0.89097],[-69.5956,-0.84711],[-69.56427,-0.77192],[-69.56427,-0.72805],[-69.56427,-0.64033],[-69.6332,-0.5714],[-69.73974,-0.50247],[-69.80867,-0.47114],[-69.90894,-0.40221],[-70.02174,-0.32074],[-70.03427,-0.16094],[-69.99667,-0.06068],[-70.00294,0.03332],[-70.04054,0.10852],[-70.04054,0.15865],[-70.02174,0.54718],[-69.84627,0.55971],[-69.7648,0.58478],[-69.73347,0.60357],[-69.69587,0.64117],[-69.62694,0.6537],[-69.5768,0.64744],[-69.52667,0.7101],[-69.43894,0.70383],[-69.40134,0.6725],[-69.31361,0.6725],[-69.28854,0.6725],[-69.26974,0.59731],[-69.18201,0.60357],[-69.10054,0.64744],[-69.13814,0.69757],[-69.18201,0.7101],[-69.16947,0.77903],[-69.16947,0.84795],[-69.16947,0.91061],[-69.22587,1.01086],[-69.28227,1.09232],[-69.38881,1.07979],[-69.43267,1.07979],[-69.54547,1.07979],[-69.60814,1.09232],[-69.68334,1.09858],[-69.75227,1.12364],[-69.83374,1.06099],[-69.79614,1.73132],[-69.75854,1.73758],[-69.62694,1.75011],[-69.50787,1.7689],[-69.38881,1.76263],[-68.15428,1.76263],[-68.19188,1.86911],[-68.21694,1.93175],[-68.21694,2.00064],[-68.17935,2.03821],[-68.09161,2.01943],[-68.01015,1.91296],[-68.01015,1.81901],[-67.95375,1.80022],[-67.78455,1.80022],[-67.65295,1.93801],[-67.54642,2.11337],[-67.53388,2.12589],[-67.43362,2.1572],[-67.35215,2.13841],[-67.26442,2.1071],[-67.23308,1.94427],[-67.13908,1.86285],[-67.08268,1.67494],[-67.08268,1.4181],[-67.09522,1.21136],[-66.86962,1.24268],[-66.86962,1.38678],[-66.90722,1.42437],[-66.91975,1.57785],[-66.93855,1.67181],[-66.95108,1.74071],[-67.05762,1.95367],[-67.12655,2.02256],[-67.07642,2.09145],[-67.10775,2.17912],[-67.15788,2.22295],[-67.20175,2.34192],[-67.18295,2.4108],[-67.20175,2.45462],[-67.28948,2.49845],[-67.43988,2.67374],[-67.55895,2.77389],[-67.62788,2.88655],[-67.85348,2.88655],[-67.79708,2.9554],[-67.61535,3.08681],[-67.51508,3.19318],[-67.34588,3.36523],[-67.28948,3.39026],[-67.27695,3.48409],[-67.35842,3.54664],[-67.43362,3.61544],[-67.52135,3.75302],[-67.57775,3.77803],[-67.62788,3.84056],[-67.67801,3.92184],[-67.67801,4.02811],[-67.72188,4.15938],[-67.77201,4.25312],[-67.77201,4.38435],[-67.82215,4.53429],[-67.84095,4.60925],[-67.80335,4.70919],[-67.77201,4.89028],[-67.75948,5.0526],[-67.79081,5.2336],[-67.83468,5.34904],[-67.73441,5.40519],[-67.62161,5.54243],[-67.62161,5.6048],[-67.67175,5.6734],[-67.57775,5.86668],[-67.43988,5.98511],[-67.44615,6.05366],[-67.46495,6.12221],[-67.47748,6.22812],[-67.72188,6.2655],[-67.82215,6.2655],[-67.90988,6.24681],[-67.96001,6.20943],[-68.07908,6.23435],[-68.19815,6.23435],[-68.31721,6.17828],[-68.39868,6.20943],[-68.48014,6.17828],[-68.57414,6.17828],[-68.66814,6.18451],[-68.74961,6.2032],[-68.86867,6.21566],[-69.01281,6.22812],[-69.07547,6.22812],[-69.16321,6.12221],[-69.25721,6.09105],[-69.27601,6.12221],[-69.28227,6.15959],[-69.33867,6.15959],[-69.39507,6.13467],[-69.45147,6.16582],[-69.48907,6.22189],[-69.6332,6.40252],[-69.73974,6.55819],[-69.88387,6.73247],[-69.97787,6.86315],[-70.09067,6.97513]]]}}]}