{"type":"FeatureCollection","crs":{"type":"name","properties":{"name":"urn:ogc:def:crs:OGC:1.3:CRS84"}},"features":[{"type":"Feature","properties":{"shapeName":"Ecuador","shapeISO":"ECU","shapeID":"53374128B68922616126738","shapeGroup":"ECU","shapeType":"ADM0"},"geometry":{"type":"MultiPolygon","coordinates":[[[[-80.23099,-3.36662],[-80.24017,-3.35201],[-80.23766,-3.33908],[-80.2385,-3.32865],[-80.25477,-3.3299],[-80.25852,-3.35952],[-80.26186,-3.36662],[-80.27187,-3.3687],[-80.27271,-3.36203],[-80.26979,-3.34576],[-80.28898,-3.35285],[-80.29607,-3.36161],[-80.2969,-3.3687],[-80.30149,-3.38247],[-80.30316,-3.39206],[-80.29065,-3.40124],[-80.28314,-3.40541],[-80.28606,-3.41292],[-80.28643,-3.41675],[-80.28939,-3.42293],[-80.28814,-3.43086],[-80.26353,-3.42919],[-80.24267,-3.42544],[-80.2289,-3.42877],[-80.22056,-3.43628],[-80.20846,-3.43587],[-80.20971,-3.42544],[-80.21681,-3.41626],[-80.22431,-3.40333],[-80.23224,-3.38747],[-80.23307,-3.37371],[-80.23099,-3.36662]]],[[[-80.00405,-3.32824],[-79.99737,-3.31447],[-79.99278,-3.30112],[-79.9907,-3.28485],[-79.99612,-3.274],[-80.00029,-3.26649],[-80.00488,-3.25648],[-80.00989,-3.24271],[-80.01447,-3.23312],[-80.01614,-3.22352],[-80.02073,-3.21101],[-80.03492,-3.20892],[-80.04409,-3.22436],[-80.04993,-3.24188],[-80.05411,-3.25731],[-80.06579,-3.27484],[-80.07455,-3.29778],[-80.07997,-3.30696],[-80.09457,-3.31655],[-80.10417,-3.32323],[-80.11835,-3.33074],[-80.13838,-3.34158],[-80.15131,-3.34158],[-80.17092,-3.34325],[-80.18051,-3.34325],[-80.19094,-3.34325],[-80.19553,-3.34325],[-80.20054,-3.3395],[-80.20971,-3.3395],[-80.21699,-3.34249],[-80.225,-3.34596],[-80.22366,-3.3513],[-80.21672,-3.36304],[-80.20898,-3.36838],[-80.20444,-3.37853],[-80.19963,-3.39135],[-80.19917,-3.39974],[-80.19917,-3.41184],[-80.19052,-3.41751],[-80.17509,-3.41918],[-80.16132,-3.42168],[-80.14296,-3.41376],[-80.12878,-3.40917],[-80.1171,-3.41334],[-80.09374,-3.41],[-80.07163,-3.40583],[-80.05703,-3.39832],[-80.04076,-3.38581],[-80.03074,-3.37329],[-80.02282,-3.35785],[-80.01239,-3.34367],[-80.00405,-3.32824]]],[[[-80.43112,-3.1919],[-80.42337,-3.18095],[-80.42391,-3.17028],[-80.42444,-3.16494],[-80.42845,-3.1628],[-80.43726,-3.17268],[-80.44553,-3.18202],[-80.44607,-3.19297],[-80.44019,-3.19564],[-80.43112,-3.1919]]],[[[-80.09278,-2.93838],[-80.08766,-2.93513],[-80.08185,-2.93017],[-80.08151,-2.92283],[-80.08526,-2.91787],[-80.09107,-2.91343],[-80.09791,-2.91138],[-80.10304,-2.91565],[-80.1056,-2.91804],[-80.10816,-2.92248],[-80.10902,-2.92949],[-80.10782,-2.93427],[-80.10628,-2.93889],[-80.10047,-2.94094],[-80.09278,-2.93838]]],[[[-80.06391,-2.92681],[-80.06129,-2.92156],[-80.06249,-2.91391],[-80.06566,-2.91095],[-80.06949,-2.90702],[-80.07233,-2.90177],[-80.07408,-2.90056],[-80.07758,-2.8998],[-80.08546,-2.90177],[-80.08841,-2.90527],[-80.08732,-2.91095],[-80.08054,-2.91927],[-80.07714,-2.92266],[-80.07277,-2.92648],[-80.06872,-2.92823],[-80.06391,-2.92681]]],[[[-80.11739,-2.88352],[-80.1068,-2.8772],[-80.10269,-2.87105],[-80.09945,-2.86148],[-80.09808,-2.8555],[-80.10184,-2.85072],[-80.10833,-2.85003],[-80.11688,-2.85123],[-80.12508,-2.85379],[-80.13157,-2.85892],[-80.13602,-2.86473],[-80.13772,-2.87003],[-80.13396,-2.88011],[-80.12628,-2.88387],[-80.11739,-2.88352]]],[[[-80.04306,-2.89087],[-80.03845,-2.88318],[-80.03571,-2.87447],[-80.03571,-2.86815],[-80.03896,-2.86302],[-80.04733,-2.85892],[-80.05587,-2.85618],[-80.06186,-2.85208],[-80.06749,-2.84832],[-80.07228,-2.84525],[-80.08014,-2.84508],[-80.08749,-2.84542],[-80.08971,-2.85123],[-80.09005,-2.85789],[-80.0933,-2.86678],[-80.09876,-2.87327],[-80.10201,-2.87942],[-80.10235,-2.88677],[-80.09688,-2.896],[-80.08612,-2.896],[-80.07997,-2.89104],[-80.07535,-2.89224],[-80.0704,-2.89959],[-80.06459,-2.90711],[-80.05998,-2.90916],[-80.05297,-2.90916],[-80.04818,-2.9013],[-80.04306,-2.89087]]],[[[-79.92789,-2.79179],[-79.92257,-2.78752],[-79.91732,-2.78283],[-79.91284,-2.77898],[-79.90578,-2.769],[-79.90151,-2.76146],[-79.89911,-2.75446],[-79.89779,-2.74998],[-79.899,-2.74538],[-79.90479,-2.7421],[-79.9095,-2.73948],[-79.91737,-2.73532],[-79.9225,-2.73134],[-79.93184,-2.72707],[-79.94225,-2.72013],[-79.95213,-2.71559],[-79.96468,-2.71318],[-79.97696,-2.70758],[-79.98604,-2.69983],[-79.99805,-2.68969],[-80.01167,-2.68248],[-80.01888,-2.67928],[-80.03597,-2.67287],[-80.0487,-2.68001],[-80.06425,-2.68651],[-80.08048,-2.68873],[-80.09586,-2.69334],[-80.10816,-2.69966],[-80.12081,-2.70547],[-80.13226,-2.71179],[-80.13909,-2.71658],[-80.14934,-2.71948],[-80.16284,-2.72153],[-80.17241,-2.72393],[-80.17908,-2.72769],[-80.18557,-2.73127],[-80.19787,-2.73691],[-80.20659,-2.74033],[-80.21376,-2.74494],[-80.2153,-2.75195],[-80.21325,-2.75708],[-80.21017,-2.76203],[-80.21154,-2.77263],[-80.21564,-2.7798],[-80.22231,-2.78801],[-80.22897,-2.79826],[-80.23444,-2.80663],[-80.23755,-2.82051],[-80.24102,-2.82559],[-80.24502,-2.83253],[-80.24823,-2.8392],[-80.2509,-2.84668],[-80.25677,-2.85522],[-80.25944,-2.8611],[-80.26051,-2.87071],[-80.25784,-2.87712],[-80.25544,-2.8878],[-80.2549,-2.91556],[-80.25494,-2.9541],[-80.25477,-2.96213],[-80.25409,-2.96999],[-80.25597,-2.98178],[-80.2587,-2.98622],[-80.26024,-2.99716],[-80.26041,-3.00519],[-80.25819,-3.01066],[-80.25597,-3.01664],[-80.24896,-3.03031],[-80.24162,-3.03236],[-80.2288,-3.03321],[-80.22009,-3.03526],[-80.2153,-3.03765],[-80.21017,-3.0397],[-80.19643,-3.03972],[-80.18815,-3.03758],[-80.17881,-3.03197],[-80.17053,-3.0261],[-80.16694,-3.01715],[-80.16353,-3.01254],[-80.15481,-3.01066],[-80.14473,-3.01476],[-80.14046,-3.01886],[-80.13533,-3.0221],[-80.12952,-3.02176],[-80.12525,-3.01937],[-80.11978,-3.01219],[-80.11585,-3.00314],[-80.11126,-2.99219],[-80.10378,-2.98418],[-80.09577,-2.97484],[-80.0931,-2.96416],[-80.09364,-2.95294],[-80.09978,-2.94814],[-80.10699,-2.94306],[-80.1142,-2.93826],[-80.11767,-2.93158],[-80.11927,-2.92064],[-80.12007,-2.91316],[-80.12541,-2.90622],[-80.12995,-2.90141],[-80.13582,-2.89527],[-80.1433,-2.88566],[-80.14784,-2.88219],[-80.15104,-2.87845],[-80.15184,-2.86937],[-80.15024,-2.86083],[-80.1465,-2.85362],[-80.1409,-2.84428],[-80.13128,-2.8392],[-80.12488,-2.8392],[-80.11633,-2.83974],[-80.10859,-2.84294],[-80.10191,-2.84374],[-80.09524,-2.84],[-80.08536,-2.83894],[-80.06721,-2.84454],[-80.05012,-2.85095],[-80.04024,-2.85656],[-80.03223,-2.85683],[-80.02475,-2.85522],[-80.01327,-2.84561],[-80.01007,-2.83814],[-80.0042,-2.82692],[-79.99966,-2.82051],[-79.99085,-2.81331],[-79.98017,-2.80583],[-79.96949,-2.79675],[-79.96094,-2.79408],[-79.94686,-2.79501],[-79.93629,-2.79473],[-79.92789,-2.79179]]],[[[-79.90239,-2.67561],[-79.90359,-2.66949],[-79.90665,-2.66719],[-79.91135,-2.66577],[-79.91507,-2.66741],[-79.9189,-2.6696],[-79.91879,-2.67583],[-79.91332,-2.67977],[-79.90578,-2.68009],[-79.90239,-2.67561]]],[[[-80.17361,-2.66497],[-80.17104,-2.66019],[-80.17258,-2.6566],[-80.17617,-2.65489],[-80.1813,-2.65711],[-80.18523,-2.66019],[-80.18489,-2.66549],[-80.17959,-2.66634],[-80.17361,-2.66497]]],[[[-80.18318,-2.65353],[-80.18181,-2.64977],[-80.18198,-2.64464],[-80.18454,-2.64362],[-80.19035,-2.64362],[-80.19531,-2.64772],[-80.19633,-2.65113],[-80.19343,-2.65609],[-80.18916,-2.65626],[-80.18318,-2.65353]]],[[[-79.95293,-2.65898],[-79.93932,-2.65525],[-79.93504,-2.64617],[-79.93932,-2.63869],[-79.94145,-2.63148],[-79.94412,-2.62214],[-79.94839,-2.61974],[-79.95507,-2.6208],[-79.96922,-2.62748],[-79.97669,-2.63282],[-79.98364,-2.63762],[-79.99085,-2.64563],[-79.99058,-2.65338],[-79.97082,-2.65898],[-79.95293,-2.65898]]],[[[-79.99485,-2.62641],[-79.98364,-2.6216],[-79.97429,-2.61867],[-79.97563,-2.61173],[-79.98043,-2.60799],[-79.98604,-2.60292],[-79.99645,-2.60372],[-80.00553,-2.60719],[-80.01354,-2.61359],[-80.01648,-2.62],[-80.01461,-2.63122],[-80.00767,-2.63335],[-79.99485,-2.62641]]],[[[-79.73026,-2.61893],[-79.72679,-2.61146],[-79.72679,-2.60238],[-79.72786,-2.59143],[-79.72679,-2.58449],[-79.72572,-2.57782],[-79.72492,-2.56741],[-79.72572,-2.55779],[-79.72759,-2.54765],[-79.73053,-2.53697],[-79.73453,-2.53189],[-79.74121,-2.53243],[-79.74948,-2.53296],[-79.76417,-2.5375],[-79.77618,-2.54204],[-79.78446,-2.54872],[-79.7874,-2.55806],[-79.78846,-2.56927],[-79.79167,-2.57648],[-79.79167,-2.58609],[-79.79033,-2.59464],[-79.79674,-2.60398],[-79.80288,-2.61279],[-79.80368,-2.62054],[-79.80101,-2.63042],[-79.79674,-2.63335],[-79.7898,-2.63228],[-79.77939,-2.62588],[-79.77351,-2.62321],[-79.7663,-2.62454],[-79.75883,-2.63095],[-79.74868,-2.63175],[-79.73613,-2.62534],[-79.73026,-2.61893]]],[[[-79.93932,-2.57808],[-79.94466,-2.5626],[-79.95133,-2.55165],[-79.96361,-2.54418],[-79.97589,-2.5399],[-79.9823,-2.53216],[-79.98257,-2.52362],[-79.98097,-2.5116],[-79.9815,-2.50253],[-79.99031,-2.49959],[-79.99912,-2.50119],[-80.005,-2.50733],[-80.00927,-2.51588],[-80.01354,-2.52469],[-80.01701,-2.53403],[-80.02128,-2.54151],[-80.03009,-2.55325],[-80.03517,-2.55913],[-80.04932,-2.56847],[-80.0632,-2.57969],[-80.06133,-2.58823],[-80.05679,-2.59224],[-80.0389,-2.5941],[-80.02529,-2.59384],[-80.0106,-2.58983],[-80.005,-2.58423],[-79.99912,-2.57862],[-79.99271,-2.57835],[-79.98577,-2.58583],[-79.9799,-2.59384],[-79.97216,-2.59624],[-79.95934,-2.59864],[-79.94786,-2.59944],[-79.93932,-2.59117],[-79.93932,-2.57808]]],[[[-79.84501,-2.66634],[-79.84074,-2.65848],[-79.83886,-2.64994],[-79.8375,-2.63695],[-79.83527,-2.61696],[-79.83391,-2.61371],[-79.83032,-2.60107],[-79.82758,-2.59287],[-79.82536,-2.58415],[-79.82451,-2.57194],[-79.82104,-2.55272],[-79.82184,-2.54177],[-79.82478,-2.51935],[-79.82985,-2.50973],[-79.83118,-2.50092],[-79.83118,-2.49291],[-79.83279,-2.48597],[-79.84051,-2.47719],[-79.84724,-2.48385],[-79.85117,-2.48829],[-79.85441,-2.49359],[-79.85595,-2.49905],[-79.85595,-2.50401],[-79.85732,-2.51204],[-79.85783,-2.52127],[-79.86056,-2.53186],[-79.86364,-2.54058],[-79.86637,-2.55613],[-79.86706,-2.56279],[-79.86911,-2.57168],[-79.87287,-2.57868],[-79.8768,-2.58808],[-79.87748,-2.59594],[-79.87611,-2.60209],[-79.8744,-2.60705],[-79.8744,-2.61012],[-79.87816,-2.61935],[-79.88312,-2.62995],[-79.88807,-2.64174],[-79.88893,-2.6496],[-79.88295,-2.6537],[-79.87509,-2.65626],[-79.86689,-2.6566],[-79.86296,-2.65797],[-79.8592,-2.66292],[-79.85441,-2.66668],[-79.84792,-2.66754],[-79.84501,-2.66634]]],[[[-79.7917,-2.52559],[-79.79212,-2.51307],[-79.79838,-2.50014],[-79.8038,-2.48929],[-79.80505,-2.48178],[-79.80755,-2.47135],[-79.81006,-2.45425],[-79.81214,-2.44215],[-79.81882,-2.42797],[-79.82424,-2.41796],[-79.83342,-2.42129],[-79.83717,-2.42713],[-79.84051,-2.43464],[-79.84176,-2.44257],[-79.84051,-2.453],[-79.83592,-2.46176],[-79.8305,-2.4701],[-79.82508,-2.48095],[-79.82007,-2.49138],[-79.81465,-2.50264],[-79.80839,-2.51808],[-79.80463,-2.52851],[-79.79838,-2.53477],[-79.7917,-2.52559]]],[[[-79.85988,-2.42831],[-79.85885,-2.3709],[-79.85158,-2.35971],[-79.84949,-2.3413],[-79.84938,-2.32449],[-79.8491,-2.30778],[-79.85005,-2.29686],[-79.84961,-2.29187],[-79.85201,-2.28653],[-79.85521,-2.28199],[-79.85815,-2.27879],[-79.86162,-2.27558],[-79.86643,-2.27558],[-79.87203,-2.28065],[-79.87711,-2.28733],[-79.88458,-2.28893],[-79.89019,-2.29027],[-79.89526,-2.2924],[-79.90114,-2.29614],[-79.90541,-2.30388],[-79.90781,-2.30976],[-79.91368,-2.31883],[-79.92103,-2.32367],[-79.93813,-2.32659],[-79.95482,-2.3412],[-79.96108,-2.35079],[-79.96984,-2.36456],[-79.98235,-2.36956],[-79.99862,-2.37707],[-80.0053,-2.38959],[-79.99946,-2.40294],[-80.00196,-2.41462],[-80.00655,-2.42129],[-80.01865,-2.43089],[-80.0249,-2.43756],[-80.02699,-2.44799],[-80.02782,-2.45884],[-80.03241,-2.46885],[-80.03575,-2.48137],[-80.03533,-2.49305],[-80.02949,-2.50348],[-80.0199,-2.50223],[-80.00488,-2.48721],[-79.99695,-2.47344],[-79.98986,-2.46802],[-79.98152,-2.47135],[-79.97484,-2.47886],[-79.96191,-2.49054],[-79.95774,-2.49452],[-79.9524,-2.50092],[-79.94385,-2.49852],[-79.94012,-2.48597],[-79.93584,-2.47449],[-79.9297,-2.46648],[-79.92196,-2.46141],[-79.91208,-2.46194],[-79.90915,-2.46354],[-79.90194,-2.45794],[-79.89473,-2.44619],[-79.88939,-2.44032],[-79.87924,-2.43978],[-79.87657,-2.4574],[-79.87924,-2.47422],[-79.88485,-2.48757],[-79.88966,-2.49478],[-79.89766,-2.49532],[-79.91048,-2.49612],[-79.92276,-2.49932],[-79.93024,-2.50226],[-79.94279,-2.5068],[-79.95373,-2.51347],[-79.96254,-2.51641],[-79.97136,-2.51881],[-79.97723,-2.52389],[-79.97723,-2.52869],[-79.97082,-2.5367],[-79.95961,-2.54124],[-79.95133,-2.54605],[-79.94519,-2.55058],[-79.94225,-2.55726],[-79.93665,-2.56901],[-79.93531,-2.57702],[-79.93424,-2.58636],[-79.93398,-2.5941],[-79.93051,-2.59784],[-79.9225,-2.59384],[-79.91315,-2.58609],[-79.90514,-2.57782],[-79.89873,-2.56874],[-79.89259,-2.55886],[-79.88565,-2.54524],[-79.88058,-2.53136],[-79.88058,-2.51855],[-79.87737,-2.50119],[-79.87524,-2.49131],[-79.8707,-2.47689],[-79.86911,-2.45702],[-79.86654,-2.44933],[-79.86073,-2.44147],[-79.85988,-2.42831]]],[[[-79.94145,-2.30655],[-79.93211,-2.29641],[-79.92623,-2.28626],[-79.92463,-2.27585],[-79.9233,-2.26597],[-79.92303,-2.25235],[-79.92917,-2.24488],[-79.93638,-2.2398],[-79.94145,-2.23954],[-79.95106,-2.2382],[-79.95854,-2.24274],[-79.96388,-2.25048],[-79.97055,-2.25983],[-79.97322,-2.26757],[-79.97402,-2.27558],[-79.97082,-2.28172],[-79.96708,-2.29107],[-79.96041,-2.29694],[-79.95934,-2.30602],[-79.95186,-2.31002],[-79.94145,-2.30655]]],[[[-79.83544,-2.2453],[-79.83374,-2.23625],[-79.83459,-2.22104],[-79.83835,-2.2125],[-79.8416,-2.20634],[-79.84621,-2.19934],[-79.85253,-2.19336],[-79.86091,-2.19712],[-79.86689,-2.20173],[-79.87167,-2.20891],[-79.87577,-2.21814],[-79.87509,-2.226],[-79.86825,-2.23488],[-79.86227,-2.24052],[-79.85082,-2.24906],[-79.84228,-2.25146],[-79.83544,-2.2453]]],[[[-80.86177,-1.60041],[-80.86121,-1.59705],[-80.86114,-1.59509],[-80.8617,-1.59138],[-80.86254,-1.5904],[-80.86499,-1.58949],[-80.86856,-1.58935],[-80.87192,-1.59061],[-80.87304,-1.59341],[-80.87325,-1.59775],[-80.86996,-1.60048],[-80.86548,-1.60195],[-80.86177,-1.60041]]],[[[-89.63618,-1.39268],[-89.63705,-1.37494],[-89.64354,-1.36239],[-89.66127,-1.3546],[-89.68161,-1.35114],[-89.70064,-1.34855],[-89.71189,-1.35244],[-89.71708,-1.35806],[-89.71622,-1.36975],[-89.70021,-1.381],[-89.68507,-1.38792],[-89.66906,-1.39397],[-89.64959,-1.39787],[-89.63618,-1.39268]]],[[[-81.04991,-1.28881],[-81.04597,-1.2875],[-81.04466,-1.28323],[-81.04498,-1.27864],[-81.04816,-1.27602],[-81.05209,-1.27241],[-81.0557,-1.2676],[-81.06106,-1.26453],[-81.06751,-1.26289],[-81.07375,-1.26103],[-81.07812,-1.26399],[-81.0814,-1.26814],[-81.0837,-1.27372],[-81.08293,-1.28006],[-81.08009,-1.28487],[-81.07593,-1.28717],[-81.06784,-1.28816],[-81.06226,-1.28859],[-81.05647,-1.28892],[-81.04991,-1.28881]]],[[[-90.42437,-1.23438],[-90.44071,-1.23493],[-90.4515,-1.23687],[-90.46895,-1.23604],[-90.47449,-1.24656],[-90.47836,-1.26705],[-90.48196,-1.28644],[-90.48944,-1.30859],[-90.48916,-1.32243],[-90.47947,-1.3432],[-90.46812,-1.35206],[-90.45261,-1.36341],[-90.4396,-1.36507],[-90.42465,-1.35981],[-90.41302,-1.35317],[-90.39723,-1.3432],[-90.38228,-1.32686],[-90.37287,-1.31413],[-90.36373,-1.29724],[-90.35653,-1.2845],[-90.35902,-1.26927],[-90.36816,-1.25764],[-90.38173,-1.24933],[-90.4,-1.24047],[-90.42437,-1.23438]]],[[[-90.03508,-0.83024],[-90.02123,-0.82505],[-90.02167,-0.81467],[-90.03032,-0.80342],[-90.042,-0.7939],[-90.05455,-0.78481],[-90.06363,-0.77832],[-90.07185,-0.78049],[-90.07748,-0.79217],[-90.07575,-0.81164],[-90.06926,-0.82721],[-90.05368,-0.83024],[-90.03508,-0.83024]]],[[[-89.4787,-0.92369],[-89.45447,-0.91461],[-89.43068,-0.90639],[-89.41337,-0.89168],[-89.39736,-0.87351],[-89.38914,-0.8575],[-89.38135,-0.83889],[-89.3727,-0.81986],[-89.35756,-0.80298],[-89.3316,-0.78438],[-89.29742,-0.76232],[-89.27752,-0.74285],[-89.26454,-0.72597],[-89.25113,-0.71343],[-89.24421,-0.70131],[-89.25286,-0.68833],[-89.28271,-0.68184],[-89.31646,-0.67882],[-89.34631,-0.68011],[-89.37703,-0.68704],[-89.40082,-0.69655],[-89.42462,-0.7104],[-89.43457,-0.72251],[-89.45317,-0.74285],[-89.46615,-0.76015],[-89.47913,-0.78265],[-89.49817,-0.80342],[-89.52672,-0.81813],[-89.54446,-0.82894],[-89.57128,-0.84582],[-89.58297,-0.8588],[-89.60373,-0.8787],[-89.61152,-0.88822],[-89.61239,-0.8973],[-89.60373,-0.90768],[-89.58772,-0.91288],[-89.57085,-0.9159],[-89.55701,-0.92586],[-89.5384,-0.93191],[-89.51071,-0.93234],[-89.4787,-0.92369]]],[[[-90.64813,-0.64031],[-90.63905,-0.6282],[-90.63472,-0.61132],[-90.64164,-0.59661],[-90.65029,-0.58839],[-90.66414,-0.58666],[-90.67452,-0.59748],[-90.68188,-0.60786],[-90.68274,-0.62041],[-90.67193,-0.63555],[-90.66068,-0.64291],[-90.64813,-0.64031]]],[[[-90.26784,-0.50662],[-90.29985,-0.49797],[-90.32754,-0.49581],[-90.34831,-0.50013],[-90.36042,-0.50619],[-90.37427,-0.51311],[-90.39114,-0.51355],[-90.40455,-0.50792],[-90.4145,-0.50187],[-90.42748,-0.5036],[-90.43051,-0.51138],[-90.44436,-0.51614],[-90.46729,-0.51874],[-90.48156,-0.52436],[-90.49757,-0.53734],[-90.51315,-0.55119],[-90.51964,-0.56287],[-90.53262,-0.58017],[-90.53694,-0.59834],[-90.53608,-0.61522],[-90.53608,-0.63642],[-90.53738,-0.64983],[-90.5417,-0.65935],[-90.54603,-0.66973],[-90.53694,-0.68531],[-90.52915,-0.69829],[-90.51271,-0.70867],[-90.49858,-0.71549],[-90.47449,-0.72656],[-90.454,-0.74373],[-90.42714,-0.762],[-90.4036,-0.77087],[-90.37259,-0.77336],[-90.3413,-0.77003],[-90.32635,-0.76699],[-90.30918,-0.75481],[-90.28897,-0.74844],[-90.25103,-0.74262],[-90.23913,-0.72573],[-90.22861,-0.71078],[-90.21338,-0.69084],[-90.20424,-0.68032],[-90.19483,-0.66232],[-90.19123,-0.6435],[-90.18513,-0.62384],[-90.18818,-0.60252],[-90.18043,-0.58452],[-90.18098,-0.5751],[-90.18347,-0.56417],[-90.20338,-0.55595],[-90.22111,-0.54124],[-90.24794,-0.5196],[-90.26784,-0.50662]]],[[[-90.26441,-0.4767],[-90.2614,-0.46801],[-90.26176,-0.45685],[-90.26282,-0.44232],[-90.26565,-0.43363],[-90.27115,-0.41928],[-90.28001,-0.42141],[-90.28125,-0.43771],[-90.28355,-0.44604],[-90.28851,-0.45543],[-90.29348,-0.45933],[-90.29613,-0.4673],[-90.29667,-0.47227],[-90.29667,-0.47563],[-90.29383,-0.47882],[-90.27274,-0.48113],[-90.26441,-0.4767]]],[[[-90.70403,-0.41838],[-90.70431,-0.40897],[-90.70846,-0.40343],[-90.71538,-0.39845],[-90.71981,-0.40149],[-90.72313,-0.41174],[-90.72341,-0.42004],[-90.71372,-0.42614],[-90.70763,-0.42697],[-90.70403,-0.41838]]],[[[-91.42732,-0.28641],[-91.4429,-0.27127],[-91.46756,-0.26564],[-91.49135,-0.26737],[-91.50866,-0.27819],[-91.53029,-0.28857],[-91.55409,-0.29463],[-91.58653,-0.29074],[-91.6073,-0.28035],[-91.61898,-0.28468],[-91.63759,-0.29117],[-91.65446,-0.30198],[-91.66052,-0.32145],[-91.65835,-0.34135],[-91.64883,-0.36688],[-91.64105,-0.39154],[-91.63239,-0.41317],[-91.61812,-0.44043],[-91.59302,-0.46985],[-91.56447,-0.48975],[-91.53332,-0.49624],[-91.5039,-0.50013],[-91.46756,-0.49624],[-91.43727,-0.48413],[-91.41824,-0.46812],[-91.40179,-0.44476],[-91.38622,-0.41663],[-91.37367,-0.39327],[-91.37497,-0.37294],[-91.38535,-0.35217],[-91.39833,-0.33443],[-91.41045,-0.31367],[-91.42732,-0.28641]]],[[[-90.54386,-0.31842],[-90.55035,-0.30328],[-90.5616,-0.28771],[-90.57372,-0.26608],[-90.5841,-0.24444],[-90.59578,-0.23103],[-90.61395,-0.21848],[-90.63558,-0.21199],[-90.66327,-0.20594],[-90.68491,-0.19988],[-90.70351,-0.1895],[-90.72082,-0.17522],[-90.73769,-0.16657],[-90.75543,-0.15359],[-90.76927,-0.14407],[-90.78139,-0.1445],[-90.80215,-0.1484],[-90.81167,-0.15965],[-90.82508,-0.17003],[-90.83287,-0.18258],[-90.84196,-0.20551],[-90.84884,-0.23425],[-90.85798,-0.25059],[-90.86158,-0.26775],[-90.86047,-0.28464],[-90.8566,-0.29904],[-90.8458,-0.3079],[-90.83915,-0.31787],[-90.83112,-0.33116],[-90.8206,-0.34002],[-90.80925,-0.34085],[-90.79374,-0.33836],[-90.78294,-0.33532],[-90.77713,-0.33836],[-90.74861,-0.35525],[-90.71455,-0.35636],[-90.68243,-0.35636],[-90.65087,-0.363],[-90.63148,-0.37463],[-90.61404,-0.38183],[-90.58746,-0.38239],[-90.57666,-0.36827],[-90.56679,-0.35044],[-90.55295,-0.33703],[-90.54386,-0.31842]]],[[[-91.25559,0.01065],[-91.27042,0.02624],[-91.27993,0.04639],[-91.29134,0.06845],[-91.30122,0.07985],[-91.31263,0.0924],[-91.31834,0.10419],[-91.32252,0.12282],[-91.32442,0.14107],[-91.33012,0.15286],[-91.34343,0.15742],[-91.3575,0.1559],[-91.37727,0.14412],[-91.39667,0.13309],[-91.41378,0.12434],[-91.44382,0.11522],[-91.46701,0.11446],[-91.48679,0.10229],[-91.49249,0.08518],[-91.50086,0.07187],[-91.50922,0.05742],[-91.52671,0.03726],[-91.54459,0.02548],[-91.56892,0.02205],[-91.58299,0.01863],[-91.59022,0.00608],[-91.58755,-0.01255],[-91.57006,-0.02814],[-91.55105,-0.0308],[-91.52976,-0.03118],[-91.5115,-0.02548],[-91.49972,-0.01635],[-91.49021,-0.00761],[-91.47766,-0.0019],[-91.45713,-0.00152],[-91.4442,-0.00875],[-91.42557,-0.01825],[-91.40922,-0.03955],[-91.40161,-0.07035],[-91.38868,-0.11902],[-91.37005,-0.23119],[-91.3594,-0.29926],[-91.348,-0.31941],[-91.3248,-0.34299],[-91.28183,-0.36922],[-91.24419,-0.38596],[-91.2305,-0.40155],[-91.21643,-0.43045],[-91.21719,-0.46847],[-91.20844,-0.48102],[-91.18753,-0.50231],[-91.15635,-0.53349],[-91.12973,-0.55593],[-91.10273,-0.57874],[-91.07459,-0.60346],[-91.06927,-0.61715],[-91.07421,-0.63236],[-91.09171,-0.64871],[-91.11908,-0.6681],[-91.14228,-0.6894],[-91.16243,-0.69624],[-91.18563,-0.69586],[-91.20312,-0.6875],[-91.22175,-0.68027],[-91.23582,-0.68217],[-91.25331,-0.69206],[-91.27347,-0.69662],[-91.29514,-0.69776],[-91.30921,-0.69928],[-91.32062,-0.70423],[-91.33012,-0.71525],[-91.34229,-0.73123],[-91.35636,-0.74605],[-91.3807,-0.76469],[-91.39705,-0.77419],[-91.42214,-0.79092],[-91.43773,-0.80043],[-91.44838,-0.81792],[-91.46131,-0.82629],[-91.4712,-0.83503],[-91.48641,-0.84834],[-91.49401,-0.85595],[-91.50352,-0.86393],[-91.51264,-0.89131],[-91.51036,-0.91831],[-91.48983,-0.93922],[-91.46131,-0.95671],[-91.43964,-0.98371],[-91.41606,-1.00234],[-91.37613,-1.01603],[-91.32936,-1.01908],[-91.26472,-1.02364],[-91.22784,-1.03695],[-91.20122,-1.05254],[-91.17536,-1.05672],[-91.14798,-1.05292],[-91.12136,-1.04113],[-91.09209,-1.02516],[-91.06167,-1.01679],[-91.00349,-1.00995],[-90.95139,-0.9974],[-90.90576,-0.97763],[-90.89321,-0.96394],[-90.88181,-0.94112],[-90.86926,-0.92135],[-90.85177,-0.90652],[-90.8439,-0.8834],[-90.83709,-0.86515],[-90.83125,-0.84544],[-90.82638,-0.82427],[-90.81944,-0.80081],[-90.79929,-0.78104],[-90.80043,-0.76355],[-90.80766,-0.75024],[-90.81868,-0.73465],[-90.83123,-0.71982],[-90.84378,-0.70499],[-90.85443,-0.6875],[-90.8666,-0.6681],[-90.87268,-0.65327],[-90.88485,-0.63958],[-90.90006,-0.63274],[-90.92477,-0.62932],[-90.9358,-0.62057],[-90.94341,-0.61221],[-90.95215,-0.59662],[-90.96242,-0.57836],[-90.9609,-0.56353],[-90.95481,-0.54984],[-90.94265,-0.53463],[-90.93314,-0.5141],[-90.93808,-0.48368],[-90.94531,-0.45668],[-90.96014,-0.44109],[-90.98143,-0.42816],[-91.00082,-0.41219],[-91.02098,-0.39356],[-91.04541,-0.37234],[-91.07583,-0.34484],[-91.10673,-0.31734],[-91.13764,-0.2896],[-91.1683,-0.25164],[-91.17954,-0.22967],[-91.19057,-0.20876],[-91.19818,-0.1791],[-91.19703,-0.16807],[-91.19437,-0.15514],[-91.18981,-0.13993],[-91.18981,-0.12396],[-91.19285,-0.11522],[-91.18943,-0.08822],[-91.19057,-0.07339],[-91.1997,-0.05704],[-91.20844,-0.04411],[-91.22213,-0.02966],[-91.23658,-0.01103],[-91.25559,0.01065]]],[[[-79.96241,0.22094],[-79.95899,0.22709],[-79.95796,0.23478],[-79.95779,0.24264],[-79.96001,0.24948],[-79.96241,0.25204],[-79.96702,0.2529],[-79.97351,0.24897],[-79.97847,0.24162],[-79.98154,0.23615],[-79.98189,0.22709],[-79.97608,0.21992],[-79.97027,0.21889],[-79.96241,0.22094]]],[[[-89.94552,0.30891],[-89.936,0.31713],[-89.93427,0.33011],[-89.9386,0.34222],[-89.95244,0.35001],[-89.96456,0.34352],[-89.97191,0.33789],[-89.97581,0.33011],[-89.97581,0.31972],[-89.96326,0.30891],[-89.94552,0.30891]]],[[[-90.46313,0.28464],[-90.45566,0.29129],[-90.43181,0.29506],[-90.41667,0.30804],[-90.41667,0.32448],[-90.42143,0.33919],[-90.42965,0.35044],[-90.43441,0.36342],[-90.4396,0.37207],[-90.45604,0.38289],[-90.47464,0.38462],[-90.48589,0.38073],[-90.49844,0.37683],[-90.50839,0.37683],[-90.51228,0.36731],[-90.52137,0.35909],[-90.52876,0.34224],[-90.52737,0.32452],[-90.52267,0.3151],[-90.51021,0.30264],[-90.49664,0.29295],[-90.48722,0.28492],[-90.47393,0.2816],[-90.46313,0.28464]]],[[[-80.00212,0.36898],[-79.99698,0.37347],[-79.99305,0.37893],[-79.99272,0.38604],[-79.99633,0.39096],[-80.00136,0.39435],[-80.00912,0.39523],[-80.01558,0.3972],[-80.02279,0.39982],[-80.02892,0.40288],[-80.03624,0.4054],[-80.03821,0.40201],[-80.03471,0.38593],[-80.0299,0.38003],[-80.02509,0.3762],[-80.01864,0.3715],[-80.01208,0.368],[-80.00726,0.3669],[-80.00212,0.36898]]],[[[-90.74461,0.53345],[-90.73639,0.5447],[-90.72644,0.54989],[-90.71433,0.55941],[-90.71692,0.57758],[-90.72774,0.59488],[-90.73985,0.6044],[-90.75067,0.62127],[-90.76235,0.63296],[-90.77576,0.6243],[-90.78139,0.61825],[-90.79004,0.60527],[-90.7909,0.59272],[-90.78831,0.57022],[-90.78052,0.562],[-90.77014,0.55422],[-90.76192,0.54383],[-90.75543,0.53345],[-90.74461,0.53345]]],[[[-79.00328,1.21732],[-78.9973,1.22039],[-78.98978,1.22723],[-78.97885,1.23304],[-78.97406,1.23799],[-78.97269,1.24637],[-78.97782,1.25525],[-78.98654,1.26123],[-78.99405,1.26807],[-78.99901,1.27388],[-79.00619,1.279],[-79.01251,1.27097],[-79.02191,1.2655],[-79.03455,1.25662],[-79.04087,1.25218],[-79.04412,1.245],[-79.04156,1.24004],[-79.0325,1.23218],[-79.02567,1.22637],[-79.019,1.22108],[-79.012,1.21663],[-79.00328,1.21732]]],[[[-78.8418,1.3142],[-78.83616,1.32189],[-78.83787,1.3318],[-78.84283,1.33813],[-78.84915,1.34479],[-78.85547,1.35316],[-78.8606,1.36205],[-78.86538,1.36154],[-78.86931,1.36017],[-78.87427,1.35624],[-78.877,1.34958],[-78.87683,1.34103],[-78.87461,1.3301],[-78.87017,1.32053],[-78.86077,1.3142],[-78.84847,1.31301],[-78.8418,1.3142]]],[[[-78.93435,1.25567],[-78.91433,1.26154],[-78.89564,1.26955],[-78.88389,1.27863],[-78.88122,1.29011],[-78.88149,1.29999],[-78.88469,1.31254],[-78.88603,1.32455],[-78.88843,1.33283],[-78.8919,1.33977],[-78.89644,1.34912],[-78.89911,1.36193],[-78.90018,1.37074],[-78.90125,1.37555],[-78.90445,1.37849],[-78.91299,1.37421],[-78.92261,1.3662],[-78.93008,1.35579],[-78.93622,1.34645],[-78.9445,1.33817],[-78.95037,1.33069],[-78.95705,1.32242],[-78.96479,1.3104],[-78.96986,1.30159],[-78.9736,1.29412],[-78.97574,1.28584],[-78.96773,1.27409],[-78.95945,1.26635],[-78.94744,1.2522],[-78.93435,1.25567]]],[[[-91.81128,1.38082],[-91.81146,1.38472],[-91.81536,1.38951],[-91.81766,1.39252],[-91.81873,1.39447],[-91.8228,1.39181],[-91.82422,1.38898],[-91.8244,1.38508],[-91.82316,1.38047],[-91.82121,1.37763],[-91.81749,1.37692],[-91.81412,1.37675],[-91.81128,1.38082]]],[[[-78.74482,1.37644],[-78.75068,1.37974],[-78.75838,1.3823],[-78.76645,1.38634],[-78.77268,1.39294],[-78.77855,1.3977],[-78.78368,1.40467],[-78.79358,1.41274],[-78.80353,1.42441],[-78.8102,1.42441],[-78.81447,1.4196],[-78.82008,1.4148],[-78.82782,1.41213],[-78.83423,1.40625],[-78.83396,1.39691],[-78.83049,1.38489],[-78.8329,1.37742],[-78.84251,1.37021],[-78.84651,1.36193],[-78.84491,1.35312],[-78.8385,1.34297],[-78.83423,1.3363],[-78.82889,1.32535],[-78.82756,1.31734],[-78.81661,1.31227],[-78.80139,1.312],[-78.79044,1.31681],[-78.78537,1.31734],[-78.78537,1.3104],[-78.79659,1.30746],[-78.80566,1.3064],[-78.81714,1.3056],[-78.82756,1.30426],[-78.84438,1.30079],[-78.85372,1.30213],[-78.86147,1.29705],[-78.86413,1.28851],[-78.8644,1.27756],[-78.87222,1.26841],[-78.87957,1.25969],[-78.88589,1.25337],[-78.89529,1.24842],[-78.90896,1.24585],[-78.91784,1.24192],[-78.92474,1.23351],[-78.93302,1.22843],[-78.9437,1.2263],[-78.95358,1.2287],[-78.96025,1.23324],[-78.96986,1.22843],[-78.97948,1.22256],[-78.98962,1.21829],[-78.99576,1.21242],[-79.0019,1.20227],[-79.0019,1.19907],[-78.99736,1.18945],[-78.99496,1.17424],[-78.99897,1.16836],[-79.00511,1.17664],[-79.01125,1.18572],[-79.01846,1.19479],[-79.02967,1.20574],[-79.03951,1.21253],[-79.04549,1.218],[-79.05198,1.21834],[-79.05967,1.21578],[-79.06428,1.21014],[-79.06787,1.20279],[-79.07283,1.19288],[-79.07642,1.18639],[-79.08188,1.17716],[-79.08957,1.16811],[-79.0988,1.15888],[-79.10905,1.14743],[-79.12067,1.13666],[-79.13075,1.12778],[-79.13981,1.11821],[-79.14989,1.10967],[-79.16578,1.10266],[-79.17383,1.10181],[-79.1898,1.09623],[-79.20357,1.09338],[-79.21079,1.09021],[-79.21965,1.08518],[-79.23081,1.08168],[-79.24251,1.0819],[-79.24746,1.08369],[-79.25447,1.08626],[-79.25959,1.09155],[-79.26643,1.09343],[-79.27361,1.09087],[-79.27771,1.08779],[-79.28386,1.08455],[-79.29121,1.08369],[-79.29685,1.08523],[-79.30778,1.0866],[-79.31137,1.08506],[-79.31749,1.08319],[-79.33351,1.08025],[-79.34793,1.07545],[-79.35807,1.07251],[-79.37115,1.07385],[-79.3821,1.07999],[-79.38904,1.08533],[-79.40079,1.08399],[-79.412,1.08132],[-79.42215,1.07652],[-79.43577,1.06904],[-79.44858,1.0613],[-79.463,1.05275],[-79.47929,1.04287],[-79.49744,1.03059],[-79.51078,1.02303],[-79.51898,1.01825],[-79.52787,1.01329],[-79.53949,1.00714],[-79.54769,1.00167],[-79.56204,1.00082],[-79.57161,0.99638],[-79.58016,0.99398],[-79.5899,0.9933],[-79.60254,0.99347],[-79.61382,0.99689],[-79.62305,1.00116],[-79.63244,1.00201],[-79.64321,1.00065],[-79.65449,0.99706],[-79.66235,0.99296],[-79.68046,0.98561],[-79.70045,0.97638],[-79.71703,0.97194],[-79.73292,0.96886],[-79.74232,0.96391],[-79.74881,0.95878],[-79.75633,0.95297],[-79.76539,0.94545],[-79.77239,0.93811],[-79.77923,0.93196],[-79.78521,0.92478],[-79.79085,0.91692],[-79.79614,0.91162],[-79.80076,0.90598],[-79.80588,0.90154],[-79.81306,0.89727],[-79.82177,0.89265],[-79.82981,0.88872],[-79.8375,0.88496],[-79.84501,0.88121],[-79.85099,0.8783],[-79.85629,0.87557],[-79.86073,0.87437],[-79.8674,0.87317],[-79.87611,0.87129],[-79.88995,0.86856],[-79.89559,0.86634],[-79.90648,0.86185],[-79.92063,0.85678],[-79.93131,0.8493],[-79.94092,0.83943],[-79.95053,0.83302],[-79.95907,0.82714],[-79.97109,0.82367],[-79.9815,0.82127],[-79.99138,0.8194],[-80.00233,0.82154],[-80.01354,0.82581],[-80.02288,0.82741],[-80.0317,0.82314],[-80.03917,0.821],[-80.04558,0.82341],[-80.05092,0.82688],[-80.05839,0.82234],[-80.06293,0.81646],[-80.06801,0.81006],[-80.07602,0.80205],[-80.08216,0.79537],[-80.0859,0.78736],[-80.0923,0.77909],[-80.09631,0.77081],[-80.09924,0.76173],[-80.10218,0.74892],[-80.10165,0.7401],[-80.09871,0.73423],[-80.09524,0.72515],[-80.09524,0.71661],[-80.09898,0.70726],[-80.10405,0.69739],[-80.10512,0.68777],[-80.09978,0.67923],[-80.09657,0.67095],[-80.0891,0.66188],[-80.07949,0.66027],[-80.07201,0.65974],[-80.0632,0.6568],[-80.05626,0.65226],[-80.05145,0.64879],[-80.04077,0.64132],[-80.03543,0.63651],[-80.02369,0.62663],[-80.01728,0.62183],[-80.0122,0.61328],[-80.00687,0.60314],[-80.00259,0.59219],[-80.00072,0.58311],[-80.00099,0.57537],[-80.00446,0.56603],[-80.0066,0.55428],[-80.00687,0.54066],[-80.01327,0.52785],[-80.01968,0.5185],[-80.02903,0.51102],[-80.03784,0.50542],[-80.04478,0.49474],[-80.05092,0.48379],[-80.06053,0.47338],[-80.06267,0.46617],[-80.06,0.45896],[-80.05733,0.45549],[-80.05466,0.45282],[-80.05065,0.44801],[-80.04745,0.44241],[-80.04371,0.436],[-80.03837,0.43039],[-80.03383,0.42398],[-80.02636,0.41865],[-80.01808,0.41437],[-80.0114,0.41357],[-80.00313,0.41197],[-79.99458,0.40823],[-79.99111,0.40156],[-79.98657,0.39141],[-79.9831,0.38314],[-79.97803,0.37459],[-79.97589,0.36445],[-79.98043,0.3543],[-79.98577,0.34015],[-79.98577,0.31505],[-79.9847,0.30357],[-79.9831,0.29583],[-79.9783,0.28782],[-79.96895,0.28088],[-79.95881,0.27901],[-79.9532,0.27767],[-79.94652,0.26566],[-79.94674,0.26486],[-79.94813,0.25978],[-79.95026,0.25231],[-79.94839,0.24643],[-79.94279,0.2419],[-79.94172,0.23335],[-79.94332,0.21867],[-79.94813,0.21066],[-79.9548,0.20265],[-79.96068,0.19517],[-79.97055,0.18503],[-79.9799,0.18529],[-79.98097,0.19384],[-79.9775,0.20051],[-79.97776,0.20959],[-79.98123,0.21546],[-79.98924,0.22427],[-79.99725,0.22988],[-80.00206,0.23869],[-80.00153,0.25044],[-80.00046,0.25818],[-79.99779,0.26459],[-79.99485,0.27153],[-79.99512,0.27821],[-79.99645,0.28969],[-79.99805,0.30117],[-79.99966,0.31078],[-80.00126,0.31719],[-80.00286,0.32173],[-80.0082,0.33241],[-80.01301,0.33988],[-80.01754,0.34709],[-80.02235,0.35377],[-80.02742,0.36364],[-80.03517,0.36685],[-80.0389,0.36124],[-80.04104,0.3551],[-80.04104,0.34415],[-80.04104,0.3268],[-80.03864,0.31906],[-80.03463,0.31105],[-80.03517,0.30491],[-80.0389,0.2969],[-80.03864,0.28542],[-80.03623,0.27714],[-80.03437,0.2718],[-80.03276,0.17755],[-80.03704,0.16473],[-80.04077,0.15432],[-80.04184,0.14418],[-80.04291,0.1327],[-80.04398,0.12255],[-80.04665,0.11481],[-80.05065,0.10413],[-80.0592,0.08651],[-80.06213,0.07663],[-80.06667,0.06354],[-80.07094,0.0574],[-80.07895,0.05233],[-80.08856,0.04752],[-80.09471,0.04272],[-80.09684,0.03391],[-80.09684,0.02456],[-80.10165,0.01335],[-80.10779,0.00694],[-80.11713,-0.00454],[-80.12274,-0.01335],[-80.12755,-0.0275],[-80.13582,-0.03791],[-80.15211,-0.05046],[-80.1748,-0.07155],[-80.20951,-0.1108],[-80.24606,-0.1449],[-80.26315,-0.15703],[-80.27818,-0.16985],[-80.28775,-0.17617],[-80.29698,-0.18335],[-80.30484,-0.1854],[-80.31373,-0.1842],[-80.32039,-0.18044],[-80.32569,-0.17771],[-80.3303,-0.17908],[-80.33338,-0.18232],[-80.33645,-0.18694],[-80.33953,-0.19189],[-80.34243,-0.19634],[-80.3467,-0.20403],[-80.3491,-0.20813],[-80.35303,-0.21377],[-80.35969,-0.21872],[-80.3643,-0.22128],[-80.37148,-0.22385],[-80.37784,-0.2282],[-80.38409,-0.24029],[-80.38785,-0.24864],[-80.3916,-0.25948],[-80.39411,-0.27575],[-80.39953,-0.29077],[-80.40579,-0.30454],[-80.41747,-0.31539],[-80.43123,-0.33207],[-80.44959,-0.34834],[-80.46711,-0.36461],[-80.48255,-0.36962],[-80.49131,-0.37337],[-80.49423,-0.38088],[-80.49715,-0.39089],[-80.4959,-0.40383],[-80.49298,-0.41342],[-80.48964,-0.42093],[-80.48672,-0.42719],[-80.48171,-0.43595],[-80.47712,-0.44346],[-80.47128,-0.44888],[-80.46711,-0.45347],[-80.45918,-0.46307],[-80.45585,-0.47058],[-80.45334,-0.481],[-80.45209,-0.49102],[-80.44917,-0.50353],[-80.44625,-0.51521],[-80.4425,-0.52856],[-80.43999,-0.54066],[-80.43958,-0.54984],[-80.43582,-0.56235],[-80.42957,-0.56778],[-80.41914,-0.57612],[-80.41538,-0.58196],[-80.40873,-0.60644],[-80.40668,-0.61532],[-80.40446,-0.62216],[-80.40224,-0.62711],[-80.39899,-0.6319],[-80.39267,-0.63873],[-80.38566,-0.64454],[-80.3778,-0.64523],[-80.37165,-0.64335],[-80.36738,-0.63839],[-80.36174,-0.63361],[-80.35115,-0.63224],[-80.34346,-0.63361],[-80.33833,-0.636],[-80.33098,-0.63788],[-80.32022,-0.63788],[-80.31133,-0.63925],[-80.30535,-0.64352],[-80.30587,-0.65086],[-80.30689,-0.65531],[-80.3098,-0.66078],[-80.31492,-0.66522],[-80.3168,-0.6671],[-80.32552,-0.66778],[-80.3303,-0.66522],[-80.33577,-0.66146],[-80.34175,-0.65975],[-80.35081,-0.65975],[-80.36174,-0.65907],[-80.36778,-0.65931],[-80.37324,-0.65959],[-80.37723,-0.66113],[-80.38213,-0.664],[-80.38486,-0.66512],[-80.3878,-0.66561],[-80.39165,-0.66498],[-80.39613,-0.6619],[-80.40019,-0.65787],[-80.40531,-0.6536],[-80.41044,-0.6495],[-80.41762,-0.64283],[-80.42155,-0.63771],[-80.42548,-0.63121],[-80.42958,-0.6225],[-80.43214,-0.61276],[-80.43402,-0.60712],[-80.43846,-0.60678],[-80.44308,-0.60746],[-80.44684,-0.60951],[-80.45094,-0.61173],[-80.45436,-0.61549],[-80.4588,-0.62267],[-80.46512,-0.63326],[-80.4701,-0.64319],[-80.47437,-0.6536],[-80.47651,-0.66001],[-80.48024,-0.66828],[-80.48345,-0.67656],[-80.48585,-0.68724],[-80.48719,-0.69819],[-80.49199,-0.7094],[-80.4968,-0.72115],[-80.50401,-0.73423],[-80.50935,-0.74544],[-80.51376,-0.75981],[-80.51416,-0.77509],[-80.51775,-0.78517],[-80.52031,-0.79611],[-80.52117,-0.80363],[-80.52288,-0.81337],[-80.52561,-0.82089],[-80.52903,-0.82994],[-80.53108,-0.83797],[-80.53193,-0.84583],[-80.53603,-0.85899],[-80.53928,-0.86566],[-80.54441,-0.87676],[-80.54936,-0.88462],[-80.55586,-0.89419],[-80.56167,-0.90086],[-80.56799,-0.90803],[-80.57499,-0.91658],[-80.582,-0.92256],[-80.59037,-0.92973],[-80.59909,-0.93469],[-80.60575,-0.93742],[-80.6131,-0.93964],[-80.62062,-0.94545],[-80.63002,-0.94921],[-80.63702,-0.9475],[-80.64215,-0.94477],[-80.64796,-0.94016],[-80.65274,-0.93742],[-80.65599,-0.93298],[-80.66094,-0.93025],[-80.66505,-0.93059],[-80.67393,-0.93486],[-80.68145,-0.93896],[-80.6888,-0.9434],[-80.69734,-0.94785],[-80.70742,-0.95092],[-80.71665,-0.95144],[-80.72366,-0.94682],[-80.72707,-0.94323],[-80.73152,-0.93896],[-80.74023,-0.93913],[-80.74655,-0.9417],[-80.75288,-0.9446],[-80.75988,-0.94597],[-80.76877,-0.95058],[-80.77509,-0.95434],[-80.78295,-0.95878],[-80.79047,-0.96237],[-80.80055,-0.96288],[-80.80944,-0.96186],[-80.81695,-0.95998],[-80.82225,-0.96032],[-80.82789,-0.96254],[-80.83216,-0.96784],[-80.83473,-0.97211],[-80.83917,-0.97809],[-80.84737,-0.98646],[-80.85814,-0.99877],[-80.86377,-1.00697],[-80.86787,-1.01261],[-80.87129,-1.01756],[-80.87642,-1.02372],[-80.88172,-1.03004],[-80.88718,-1.03619],[-80.89316,-1.04012],[-80.89949,-1.04388],[-80.90444,-1.05123],[-80.91059,-1.06148],[-80.91128,-1.06695],[-80.90957,-1.07344],[-80.90598,-1.07857],[-80.90427,-1.08318],[-80.90022,-1.09334],[-80.89809,-1.10428],[-80.89515,-1.11149],[-80.89275,-1.12004],[-80.88981,-1.12805],[-80.88714,-1.13632],[-80.8818,-1.14834],[-80.877,-1.16062],[-80.87032,-1.17103],[-80.86418,-1.18225],[-80.85911,-1.19212],[-80.84683,-1.21375],[-80.83214,-1.22683],[-80.82173,-1.24072],[-80.81238,-1.25834],[-80.79952,-1.2749],[-80.78927,-1.28669],[-80.7821,-1.29489],[-80.77629,-1.30053],[-80.77099,-1.30856],[-80.7645,-1.31779],[-80.75749,-1.32634],[-80.75083,-1.33505],[-80.74416,-1.34564],[-80.7404,-1.35265],[-80.73921,-1.35931],[-80.74023,-1.367],[-80.74314,-1.37281],[-80.75134,-1.37931],[-80.75681,-1.38221],[-80.76313,-1.38512],[-80.76535,-1.39264],[-80.76415,-1.40033],[-80.76193,-1.40921],[-80.75851,-1.41348],[-80.75441,-1.41724],[-80.7527,-1.42476],[-80.75476,-1.43006],[-80.75954,-1.43382],[-80.76774,-1.43963],[-80.76945,-1.44766],[-80.76723,-1.45278],[-80.76518,-1.45842],[-80.76501,-1.46304],[-80.76655,-1.46919],[-80.77367,-1.47567],[-80.77741,-1.48261],[-80.78275,-1.48235],[-80.78782,-1.47968],[-80.79236,-1.48128],[-80.79503,-1.48448],[-80.79877,-1.49169],[-80.80144,-1.4973],[-80.80544,-1.50237],[-80.81025,-1.50637],[-80.81399,-1.51038],[-80.81986,-1.51786],[-80.81959,-1.52346],[-80.81719,-1.5296],[-80.81425,-1.53521],[-80.81452,-1.54455],[-80.81612,-1.55203],[-80.81932,-1.55871],[-80.82466,-1.56111],[-80.83374,-1.56378],[-80.84068,-1.57045],[-80.84469,-1.5838],[-80.84857,-1.59775],[-80.84879,-1.60519],[-80.84846,-1.61372],[-80.84966,-1.62198],[-80.84466,-1.63283],[-80.83715,-1.63867],[-80.83089,-1.6466],[-80.82713,-1.65452],[-80.82338,-1.66704],[-80.81921,-1.67663],[-80.81462,-1.68581],[-80.81015,-1.69405],[-80.8092,-1.69582],[-80.80243,-1.71234],[-80.78275,-1.73626],[-80.77661,-1.7472],[-80.77287,-1.75762],[-80.76966,-1.76749],[-80.76646,-1.78325],[-80.76379,-1.79553],[-80.75872,-1.81502],[-80.75097,-1.83237],[-80.7451,-1.84946],[-80.73976,-1.86628],[-80.73763,-1.87589],[-80.73408,-1.90321],[-80.7281,-1.91227],[-80.72554,-1.92047],[-80.72639,-1.93465],[-80.72981,-1.94713],[-80.73562,-1.9543],[-80.74109,-1.96199],[-80.74638,-1.96626],[-80.75544,-1.97122],[-80.76022,-1.97635],[-80.76142,-1.98404],[-80.76022,-1.9907],[-80.75834,-1.99617],[-80.75646,-2.00147],[-80.75322,-2.00745],[-80.74912,-2.01377],[-80.74416,-2.02077],[-80.74006,-2.02675],[-80.73733,-2.03427],[-80.73698,-2.04299],[-80.73767,-2.05136],[-80.73835,-2.05973],[-80.74194,-2.06828],[-80.7445,-2.08297],[-80.74587,-2.08981],[-80.74997,-2.1004],[-80.75646,-2.11031],[-80.7633,-2.11886],[-80.76962,-2.12894],[-80.77868,-2.13714],[-80.78927,-2.14432],[-80.79474,-2.14944],[-80.80328,-2.15525],[-80.81473,-2.15867],[-80.82464,-2.16038],[-80.83097,-2.16721],[-80.83609,-2.17456],[-80.84395,-2.18294],[-80.85113,-2.18772],[-80.86087,-2.19131],[-80.8689,-2.19473],[-80.88411,-2.20344],[-80.89111,-2.20737],[-80.89761,-2.21113],[-80.90547,-2.21574],[-80.91504,-2.21899],[-80.92563,-2.21933],[-80.93657,-2.21643],[-80.93989,-2.21378],[-80.94951,-2.20755],[-80.95531,-2.20394],[-80.96548,-2.20219],[-80.97401,-2.19978],[-80.98265,-2.19442],[-80.98943,-2.18688],[-80.9938,-2.18283],[-81.00266,-2.18207],[-81.00725,-2.18491],[-81.00835,-2.18928],[-81.00518,-2.19508],[-80.99938,-2.20142],[-80.99085,-2.20908],[-80.98221,-2.21586],[-80.97532,-2.22308],[-80.96898,-2.2304],[-80.95041,-2.24855],[-80.94016,-2.25846],[-80.92683,-2.27316],[-80.91931,-2.28444],[-80.91401,-2.29383],[-80.90649,-2.30545],[-80.9029,-2.31178],[-80.9003,-2.31738],[-80.89729,-2.32471],[-80.89328,-2.32951],[-80.88787,-2.32784],[-80.88086,-2.32442],[-80.87198,-2.32391],[-80.86582,-2.32545],[-80.85916,-2.3292],[-80.85472,-2.33262],[-80.84959,-2.33672],[-80.8431,-2.34356],[-80.83883,-2.34817],[-80.83455,-2.35261],[-80.82362,-2.36321],[-80.81542,-2.36936],[-80.80448,-2.37517],[-80.79508,-2.37944],[-80.78808,-2.38201],[-80.77936,-2.38559],[-80.77201,-2.38867],[-80.75712,-2.38959],[-80.73976,-2.39066],[-80.72855,-2.39279],[-80.71627,-2.39653],[-80.70158,-2.4016],[-80.69544,-2.40454],[-80.68583,-2.40614],[-80.67355,-2.40935],[-80.665,-2.41495],[-80.65673,-2.4235],[-80.64498,-2.43418],[-80.63056,-2.44379],[-80.61641,-2.45767],[-80.59291,-2.47609],[-80.5817,-2.49131],[-80.5613,-2.50809],[-80.54859,-2.51855],[-80.53338,-2.53483],[-80.5227,-2.54551],[-80.51202,-2.55459],[-80.49867,-2.56794],[-80.48665,-2.58209],[-80.47651,-2.59224],[-80.46956,-2.60505],[-80.46289,-2.61493],[-80.44607,-2.63202],[-80.43272,-2.6435],[-80.41803,-2.65017],[-80.40549,-2.6467],[-80.39694,-2.64083],[-80.39267,-2.64083],[-80.39027,-2.6443],[-80.38743,-2.64949],[-80.37575,-2.66367],[-80.36323,-2.67452],[-80.3478,-2.68537],[-80.33111,-2.69621],[-80.31484,-2.70581],[-80.29982,-2.71916],[-80.28731,-2.73292],[-80.26228,-2.73876],[-80.24851,-2.73668],[-80.24184,-2.72458],[-80.24225,-2.70914],[-80.24726,-2.69246],[-80.25143,-2.67577],[-80.25268,-2.6595],[-80.2531,-2.6449],[-80.26228,-2.65074],[-80.27438,-2.657],[-80.27896,-2.65241],[-80.26687,-2.64323],[-80.25936,-2.63197],[-80.26311,-2.62488],[-80.27354,-2.61653],[-80.28397,-2.60944],[-80.2919,-2.60235],[-80.28564,-2.594],[-80.27813,-2.59484],[-80.27312,-2.60193],[-80.26728,-2.61194],[-80.26269,-2.61695],[-80.25685,-2.62196],[-80.25227,-2.62446],[-80.24726,-2.63072],[-80.23975,-2.64031],[-80.23099,-2.63822],[-80.22431,-2.6303],[-80.21859,-2.62294],[-80.20844,-2.60879],[-80.1999,-2.59864],[-80.19136,-2.59544],[-80.17721,-2.5933],[-80.17026,-2.59037],[-80.16359,-2.58236],[-80.1449,-2.57248],[-80.12915,-2.5602],[-80.11526,-2.54311],[-80.10218,-2.52228],[-80.09337,-2.50573],[-80.08483,-2.48918],[-80.07522,-2.47476],[-80.0664,-2.46141],[-80.05973,-2.44219],[-80.05412,-2.42403],[-80.04852,-2.40908],[-80.04344,-2.39947],[-80.0357,-2.38612],[-80.03116,-2.3685],[-80.0245,-2.33917],[-80.00617,-2.3323],[-79.98784,-2.32886],[-79.98784,-2.31683],[-79.98955,-2.30079],[-79.98784,-2.28933],[-79.98383,-2.2773],[-79.97466,-2.25839],[-79.9695,-2.23834],[-79.95575,-2.22688],[-79.9506,-2.22975],[-79.93799,-2.23261],[-79.92424,-2.23662],[-79.91508,-2.24808],[-79.91393,-2.25667],[-79.91737,-2.27329],[-79.91622,-2.28474],[-79.89445,-2.28417],[-79.87956,-2.28073],[-79.87898,-2.26469],[-79.88471,-2.24808],[-79.88987,-2.22574],[-79.88471,-2.20339],[-79.87779,-2.18272],[-79.87706,-2.17026],[-79.87229,-2.16182],[-79.86606,-2.15669],[-79.86166,-2.14679],[-79.86019,-2.13616],[-79.86129,-2.12442],[-79.86349,-2.11379],[-79.86569,-2.10132],[-79.86569,-2.09032],[-79.85763,-2.08189],[-79.84699,-2.07492],[-79.83086,-2.07786],[-79.81803,-2.07749],[-79.81143,-2.07346],[-79.80116,-2.06319],[-79.79529,-2.07052],[-79.79126,-2.08152],[-79.79676,-2.08886],[-79.80116,-2.09399],[-79.81033,-2.09546],[-79.82463,-2.09546],[-79.83819,-2.09546],[-79.84259,-2.10132],[-79.84699,-2.11232],[-79.84516,-2.12112],[-79.84076,-2.13139],[-79.84076,-2.13836],[-79.84076,-2.14789],[-79.84589,-2.16036],[-79.85139,-2.16806],[-79.84846,-2.18272],[-79.84186,-2.19115],[-79.83489,-2.20179],[-79.82939,-2.22269],[-79.82536,-2.24322],[-79.82279,-2.26852],[-79.82426,-2.28135],[-79.82939,-2.30225],[-79.82646,-2.31619],[-79.82023,-2.33415],[-79.82023,-2.34882],[-79.82316,-2.36128],[-79.82756,-2.37485],[-79.82903,-2.38658],[-79.82609,-2.39428],[-79.82169,-2.40308],[-79.81399,-2.41665],[-79.80849,-2.42582],[-79.80373,-2.44012],[-79.80043,-2.44818],[-79.79896,-2.45918],[-79.79456,-2.47678],[-79.78649,-2.49145],[-79.77439,-2.50722],[-79.76596,-2.51491],[-79.75239,-2.51272],[-79.7337,-2.50245],[-79.7161,-2.49658],[-79.70363,-2.50172],[-79.69446,-2.51895],[-79.693,-2.54351],[-79.69373,-2.55818],[-79.70216,-2.56331],[-79.7117,-2.56771],[-79.71903,-2.58238],[-79.71793,-2.60365],[-79.71756,-2.61648],[-79.72343,-2.63445],[-79.73296,-2.64471],[-79.75311,-2.66412],[-79.76532,-2.66576],[-79.77259,-2.67163],[-79.77869,-2.68289],[-79.77822,-2.69298],[-79.77705,-2.7033],[-79.77752,-2.71128],[-79.7794,-2.72325],[-79.78432,-2.73006],[-79.78737,-2.74132],[-79.78972,-2.75305],[-79.79042,-2.7608],[-79.79465,-2.76924],[-79.79864,-2.77581],[-79.80079,-2.78441],[-79.80446,-2.79394],[-79.80923,-2.80384],[-79.80996,-2.81631],[-79.80996,-2.82804],[-79.80996,-2.83904],[-79.81216,-2.84857],[-79.81729,-2.86067],[-79.82316,-2.86911],[-79.83269,-2.88231],[-79.84333,-2.89257],[-79.84699,-2.90541],[-79.85249,-2.92154],[-79.85066,-2.94281],[-79.85396,-2.96591],[-79.85213,-2.98167],[-79.84699,-2.99194],[-79.84626,-2.99891],[-79.84663,-3.01064],[-79.84773,-3.01724],[-79.85213,-3.02714],[-79.85726,-3.03887],[-79.85983,-3.04584],[-79.86044,-3.04821],[-79.86276,-3.0572],[-79.86973,-3.06637],[-79.87926,-3.07407],[-79.88879,-3.07994],[-79.89466,-3.08984],[-79.89613,-3.1023],[-79.89613,-3.11147],[-79.89869,-3.1232],[-79.90492,-3.14227],[-79.90788,-3.16797],[-79.91569,-3.18059],[-79.92169,-3.18765],[-79.93071,-3.19215],[-79.94062,-3.1938],[-79.95023,-3.19591],[-79.96284,-3.19846],[-79.9684,-3.20297],[-79.97399,-3.2099],[-79.97752,-3.22259],[-79.97752,-3.24407],[-79.98021,-3.26377],[-79.98021,-3.28257],[-79.98827,-3.3139],[-79.99811,-3.33628],[-80.00617,-3.34791],[-80.02049,-3.36224],[-80.02765,-3.38282],[-80.03392,-3.4061],[-80.05809,-3.41684],[-80.09121,-3.4249],[-80.12791,-3.43027],[-80.15208,-3.43832],[-80.19505,-3.44638],[-80.22674,-3.45347],[-80.23304,-3.46378],[-80.23991,-3.47467],[-80.24106,-3.48555],[-80.23648,-3.49186],[-80.23247,-3.49701],[-80.22445,-3.50446],[-80.21642,-3.51248],[-80.21241,-3.51993],[-80.21012,-3.52967],[-80.20611,-3.53883],[-80.20038,-3.5543],[-80.20325,-3.56003],[-80.21356,-3.57321],[-80.21299,-3.58524],[-80.20382,-3.59441],[-80.19465,-3.59956],[-80.1895,-3.60185],[-80.19312,-3.62186],[-80.19239,-3.62773],[-80.18762,-3.63616],[-80.18469,-3.64166],[-80.18029,-3.65522],[-80.18102,-3.66732],[-80.18359,-3.67906],[-80.19202,-3.68639],[-80.19569,-3.69592],[-80.19239,-3.70509],[-80.18762,-3.71022],[-80.18285,-3.71939],[-80.17809,-3.72599],[-80.17589,-3.73552],[-80.17955,-3.74872],[-80.18579,-3.75312],[-80.18982,-3.76327],[-80.18935,-3.77078],[-80.18677,-3.7797],[-80.18325,-3.7851],[-80.17809,-3.79026],[-80.16682,-3.79683],[-80.15978,-3.80715],[-80.15767,-3.81701],[-80.15908,-3.82687],[-80.15955,-3.83649],[-80.15673,-3.84376],[-80.15063,-3.85244],[-80.14993,-3.85808],[-80.15251,-3.86347],[-80.1518,-3.87169],[-80.1511,-3.87779],[-80.14781,-3.88412],[-80.14101,-3.88905],[-80.13303,-3.89445],[-80.13259,-3.89483],[-80.12716,-3.89961],[-80.12763,-3.90829],[-80.13256,-3.91627],[-80.14101,-3.92331],[-80.14946,-3.92754],[-80.15908,-3.93176],[-80.16917,-3.93622],[-80.17926,-3.94255],[-80.18958,-3.95006],[-80.19756,-3.95499],[-80.20789,-3.95921],[-80.21845,-3.95968],[-80.22549,-3.9625],[-80.23042,-3.97071],[-80.2344,-3.97681],[-80.24027,-3.98221],[-80.24567,-3.98784],[-80.2513,-3.99582],[-80.25365,-4.00169],[-80.25857,-4.00896],[-80.26843,-4.01459],[-80.27876,-4.01858],[-80.2872,-4.01929],[-80.29565,-4.02187],[-80.30856,-4.01952],[-80.32146,-4.01459],[-80.33109,-4.00802],[-80.34024,-4.00145],[-80.34962,-3.99418],[-80.3569,-3.98949],[-80.363,-3.98972],[-80.37309,-3.99582],[-80.38013,-3.99653],[-80.38764,-3.99324],[-80.39421,-3.9916],[-80.40078,-3.99324],[-80.40782,-3.9977],[-80.41228,-4.00028],[-80.42331,-4.00122],[-80.43269,-4.00216],[-80.43715,-4.00755],[-80.43997,-4.0153],[-80.44349,-4.02187],[-80.44818,-4.03102],[-80.45241,-4.03947],[-80.45898,-4.04815],[-80.46461,-4.05519],[-80.46766,-4.0634],[-80.46649,-4.07373],[-80.46719,-4.08147],[-80.47071,-4.08523],[-80.47564,-4.08945],[-80.47282,-4.09907],[-80.46695,-4.10564],[-80.46297,-4.11268],[-80.4592,-4.12209],[-80.45184,-4.1275],[-80.44659,-4.12719],[-80.44133,-4.12554],[-80.43833,-4.12689],[-80.43893,-4.132],[-80.44118,-4.14041],[-80.44396,-4.21265],[-80.43222,-4.20983],[-80.42824,-4.20467],[-80.42378,-4.20303],[-80.41744,-4.20678],[-80.41228,-4.21312],[-80.40665,-4.22274],[-80.39773,-4.22297],[-80.38952,-4.21945],[-80.3799,-4.21101],[-80.37145,-4.20491],[-80.36206,-4.20373],[-80.3569,-4.20866],[-80.35408,-4.2157],[-80.35056,-4.21875],[-80.34329,-4.21805],[-80.33719,-4.21617],[-80.33202,-4.21734],[-80.32592,-4.21734],[-80.31748,-4.21288],[-80.30973,-4.20584],[-80.30551,-4.20467],[-80.30551,-4.20983],[-80.30692,-4.215],[-80.31349,-4.22438],[-80.32099,-4.23353],[-80.32757,-4.2401],[-80.33554,-4.24879],[-80.34235,-4.257],[-80.34845,-4.26639],[-80.35596,-4.27366],[-80.35948,-4.27929],[-80.36582,-4.28727],[-80.37379,-4.29478],[-80.37966,-4.29971],[-80.39069,-4.31238],[-80.40219,-4.32341],[-80.40805,-4.32857],[-80.41509,-4.33913],[-80.41908,-4.34547],[-80.42425,-4.35227],[-80.42706,-4.36119],[-80.43035,-4.36706],[-80.43833,-4.37715],[-80.4449,-4.38653],[-80.44607,-4.39522],[-80.44232,-4.40484],[-80.4456,-4.41117],[-80.44865,-4.41821],[-80.44607,-4.43839],[-80.44185,-4.44895],[-80.43387,-4.45646],[-80.42354,-4.46186],[-80.41392,-4.46608],[-80.40524,-4.47571],[-80.39585,-4.48533],[-80.38717,-4.48744],[-80.37051,-4.48556],[-80.35878,-4.48345],[-80.34681,-4.47829],[-80.33531,-4.47172],[-80.3271,-4.46538],[-80.31442,-4.45834],[-80.30551,-4.45107],[-80.29565,-4.43886],[-80.28345,-4.42807],[-80.27969,-4.41657],[-80.26538,-4.41],[-80.25365,-4.40742],[-80.24379,-4.40319],[-80.23699,-4.39522],[-80.22314,-4.38278],[-80.19308,-4.35157],[-80.18677,-4.34586],[-80.18361,-4.33775],[-80.18046,-4.32514],[-80.17596,-4.31928],[-80.17235,-4.31342],[-80.1719,-4.30696],[-80.1689,-4.30306],[-80.16124,-4.30141],[-80.15703,-4.30501],[-80.15178,-4.30711],[-80.14711,-4.3037],[-80.14124,-4.30041],[-80.12576,-4.30041],[-80.1152,-4.30276],[-80.10581,-4.30065],[-80.09807,-4.29901],[-80.0868,-4.30065],[-80.07859,-4.30628],[-80.06944,-4.30933],[-80.06029,-4.31426],[-80.05254,-4.32388],[-80.03749,-4.33985],[-80.03223,-4.34601],[-80.02352,-4.35427],[-80.01646,-4.35953],[-80.00865,-4.36704],[-80.00129,-4.37214],[-79.99273,-4.37725],[-79.98387,-4.3807],[-79.97156,-4.38626],[-79.95714,-4.39377],[-79.94798,-4.39632],[-79.93897,-4.40038],[-79.93131,-4.39993],[-79.92635,-4.39602],[-79.92139,-4.39302],[-79.91148,-4.39317],[-79.90588,-4.39639],[-79.89368,-4.40108],[-79.8857,-4.40507],[-79.87889,-4.41047],[-79.87326,-4.4161],[-79.86434,-4.42314],[-79.85496,-4.43347],[-79.84886,-4.44309],[-79.84627,-4.45107],[-79.84064,-4.45975],[-79.8329,-4.46796],[-79.82515,-4.47711],[-79.81553,-4.48627],[-79.80497,-4.49354],[-79.78784,-4.49471],[-79.77916,-4.49448],[-79.7679,-4.49119],[-79.75781,-4.4872],[-79.74323,-4.48167],[-79.72966,-4.47654],[-79.71206,-4.47251],[-79.69666,-4.46847],[-79.6853,-4.45968],[-79.67906,-4.45344],[-79.66953,-4.44538],[-79.65376,-4.44098],[-79.63653,-4.43878],[-79.62186,-4.44391],[-79.61233,-4.45088],[-79.60866,-4.45601],[-79.60133,-4.46297],[-79.59363,-4.47141],[-79.58813,-4.48021],[-79.58153,-4.48974],[-79.5753,-4.50331],[-79.5665,-4.51357],[-79.5599,-4.51724],[-79.54157,-4.52861],[-79.53167,-4.53007],[-79.52213,-4.52824],[-79.51773,-4.52347],[-79.51297,-4.51577],[-79.50747,-4.51467],[-79.4972,-4.52054],[-79.49133,-4.52494],[-79.4873,-4.53264],[-79.48253,-4.54291],[-79.48143,-4.55097],[-79.47923,-4.55757],[-79.47557,-4.56637],[-79.47667,-4.57114],[-79.48327,-4.57957],[-79.49133,-4.58507],[-79.49353,-4.59534],[-79.49353,-4.60341],[-79.4917,-4.61551],[-79.48803,-4.62944],[-79.48143,-4.63604],[-79.4708,-4.64484],[-79.4631,-4.6584],[-79.4609,-4.67417],[-79.45814,-4.6984],[-79.45322,-4.71295],[-79.4497,-4.72093],[-79.44453,-4.7282],[-79.43984,-4.73454],[-79.43257,-4.74111],[-79.43205,-4.74328],[-79.43045,-4.75003],[-79.43045,-4.75941],[-79.43186,-4.76927],[-79.43468,-4.77631],[-79.43515,-4.78311],[-79.43303,-4.78616],[-79.42834,-4.79203],[-79.42506,-4.79649],[-79.42107,-4.80282],[-79.41755,-4.81245],[-79.41332,-4.82277],[-79.40816,-4.82652],[-79.39877,-4.82864],[-79.38282,-4.83098],[-79.37273,-4.83521],[-79.36545,-4.84131],[-79.3617,-4.84882],[-79.35841,-4.8568],[-79.35348,-4.869],[-79.35161,-4.87815],[-79.3448,-4.88308],[-79.34058,-4.88566],[-79.33049,-4.89082],[-79.32321,-4.89481],[-79.31476,-4.89692],[-79.30585,-4.90443],[-79.30186,-4.91241],[-79.30022,-4.91851],[-79.29529,-4.92884],[-79.28989,-4.93963],[-79.28121,-4.94949],[-79.27159,-4.96122],[-79.26642,-4.96967],[-79.25985,-4.97272],[-79.25117,-4.97037],[-79.24554,-4.96803],[-79.22841,-4.96662],[-79.2141,-4.96662],[-79.20518,-4.96544],[-79.19626,-4.96169],[-79.18711,-4.96099],[-79.17233,-4.96192],[-79.16716,-4.96239],[-79.16223,-4.96169],[-79.15449,-4.96169],[-79.14314,-4.96657],[-79.13143,-4.97123],[-79.12122,-4.97543],[-79.11476,-4.97753],[-79.10665,-4.97663],[-79.10139,-4.97423],[-79.09523,-4.97093],[-79.08427,-4.97138],[-79.07586,-4.97588],[-79.07015,-4.98279],[-79.0652,-4.98775],[-79.05829,-4.99255],[-79.05243,-4.99511],[-79.04405,-5.00416],[-79.03482,-5.01022],[-79.02809,-5.01166],[-79.02117,-5.01147],[-79.01732,-5.00676],[-79.01367,-4.99811],[-79.01089,-4.99321],[-79.00829,-4.98734],[-79.00642,-4.97976],[-79.00196,-4.96943],[-78.99774,-4.96286],[-78.99492,-4.95254],[-78.99236,-4.93729],[-78.98935,-4.93053],[-78.9892,-4.92092],[-78.98485,-4.9044],[-78.97344,-4.89508],[-78.95827,-4.88968],[-78.92538,-4.89058],[-78.90705,-4.89073],[-78.90015,-4.88757],[-78.89789,-4.88232],[-78.90129,-4.87674],[-78.90833,-4.87205],[-78.91537,-4.86736],[-78.92053,-4.85985],[-78.91983,-4.85116],[-78.91584,-4.84225],[-78.91068,-4.83544],[-78.90458,-4.8277],[-78.90223,-4.81831],[-78.9027,-4.8101],[-78.90763,-4.80447],[-78.91279,-4.80024],[-78.91795,-4.79719],[-78.92288,-4.78781],[-78.91607,-4.77607],[-78.90505,-4.77044],[-78.89824,-4.76129],[-78.89698,-4.7288],[-78.89075,-4.71707],[-78.88561,-4.71047],[-78.87718,-4.7035],[-78.87021,-4.6936],[-78.86435,-4.67967],[-78.85555,-4.66684],[-78.84161,-4.65327],[-78.82805,-4.64374],[-78.80935,-4.63677],[-78.77891,-4.63347],[-78.76535,-4.632],[-78.74196,-4.62542],[-78.7321,-4.6212],[-78.71427,-4.61908],[-78.7084,-4.61744],[-78.70206,-4.61064],[-78.69713,-4.60524],[-78.68845,-4.59984],[-78.68094,-4.59796],[-78.67296,-4.58999],[-78.6671,-4.57966],[-78.66358,-4.56957],[-78.66475,-4.56065],[-78.66663,-4.5515],[-78.66757,-4.54165],[-78.66481,-4.53059],[-78.6555,-4.51752],[-78.64769,-4.50836],[-78.64528,-4.49785],[-78.64423,-4.48658],[-78.64183,-4.48058],[-78.63928,-4.47262],[-78.63636,-4.4628],[-78.63331,-4.45271],[-78.62674,-4.44379],[-78.61758,-4.4337],[-78.6089,-4.42737],[-78.6028,-4.41986],[-78.60538,-4.41446],[-78.61148,-4.41329],[-78.61712,-4.41469],[-78.62369,-4.41774],[-78.63026,-4.41634],[-78.63448,-4.41235],[-78.63706,-4.40742],[-78.63777,-4.39874],[-78.63847,-4.3924],[-78.63964,-4.38583],[-78.64105,-4.38208],[-78.64668,-4.37081],[-78.6495,-4.36729],[-78.65466,-4.35697],[-78.6549,-4.34875],[-78.65161,-4.33984],[-78.65091,-4.33022],[-78.64668,-4.31614],[-78.64105,-4.30323],[-78.63612,-4.2976],[-78.62861,-4.29314],[-78.62181,-4.2868],[-78.61594,-4.27835],[-78.6136,-4.27366],[-78.61148,-4.26897],[-78.60773,-4.26381],[-78.60374,-4.25864],[-78.60397,-4.25395],[-78.60632,-4.24668],[-78.60984,-4.24175],[-78.61172,-4.23541],[-78.61148,-4.22931],[-78.60843,-4.22227],[-78.60749,-4.21523],[-78.60327,-4.20936],[-78.59388,-4.20373],[-78.58684,-4.19951],[-78.58309,-4.19528],[-78.5798,-4.19036],[-78.57746,-4.18332],[-78.57581,-4.17675],[-78.57581,-4.16971],[-78.57746,-4.1622],[-78.58098,-4.15469],[-78.5852,-4.14812],[-78.58778,-4.14272],[-78.58778,-4.13615],[-78.58447,-4.13267],[-78.57725,-4.12239],[-78.575,-4.11563],[-78.57184,-4.10812],[-78.57094,-4.10121],[-78.56689,-4.0937],[-78.55623,-4.08514],[-78.54857,-4.08004],[-78.54181,-4.07268],[-78.54211,-4.06787],[-78.54586,-4.06171],[-78.54902,-4.05766],[-78.55367,-4.05255],[-78.56208,-4.04685],[-78.56719,-4.04159],[-78.56824,-4.03378],[-78.56809,-4.02627],[-78.56719,-4.01741],[-78.56539,-4.0096],[-78.56539,-4.00224],[-78.56689,-3.99548],[-78.56674,-3.99068],[-78.56479,-3.98632],[-78.56244,-3.9794],[-78.55305,-3.97071],[-78.54414,-3.96273],[-78.5378,-3.95476],[-78.53193,-3.94537],[-78.52466,-3.9381],[-78.51856,-3.9334],[-78.51199,-3.93129],[-78.50307,-3.92988],[-78.49626,-3.928],[-78.49157,-3.92448],[-78.48852,-3.91909],[-78.48617,-3.91111],[-78.48406,-3.9029],[-78.48172,-3.89562],[-78.4789,-3.88717],[-78.47491,-3.87685],[-78.47303,-3.86957],[-78.47022,-3.85831],[-78.46646,-3.84705],[-78.46505,-3.84212],[-78.45614,-3.82992],[-78.44933,-3.82288],[-78.43971,-3.81466],[-78.43173,-3.80762],[-78.42282,-3.79871],[-78.41413,-3.78697],[-78.41132,-3.77806],[-78.41202,-3.77195],[-78.41296,-3.76163],[-78.41319,-3.74732],[-78.41836,-3.73934],[-78.41836,-3.72948],[-78.41554,-3.72479],[-78.4139,-3.71939],[-78.41554,-3.71259],[-78.41953,-3.70766],[-78.42469,-3.70179],[-78.4254,-3.69616],[-78.42375,-3.68912],[-78.41507,-3.68325],[-78.40639,-3.67668],[-78.39935,-3.66378],[-78.39513,-3.65181],[-78.39278,-3.64336],[-78.39348,-3.63139],[-78.39724,-3.62154],[-78.40076,-3.60816],[-78.40052,-3.59502],[-78.39771,-3.58188],[-78.39278,-3.55935],[-78.38949,-3.54926],[-78.38316,-3.54269],[-78.37377,-3.53236],[-78.37029,-3.52599],[-78.36814,-3.52204],[-78.36509,-3.51171],[-78.36063,-3.49576],[-78.35852,-3.47886],[-78.355,-3.46431],[-78.35054,-3.45516],[-78.35148,-3.43944],[-78.35429,-3.42817],[-78.35734,-3.40964],[-78.35617,-3.4026],[-78.35242,-3.39931],[-78.3489,-3.39251],[-78.34796,-3.38242],[-78.34373,-3.37772],[-78.33623,-3.37772],[-78.3266,-3.38124],[-78.31863,-3.385],[-78.30971,-3.38969],[-78.30079,-3.39274],[-78.28178,-3.3972],[-78.25313,-3.40663],[-78.24579,-3.4136],[-78.23956,-3.42496],[-78.23479,-3.43523],[-78.23113,-3.45283],[-78.22819,-3.49353],[-78.22453,-3.50086],[-78.21903,-3.50636],[-78.21096,-3.50673],[-78.20069,-3.50269],[-78.18823,-3.49609],[-78.17833,-3.49096],[-78.16214,-3.48426],[-78.15283,-3.47705],[-78.14728,-3.46909],[-78.14427,-3.46263],[-78.14457,-3.45557],[-78.14682,-3.44581],[-78.14833,-3.44206],[-78.15103,-3.43485],[-78.15298,-3.42449],[-78.15569,-3.41547],[-78.15914,-3.41202],[-78.16545,-3.40872],[-78.17341,-3.40391],[-78.17881,-3.3991],[-78.18377,-3.39145],[-78.18752,-3.38469],[-78.19008,-3.37718],[-78.19293,-3.36907],[-78.19458,-3.36411],[-78.19188,-3.3578],[-78.18347,-3.35495],[-78.17611,-3.3524],[-78.16665,-3.34519],[-78.16034,-3.33843],[-78.15343,-3.33092],[-78.14382,-3.31951],[-78.13181,-3.30614],[-78.12265,-3.29518],[-78.11469,-3.28467],[-78.11063,-3.27595],[-78.10778,-3.2686],[-78.10207,-3.25823],[-78.09756,-3.25042],[-78.09411,-3.24231],[-78.09006,-3.23465],[-78.08855,-3.2291],[-78.08855,-3.22159],[-78.08675,-3.21618],[-78.0848,-3.21588],[-78.07939,-3.21873],[-78.07564,-3.22099],[-78.07248,-3.22189],[-78.06246,-3.22037],[-78.0555,-3.21413],[-78.04853,-3.2079],[-78.04193,-3.2002],[-78.0368,-3.19323],[-78.0324,-3.18737],[-78.02763,-3.1826],[-78.0192,-3.1826],[-78.01663,-3.1848],[-78.01113,-3.187],[-78.00636,-3.18297],[-78.00306,-3.1804],[-78.0049,-3.17527],[-78.0082,-3.17197],[-78.00966,-3.16427],[-78.0071,-3.15657],[-78.0038,-3.15107],[-77.99573,-3.14447],[-77.99206,-3.13934],[-77.98693,-3.1276],[-77.98436,-3.12137],[-77.97263,-3.11037],[-77.96823,-3.10304],[-77.95686,-3.08874],[-77.92643,-3.06564],[-77.88903,-3.03447],[-77.85017,-3.00001],[-77.8245,-2.98644],[-77.76034,-2.96481],[-77.66471,-2.93155],[-77.57304,-2.90119],[-77.50601,-2.8777],[-77.40461,-2.84848],[-77.22061,-2.79028],[-76.96615,-2.70484],[-76.77732,-2.64068],[-76.70692,-2.61355],[-76.69623,-2.61087],[-76.68209,-2.60733],[-76.66121,-2.60287],[-76.64079,-2.59301],[-76.6307,-2.5848],[-76.57275,-2.53854],[-76.40443,-2.41335],[-76.2563,-2.30739],[-76.1474,-2.22782],[-76.0517,-2.15742],[-75.96334,-2.04962],[-75.87021,-1.93816],[-75.78074,-1.819],[-75.69722,-1.70716],[-75.64372,-1.63559],[-75.59584,-1.57528],[-75.59021,-1.5666],[-75.58669,-1.55463],[-75.57932,-1.55103],[-75.57613,-1.54947],[-75.57191,-1.55182],[-75.56956,-1.56097],[-75.5651,-1.56519],[-75.56041,-1.56167],[-75.55595,-1.55205],[-75.55267,-1.53962],[-75.49855,-1.3469],[-75.45272,-1.1905],[-75.40517,-1.02493],[-75.38072,-0.93058],[-75.37265,-0.91995],[-75.36238,-0.92178],[-75.35285,-0.93021],[-75.34405,-0.93718],[-75.33452,-0.94671],[-75.32425,-0.95955],[-75.31215,-0.97055],[-75.29969,-0.97715],[-75.27842,-0.98375],[-75.26632,-0.97971],[-75.25862,-0.97531],[-75.23992,-0.96908],[-75.22269,-0.96981],[-75.19262,-0.97201],[-75.18859,-0.96615],[-75.19079,-0.95625],[-75.19812,-0.95148],[-75.20362,-0.94891],[-75.21095,-0.94341],[-75.21719,-0.94048],[-75.22122,-0.93461],[-75.22525,-0.92838],[-75.22525,-0.92105],[-75.21902,-0.91408],[-75.21425,-0.91005],[-75.21059,-0.89758],[-75.21059,-0.88365],[-75.21205,-0.87302],[-75.21645,-0.86165],[-75.21902,-0.85505],[-75.22672,-0.85138],[-75.23405,-0.84258],[-75.23809,-0.83415],[-75.23822,-0.82272],[-75.23165,-0.81545],[-75.22719,-0.80747],[-75.23024,-0.79879],[-75.23705,-0.79245],[-75.24808,-0.78823],[-75.25676,-0.7826],[-75.25582,-0.77251],[-75.24948,-0.76805],[-75.24244,-0.76406],[-75.2415,-0.75608],[-75.2462,-0.74998],[-75.25113,-0.74482],[-75.25535,-0.74083],[-75.26169,-0.73214],[-75.26521,-0.72581],[-75.26638,-0.7183],[-75.26004,-0.70751],[-75.2516,-0.70117],[-75.24221,-0.69436],[-75.23939,-0.68944],[-75.2408,-0.68357],[-75.2462,-0.6777],[-75.253,-0.67113],[-75.25793,-0.66738],[-75.25863,-0.66034],[-75.25418,-0.65166],[-75.2516,-0.64555],[-75.24182,-0.63827],[-75.24057,-0.63734],[-75.22742,-0.63171],[-75.22085,-0.6242],[-75.21804,-0.61552],[-75.22109,-0.61012],[-75.2232,-0.60378],[-75.22907,-0.59369],[-75.2347,-0.58665],[-75.23353,-0.57797],[-75.22508,-0.57375],[-75.21874,-0.57164],[-75.21554,-0.56154],[-75.21494,-0.55298],[-75.21734,-0.54757],[-75.22125,-0.54246],[-75.22515,-0.53691],[-75.22816,-0.52669],[-75.22996,-0.51813],[-75.23311,-0.51032],[-75.23657,-0.50852],[-75.24047,-0.50882],[-75.24378,-0.51228],[-75.24828,-0.51543],[-75.25098,-0.51558],[-75.25534,-0.51077],[-75.25729,-0.50387],[-75.25879,-0.49846],[-75.26015,-0.4935],[-75.26345,-0.49155],[-75.27111,-0.4899],[-75.27592,-0.4908],[-75.28207,-0.49185],[-75.28613,-0.4896],[-75.29063,-0.48464],[-75.29664,-0.47758],[-75.30025,-0.47158],[-75.3028,-0.46302],[-75.3061,-0.45566],[-75.30941,-0.4495],[-75.31421,-0.44725],[-75.31977,-0.4498],[-75.32728,-0.4504],[-75.33674,-0.44785],[-75.34515,-0.44184],[-75.35101,-0.43748],[-75.36077,-0.43163],[-75.36893,-0.4292],[-75.37667,-0.41441],[-75.3816,-0.40315],[-75.38676,-0.39587],[-75.40178,-0.38226],[-75.41046,-0.3703],[-75.42032,-0.35669],[-75.42595,-0.34824],[-75.43111,-0.33744],[-75.4358,-0.32876],[-75.44496,-0.3182],[-75.45059,-0.30952],[-75.45478,-0.30412],[-75.46154,-0.284],[-75.4656,-0.27003],[-75.46608,-0.25813],[-75.46373,-0.24733],[-75.4649,-0.23748],[-75.47147,-0.22715],[-75.48063,-0.21472],[-75.48954,-0.20768],[-75.49987,-0.19453],[-75.5062,-0.18468],[-75.51113,-0.1767],[-75.51676,-0.16966],[-75.52701,-0.16096],[-75.53618,-0.14923],[-75.53655,-0.12723],[-75.53288,-0.11183],[-75.52665,-0.10596],[-75.51638,-0.1034],[-75.50208,-0.1034],[-75.49072,-0.10706],[-75.47935,-0.11183],[-75.46982,-0.11696],[-75.46102,-0.12246],[-75.45148,-0.12943],[-75.44305,-0.13566],[-75.42454,-0.13986],[-75.41328,-0.14361],[-75.40506,-0.14878],[-75.39098,-0.15511],[-75.37667,-0.15769],[-75.36494,-0.15675],[-75.36001,-0.14971],[-75.35508,-0.14619],[-75.34968,-0.14619],[-75.34476,-0.15136],[-75.33865,-0.15323],[-75.33349,-0.15018],[-75.32575,-0.14948],[-75.31754,-0.15112],[-75.30595,-0.15018],[-75.29964,-0.14838],[-75.29319,-0.14463],[-75.28538,-0.14177],[-75.27802,-0.13877],[-75.27411,-0.13381],[-75.2645,-0.12435],[-75.25819,-0.11834],[-75.25444,-0.11204],[-75.25985,-0.11264],[-75.26886,-0.11429],[-75.27501,-0.11399],[-75.28192,-0.11174],[-75.29063,-0.10798],[-75.29709,-0.10393],[-75.304,-0.10032],[-75.31181,-0.09792],[-75.32412,-0.09447],[-75.33284,-0.09056],[-75.33944,-0.08681],[-75.34665,-0.08275],[-75.35266,-0.08155],[-75.35762,-0.08245],[-75.36467,-0.08575],[-75.36888,-0.08711],[-75.38795,-0.08651],[-75.40432,-0.07734],[-75.41664,-0.07209],[-75.42595,-0.06713],[-75.43196,-0.06233],[-75.43751,-0.05767],[-75.44517,-0.05136],[-75.45223,-0.04791],[-75.45899,-0.04521],[-75.4701,-0.041],[-75.48017,-0.03695],[-75.49008,-0.03094],[-75.49879,-0.02178],[-75.5081,-0.01232],[-75.51561,-0.00886],[-75.52041,-0.00961],[-75.52867,-0.01277],[-75.54519,-0.01247],[-75.55721,-0.01051],[-75.56247,-0.00781],[-75.56547,-0.0033],[-75.56922,0.003],[-75.57285,0.02182],[-75.57895,0.02605],[-75.58787,0.02957],[-75.59843,0.03332],[-75.60382,0.03543],[-75.61016,0.04083],[-75.61532,0.04975],[-75.62166,0.05491],[-75.62893,0.05491],[-75.63175,0.05209],[-75.63386,0.04764],[-75.63973,0.04412],[-75.64653,0.04717],[-75.65334,0.05233],[-75.65897,0.05256],[-75.66343,0.05139],[-75.66929,0.04834],[-75.67516,0.04435],[-75.68595,0.04435],[-75.69863,0.04834],[-75.70614,0.04858],[-75.7181,0.0467],[-75.72749,0.04459],[-75.73805,0.04506],[-75.74626,0.04811],[-75.75448,0.05303],[-75.76269,0.05749],[-75.7709,0.06219],[-75.77794,0.06617],[-75.78334,0.06688],[-75.79014,0.06547],[-75.79742,0.06359],[-75.80258,0.06641],[-75.80563,0.07392],[-75.80704,0.08143],[-75.80845,0.08917],[-75.81197,0.09457],[-75.81924,0.10067],[-75.82487,0.10536],[-75.82699,0.10959],[-75.83168,0.11757],[-75.83848,0.13165],[-75.84153,0.13962],[-75.84435,0.14479],[-75.85163,0.14455],[-75.85561,0.14009],[-75.86031,0.13423],[-75.86711,0.13305],[-75.87204,0.13798],[-75.87486,0.14455],[-75.88072,0.15042],[-75.88776,0.15582],[-75.89081,0.16098],[-75.89175,0.16943],[-75.89433,0.17412],[-75.90044,0.18069],[-75.91334,0.19289],[-75.92343,0.20533],[-75.93282,0.21612],[-75.93845,0.22316],[-75.93962,0.22833],[-75.9361,0.23349],[-75.93118,0.23912],[-75.93493,0.24452],[-75.9408,0.24076],[-75.94737,0.24006],[-75.95276,0.24381],[-75.95699,0.24898],[-75.96239,0.25156],[-75.97459,0.25414],[-75.98139,0.25625],[-75.98515,0.26423],[-75.98397,0.27103],[-75.98045,0.27526],[-75.97928,0.27995],[-75.9828,0.28464],[-75.98585,0.28934],[-75.98867,0.29661],[-75.99055,0.30318],[-75.99336,0.30811],[-75.99899,0.31257],[-76.00462,0.31539],[-76.02903,0.31703],[-76.03325,0.32172],[-76.03724,0.32876],[-76.04006,0.33956],[-76.04405,0.3466],[-76.05226,0.34941],[-76.05907,0.34918],[-76.06822,0.34519],[-76.07479,0.33979],[-76.07995,0.33369],[-76.08464,0.32853],[-76.09685,0.3236],[-76.106,0.32759],[-76.10952,0.33697],[-76.10811,0.34495],[-76.10647,0.35105],[-76.10741,0.3595],[-76.10975,0.36795],[-76.11351,0.37616],[-76.11773,0.38179],[-76.12313,0.38766],[-76.13158,0.39118],[-76.13697,0.394],[-76.14293,0.39558],[-76.14758,0.39588],[-76.15089,0.39558],[-76.15674,0.39168],[-76.1596,0.38717],[-76.16425,0.38282],[-76.17101,0.38117],[-76.18047,0.38237],[-76.18693,0.38762],[-76.19053,0.39213],[-76.19654,0.39453],[-76.2015,0.39363],[-76.2069,0.39078],[-76.21186,0.38852],[-76.21817,0.39078],[-76.21997,0.40745],[-76.22432,0.41316],[-76.23304,0.41421],[-76.2413,0.41526],[-76.2488,0.41901],[-76.25211,0.42547],[-76.25316,0.43058],[-76.25391,0.43493],[-76.25601,0.44169],[-76.25827,0.44605],[-76.26157,0.4489],[-76.26382,0.4489],[-76.26818,0.4465],[-76.27103,0.44394],[-76.27419,0.44139],[-76.27719,0.43779],[-76.28064,0.43523],[-76.28515,0.43403],[-76.2886,0.43463],[-76.29431,0.43763],[-76.29701,0.43884],[-76.30032,0.43869],[-76.30362,0.43733],[-76.30557,0.43613],[-76.30813,0.43313],[-76.31023,0.43028],[-76.31323,0.42742],[-76.31669,0.42307],[-76.31834,0.41856],[-76.31984,0.4109],[-76.32134,0.40399],[-76.32354,0.39645],[-76.32525,0.39359],[-76.33156,0.38958],[-76.33671,0.39015],[-76.34588,0.39416],[-76.34874,0.39874],[-76.35505,0.4039],[-76.36135,0.40619],[-76.3688,0.40333],[-76.37223,0.39931],[-76.37452,0.39588],[-76.38083,0.39301],[-76.38942,0.39129],[-76.39687,0.38958],[-76.39916,0.38614],[-76.39973,0.38155],[-76.39687,0.37239],[-76.39393,0.26094],[-76.39768,0.25273],[-76.40214,0.2478],[-76.41012,0.24663],[-76.41693,0.24991],[-76.42092,0.25836],[-76.42185,0.26259],[-76.42725,0.2647],[-76.43335,0.26282],[-76.43664,0.2593],[-76.43969,0.25695],[-76.44344,0.25437],[-76.44884,0.25015],[-76.45565,0.24851],[-76.46292,0.24921],[-76.4697,0.25079],[-76.47666,0.25116],[-76.48473,0.25006],[-76.49536,0.24859],[-76.50416,0.25153],[-76.51039,0.25483],[-76.51663,0.26326],[-76.52249,0.26766],[-76.52946,0.26693],[-76.53423,0.26509],[-76.53899,0.26289],[-76.54413,0.25996],[-76.54999,0.25629],[-76.55623,0.25116],[-76.56173,0.24566],[-76.56466,0.24016],[-76.57089,0.23356],[-76.57713,0.22916],[-76.58263,0.22733],[-76.58776,0.23026],[-76.5941,0.23724],[-76.60254,0.24428],[-76.60771,0.24991],[-76.61193,0.25672],[-76.61568,0.26306],[-76.62038,0.26939],[-76.62507,0.27103],[-76.62883,0.26939],[-76.63094,0.26705],[-76.63422,0.26329],[-76.63892,0.26024],[-76.64337,0.26047],[-76.64807,0.26306],[-76.64924,0.26681],[-76.64995,0.2715],[-76.64995,0.27502],[-76.65135,0.27901],[-76.65698,0.28112],[-76.66238,0.28183],[-76.66426,0.28136],[-76.66731,0.27925],[-76.67341,0.27925],[-76.67857,0.27948],[-76.68397,0.283],[-76.6889,0.28488],[-76.69523,0.28488],[-76.70016,0.28159],[-76.70415,0.27901],[-76.71025,0.27901],[-76.71448,0.28089],[-76.71635,0.28394],[-76.71823,0.28934],[-76.72246,0.29262],[-76.72621,0.29239],[-76.73043,0.29051],[-76.73372,0.28746],[-76.73935,0.28347],[-76.74686,0.28042],[-76.75273,0.27714],[-76.75296,0.27221],[-76.74991,0.26986],[-76.7478,0.26634],[-76.75085,0.2586],[-76.75695,0.25649],[-76.76563,0.25625],[-76.7722,0.25954],[-76.77784,0.26681],[-76.7837,0.27103],[-76.79168,0.27197],[-76.79544,0.27197],[-76.8013,0.26892],[-76.80553,0.26658],[-76.80952,0.26353],[-76.81538,0.26047],[-76.82078,0.25695],[-76.82711,0.25179],[-76.83556,0.2471],[-76.84143,0.24663],[-76.84964,0.24921],[-76.8541,0.25297],[-76.85856,0.25742],[-76.86513,0.25977],[-76.87592,0.25977],[-76.8832,0.25766],[-76.88907,0.25531],[-76.89423,0.25461],[-76.91136,0.25766],[-76.91629,0.26047],[-76.92215,0.26446],[-76.92544,0.26751],[-76.92778,0.27174],[-76.92825,0.2769],[-76.92755,0.28089],[-76.92943,0.28394],[-76.93295,0.28394],[-76.93694,0.28136],[-76.94304,0.27854],[-76.95008,0.27878],[-76.95899,0.27901],[-76.96533,0.27901],[-76.97096,0.27878],[-76.98504,0.27901],[-76.98856,0.28488],[-76.99161,0.29098],[-76.99419,0.29497],[-77.0003,0.2952],[-77.00452,0.29309],[-77.01109,0.2884],[-77.01578,0.28464],[-77.01954,0.27972],[-77.02564,0.2762],[-77.03221,0.2769],[-77.04019,0.2823],[-77.04582,0.28652],[-77.08149,0.28676],[-77.08735,0.29028],[-77.09134,0.29544],[-77.09252,0.2999],[-77.09228,0.30764],[-77.0897,0.3114],[-77.08642,0.31539],[-77.08665,0.32031],[-77.089,0.3236],[-77.09416,0.32993],[-77.09838,0.33439],[-77.10308,0.33909],[-77.10519,0.34894],[-77.10636,0.35692],[-77.10871,0.36443],[-77.11199,0.36983],[-77.11528,0.37264],[-77.12326,0.37475],[-77.13828,0.3771],[-77.14719,0.37827],[-77.154,0.3825],[-77.1594,0.38508],[-77.16855,0.39001],[-77.17348,0.39001],[-77.17958,0.38766],[-77.18638,0.38273],[-77.19436,0.3764],[-77.20398,0.37077],[-77.21149,0.36701],[-77.21689,0.36349],[-77.2244,0.36255],[-77.23261,0.36302],[-77.23965,0.36396],[-77.24622,0.36654],[-77.25185,0.36889],[-77.25866,0.37053],[-77.2657,0.37053],[-77.27016,0.36889],[-77.27461,0.3649],[-77.28494,0.3649],[-77.29198,0.36725],[-77.29949,0.371],[-77.30747,0.37616],[-77.31357,0.38062],[-77.31967,0.38649],[-77.32882,0.39282],[-77.33891,0.39611],[-77.34877,0.39822],[-77.35628,0.4008],[-77.36379,0.40245],[-77.36918,0.40221],[-77.37458,0.40104],[-77.38232,0.39752],[-77.38749,0.39752],[-77.39124,0.39822],[-77.39359,0.39916],[-77.39476,0.40057],[-77.3964,0.40362],[-77.39852,0.40714],[-77.4018,0.40902],[-77.40743,0.40808],[-77.41048,0.40456],[-77.41471,0.40127],[-77.41752,0.39799],[-77.42409,0.39564],[-77.43137,0.39611],[-77.44146,0.39634],[-77.45253,0.39844],[-77.46034,0.40234],[-77.46935,0.4085],[-77.52161,0.41841],[-77.52071,0.42682],[-77.51936,0.43568],[-77.51741,0.44424],[-77.51741,0.45205],[-77.51816,0.45731],[-77.51996,0.46211],[-77.52116,0.46497],[-77.52289,0.47144],[-77.52195,0.47754],[-77.5189,0.4881],[-77.51632,0.49256],[-77.51444,0.49936],[-77.51538,0.50546],[-77.5189,0.51039],[-77.52171,0.51907],[-77.52195,0.52212],[-77.52054,0.53174],[-77.51819,0.53902],[-77.5135,0.54887],[-77.51022,0.55943],[-77.50529,0.57093],[-77.49731,0.58032],[-77.48511,0.59135],[-77.48112,0.6012],[-77.47901,0.60824],[-77.48159,0.65306],[-77.48511,0.65987],[-77.4898,0.66175],[-77.4952,0.66315],[-77.50458,0.66198],[-77.51139,0.66104],[-77.51936,0.66276],[-77.53047,0.65901],[-77.54023,0.6548],[-77.54714,0.65195],[-77.5536,0.65105],[-77.5589,0.65219],[-77.55916,0.65225],[-77.56351,0.65405],[-77.56922,0.65886],[-77.57613,0.66531],[-77.58108,0.66997],[-77.58409,0.67237],[-77.5913,0.67613],[-77.59625,0.67823],[-77.60076,0.68063],[-77.60376,0.68394],[-77.60797,0.68799],[-77.61307,0.6913],[-77.62208,0.69715],[-77.6332,0.70211],[-77.63935,0.70466],[-77.64461,0.70721],[-77.65167,0.71052],[-77.65648,0.71427],[-77.66053,0.71953],[-77.66278,0.72509],[-77.66504,0.72974],[-77.66804,0.73455],[-77.67209,0.73905],[-77.67615,0.74146],[-77.67885,0.74236],[-77.68636,0.74431],[-77.69161,0.7474],[-77.6956,0.7528],[-77.6956,0.76148],[-77.69396,0.76969],[-77.68715,0.77837],[-77.68035,0.78635],[-77.67424,0.79269],[-77.67284,0.79832],[-77.67448,0.80348],[-77.67284,0.80982],[-77.66767,0.81545],[-77.66838,0.82202],[-77.67354,0.82742],[-77.67894,0.82976],[-77.6848,0.83164],[-77.6902,0.83516],[-77.69513,0.84056],[-77.69959,0.84525],[-77.70569,0.84948],[-77.71719,0.84971],[-77.72329,0.8476],[-77.72728,0.84408],[-77.73408,0.83751],[-77.73995,0.83563],[-77.74558,0.83751],[-77.75074,0.84103],[-77.75943,0.84572],[-77.7674,0.84502],[-77.77257,0.84384],[-77.7789,0.84103],[-77.78594,0.83751],[-77.79204,0.83375],[-77.79885,0.82929],[-77.80612,0.82296],[-77.81598,0.81662],[-77.82325,0.81029],[-77.83123,0.80583],[-77.84297,0.80301],[-77.8493,0.80137],[-77.85963,0.8009],[-77.86549,0.80254],[-77.87206,0.80677],[-77.88051,0.81076],[-77.92322,0.8192],[-77.93073,0.82249],[-77.9373,0.82437],[-77.94809,0.82742],[-77.95772,0.83047],[-77.96405,0.83352],[-77.97015,0.83892],[-77.97438,0.84173],[-77.98001,0.84736],[-77.98376,0.85323],[-77.98869,0.85722],[-77.9962,0.86074],[-78.00418,0.86356],[-78.00981,0.86754],[-78.01873,0.87271],[-78.02647,0.8774],[-78.03422,0.87998],[-78.04243,0.88374],[-78.04947,0.88679],[-78.05487,0.89007],[-78.06449,0.89383],[-78.07153,0.89664],[-78.07857,0.9004],[-78.08936,0.90227],[-78.09687,0.90603],[-78.10344,0.91072],[-78.10907,0.918],[-78.11236,0.92293],[-78.1147,0.92809],[-78.11775,0.93302],[-78.12221,0.94006],[-78.12808,0.9424],[-78.13512,0.94123],[-78.14146,0.93818],[-78.14732,0.93325],[-78.15178,0.92879],[-78.15882,0.92691],[-78.16539,0.92903],[-78.17243,0.93278],[-78.17853,0.937],[-78.18346,0.94146],[-78.18933,0.94522],[-78.19543,0.9485],[-78.19707,0.95484],[-78.19425,0.96258],[-78.19332,0.97033],[-78.1966,0.97666],[-78.19871,0.98441],[-78.20104,0.99391],[-78.2069,0.99917],[-78.21456,1.00187],[-78.22177,1.00338],[-78.23033,1.00593],[-78.23393,1.00818],[-78.23799,1.01224],[-78.24399,1.01779],[-78.24835,1.0217],[-78.25391,1.02455],[-78.25961,1.02981],[-78.26607,1.03657],[-78.27343,1.04032],[-78.27809,1.04378],[-78.28094,1.04978],[-78.28094,1.05429],[-78.27673,1.06],[-78.27283,1.0645],[-78.26832,1.06796],[-78.26232,1.07141],[-78.25841,1.07531],[-78.25766,1.08162],[-78.25946,1.08553],[-78.26126,1.08988],[-78.26217,1.09514],[-78.26352,1.09934],[-78.26727,1.10415],[-78.27148,1.10926],[-78.27463,1.11196],[-78.27809,1.11631],[-78.28019,1.12412],[-78.28364,1.13389],[-78.28635,1.13869],[-78.28905,1.14485],[-78.2913,1.1489],[-78.29325,1.15356],[-78.29175,1.16002],[-78.2907,1.16633],[-78.2922,1.17248],[-78.29476,1.17774],[-78.29806,1.18209],[-78.30211,1.1884],[-78.30617,1.19141],[-78.31128,1.19381],[-78.31509,1.19512],[-78.3199,1.19445],[-78.32326,1.19339],[-78.32739,1.19099],[-78.33125,1.1893],[-78.34221,1.18705],[-78.35137,1.1851],[-78.36129,1.1824],[-78.36654,1.18014],[-78.37315,1.17624],[-78.37706,1.17293],[-78.38261,1.16798],[-78.38592,1.16362],[-78.39132,1.16002],[-78.39658,1.15912],[-78.39973,1.16092],[-78.40154,1.16467],[-78.40454,1.16708],[-78.4089,1.16708],[-78.41325,1.16663],[-78.41701,1.16467],[-78.41926,1.16257],[-78.42091,1.15882],[-78.42376,1.15431],[-78.42782,1.15266],[-78.42977,1.15311],[-78.43262,1.15777],[-78.43353,1.16197],[-78.43292,1.16708],[-78.42947,1.17248],[-78.42707,1.17924],[-78.42677,1.18285],[-78.42677,1.18735],[-78.42902,1.1902],[-78.43262,1.19261],[-78.43668,1.19411],[-78.44028,1.19411],[-78.44209,1.19381],[-78.44554,1.19141],[-78.44824,1.189],[-78.4536,1.18407],[-78.45802,1.18176],[-78.46215,1.18196],[-78.46455,1.18359],[-78.46638,1.18715],[-78.46717,1.19051],[-78.47678,1.19561],[-78.48504,1.19967],[-78.49285,1.20237],[-78.49646,1.20237],[-78.50111,1.20237],[-78.50666,1.20192],[-78.51492,1.19922],[-78.52364,1.20012],[-78.53295,1.20312],[-78.54046,1.20733],[-78.54721,1.21168],[-78.55292,1.21499],[-78.55863,1.21784],[-78.56659,1.22069],[-78.57094,1.2261],[-78.57605,1.23196],[-78.57995,1.23661],[-78.58176,1.24187],[-78.58386,1.24487],[-78.59287,1.24833],[-78.59873,1.24938],[-78.60699,1.25313],[-78.61299,1.25584],[-78.6175,1.25974],[-78.62201,1.2653],[-78.62816,1.27025],[-78.63518,1.27377],[-78.63665,1.27524],[-78.64068,1.27744],[-78.64435,1.27891],[-78.64765,1.28587],[-78.65315,1.29394],[-78.65608,1.29944],[-78.65755,1.30677],[-78.65755,1.31411],[-78.66085,1.32107],[-78.66525,1.32657],[-78.67002,1.32877],[-78.67515,1.33097],[-78.68028,1.33537],[-78.68395,1.34087],[-78.68688,1.34674],[-78.68908,1.35444],[-78.69018,1.36287],[-78.69202,1.37167],[-78.69275,1.37387],[-78.69898,1.37827],[-78.70448,1.3801],[-78.71438,1.38047],[-78.71732,1.37937],[-78.72282,1.37791],[-78.72942,1.37351],[-78.73602,1.37351],[-78.74482,1.37644]]],[[[-78.84659,1.38922],[-78.8389,1.40238],[-78.83343,1.41246],[-78.82557,1.42117],[-78.82215,1.42972],[-78.82437,1.44048],[-78.83685,1.44304],[-78.8389,1.43843],[-78.84249,1.42954],[-78.84625,1.42356],[-78.84983,1.4181],[-78.85359,1.41331],[-78.85752,1.40699],[-78.86521,1.39964],[-78.87324,1.39349],[-78.87632,1.38888],[-78.86897,1.3846],[-78.85633,1.38272],[-78.84659,1.38922]]],[[[-78.87666,1.39588],[-78.86983,1.40631],[-78.86145,1.4116],[-78.85376,1.4198],[-78.84727,1.42954],[-78.84539,1.43946],[-78.85035,1.44954],[-78.85735,1.45603],[-78.86333,1.45962],[-78.86795,1.45945],[-78.87256,1.45859],[-78.87803,1.4533],[-78.88179,1.44407],[-78.88076,1.43194],[-78.88145,1.42544],[-78.88606,1.41673],[-78.88845,1.40767],[-78.88897,1.3993],[-78.88469,1.39076],[-78.87666,1.39588]]],[[[-91.9987,1.67476],[-91.99913,1.67723],[-91.99986,1.67999],[-92.00203,1.681],[-92.00443,1.68159],[-92.00683,1.68173],[-92.00929,1.67999],[-92.00886,1.67883],[-92.00777,1.67759],[-92.00719,1.676],[-92.00537,1.67491],[-92.00276,1.67476],[-91.99986,1.67411],[-91.9987,1.67476]]]]}}]}