{"type":"FeatureCollection","crs":{"type":"name","properties":{"name":"urn:ogc:def:crs:OGC:1.3:CRS84"}},"features":[{"type":"Feature","properties":{"shapeName":"Guyana","shapeISO":"GUY","shapeID":"53426202B65757774977118","shapeGroup":"GUY","shapeType":"ADM0"},"geometry":{"type":"MultiPolygon","coordinates":[[[[-59.99388,8.49543],[-59.90882,8.41669],[-59.87631,8.34943],[-59.83935,8.31725],[-59.82162,8.28069],[-59.81275,8.24851],[-59.82753,8.22803],[-59.8497,8.20462],[-59.93691,8.20023],[-59.95612,8.17829],[-59.98716,8.1461],[-59.99899,8.12562],[-59.99455,8.09781],[-60.00638,8.07733],[-60.01968,8.0261],[-60.05663,8.00415],[-60.10688,8.00854],[-60.12462,7.9983],[-60.14236,7.97048],[-60.18966,7.95292],[-60.21774,7.93682],[-60.2606,7.87533],[-60.30938,7.84897],[-60.33451,7.81969],[-60.35815,7.80212],[-60.38772,7.81383],[-60.42319,7.81822],[-60.45275,7.81969],[-60.51483,7.81822],[-60.53996,7.80065],[-60.54439,7.7699],[-60.56508,7.74647],[-60.58282,7.72157],[-60.59021,7.67909],[-60.59317,7.63368],[-60.62125,7.61463],[-60.63603,7.58533],[-60.64342,7.56335],[-60.69811,7.55896],[-60.71141,7.53405],[-60.73358,7.50767],[-60.7188,7.47983],[-60.68776,7.43586],[-60.65968,7.43147],[-60.64194,7.40508],[-60.61238,7.37284],[-60.5976,7.32739],[-60.61238,7.28634],[-60.63899,7.25115],[-60.63751,7.21642],[-60.56361,7.13164],[-60.51973,7.18893],[-60.47815,7.1958],[-60.44351,7.17747],[-60.37885,7.17747],[-60.38347,7.13393],[-60.36268,7.13164],[-60.32804,7.1431],[-60.30263,7.12247],[-60.28416,7.0881],[-60.27954,7.05372],[-60.33959,7.00558],[-60.37192,6.95515],[-60.38578,6.92535],[-60.41811,6.92764],[-60.43889,6.92535],[-60.50587,6.87032],[-60.54744,6.86574],[-60.57746,6.83593],[-60.66522,6.82676],[-60.72527,6.75108],[-60.76915,6.75567],[-60.81303,6.78777],[-60.83612,6.78548],[-60.86153,6.77401],[-60.91926,6.80382],[-60.94467,6.78777],[-60.91234,6.74649],[-60.96314,6.70979],[-61.00702,6.71668],[-61.00933,6.72814],[-61.05552,6.7075],[-61.07862,6.72585],[-61.09247,6.70291],[-61.14559,6.71438],[-61.19409,6.66621],[-61.20795,6.62722],[-61.23104,6.58133],[-61.24028,6.56068],[-61.22411,6.53774],[-61.1964,6.51709],[-61.19178,6.48496],[-61.18947,6.45284],[-61.16407,6.45284],[-61.16407,6.423],[-61.17792,6.39317],[-61.18254,6.35645],[-61.19871,6.33349],[-61.18254,6.28988],[-61.15483,6.25774],[-61.15714,6.23249],[-61.15714,6.20494],[-61.1479,6.18427],[-61.18947,6.17738],[-61.20564,6.16131],[-61.2218,6.12457],[-61.27492,6.1085],[-61.33035,6.0419],[-61.33728,5.99367],[-61.35344,5.95692],[-61.39502,5.95692],[-61.39963,5.93395],[-61.24721,5.74785],[-60.87538,5.33179],[-60.74605,5.1984],[-60.70448,5.2214],[-60.66753,5.2237],[-60.63982,5.2122],[-60.59594,5.2007],[-60.58901,5.1846],[-60.55899,5.1915],[-60.53358,5.2007],[-60.51742,5.1961],[-60.48508,5.1915],[-60.46199,5.1708],[-60.42042,5.2145],[-60.37654,5.1984],[-60.32573,5.2099],[-60.27723,5.2375],[-60.23566,5.2651],[-60.19409,5.2191],[-60.15483,5.2375],[-60.12942,5.1984],[-60.1225,5.1731],[-60.1225,5.1317],[-60.08093,5.1317],[-60.0509,5.0949],[-59.99778,5.07189],[-59.99778,5.01898],[-60.00933,4.93155],[-60.0255,4.85562],[-60.05552,4.79348],[-60.03935,4.73825],[-60.0509,4.68531],[-60.10171,4.65308],[-60.10171,4.61625],[-60.14328,4.60704],[-60.15945,4.57942],[-60.18254,4.56791],[-60.18485,4.52647],[-60.13866,4.50114],[-60.11095,4.52647],[-60.07631,4.50575],[-60.05552,4.48963],[-60.00471,4.48963],[-59.99317,4.48042],[-59.98393,4.50575],[-59.95852,4.49193],[-59.91926,4.46431],[-59.88693,4.47121],[-59.86845,4.4597],[-59.81765,4.44358],[-59.78069,4.43668],[-59.7345,4.39983],[-59.69293,4.36529],[-59.72758,4.31233],[-59.75067,4.27318],[-59.73219,4.26396],[-59.75529,4.24093],[-59.74836,4.17875],[-59.70217,4.1465],[-59.65598,4.14189],[-59.64213,4.11425],[-59.66753,4.07509],[-59.59132,3.96911],[-59.55206,3.96911],[-59.52896,3.93916],[-59.58439,3.9046],[-59.60979,3.87926],[-59.59594,3.81935],[-59.62596,3.79861],[-59.68139,3.78478],[-59.69293,3.75482],[-59.68139,3.70642],[-59.72989,3.68107],[-59.77146,3.65111],[-59.80148,3.62345],[-59.84767,3.61193],[-59.87538,3.57736],[-59.83381,3.51512],[-59.81995,3.48746],[-59.85922,3.43444],[-59.82919,3.40216],[-59.79686,3.38141],[-59.84767,3.33761],[-59.87538,3.29611],[-59.90079,3.22924],[-59.93543,3.2131],[-59.94005,3.17621],[-59.92157,3.15545],[-59.94467,3.11625],[-59.97007,3.07474],[-59.97238,3.03784],[-59.99086,3.01709],[-59.97238,2.99172],[-59.98624,2.9502],[-60.00702,2.92252],[-60.00702,2.8441],[-60.01857,2.81873],[-60.00471,2.8095],[-60.02781,2.78874],[-60.00009,2.75183],[-60.01626,2.73107],[-60.00009,2.69416],[-60.0024,2.63649],[-59.98624,2.60188],[-59.95621,2.5765],[-59.94467,2.54189],[-59.93543,2.50959],[-59.91926,2.48652],[-59.91926,2.45883],[-59.91926,2.40807],[-59.9285,2.3873],[-59.9031,2.35038],[-59.87538,2.33654],[-59.83612,2.30654],[-59.82226,2.295],[-59.74836,2.29039],[-59.73681,2.20962],[-59.74836,2.17962],[-59.75991,2.15885],[-59.73681,2.115],[-59.75529,2.08499],[-59.77146,2.07345],[-59.74836,2.04576],[-59.74836,1.99729],[-59.7576,1.94651],[-59.77607,1.9165],[-59.77607,1.8865],[-59.71372,1.8588],[-59.67908,1.86803],[-59.67215,1.84264],[-59.69062,1.80802],[-59.72065,1.78263],[-59.69524,1.75262],[-59.67677,1.74569],[-59.65136,1.72492],[-59.6121,1.71568],[-59.58439,1.748],[-59.54744,1.69721],[-59.49894,1.62565],[-59.45506,1.56332],[-59.42734,1.54716],[-59.41118,1.52407],[-59.36499,1.51715],[-59.34882,1.46405],[-59.30725,1.45712],[-59.29801,1.41787],[-59.26799,1.3994],[-59.20794,1.38555],[-59.18023,1.36015],[-59.13866,1.35553],[-59.0994,1.34168],[-59.01395,1.33014],[-58.99778,1.31628],[-58.94466,1.31167],[-58.93774,1.28858],[-58.91695,1.27241],[-58.9285,1.25625],[-58.90309,1.23085],[-58.88,1.20084],[-58.84536,1.1916],[-58.79455,1.18929],[-58.74143,1.22162],[-58.73681,1.26318],[-58.71141,1.2955],[-58.66753,1.29319],[-58.62596,1.28396],[-58.60517,1.26318],[-58.57746,1.28627],[-58.53127,1.25856],[-58.4897,1.30012],[-58.48508,1.37862],[-58.51279,1.39709],[-58.52665,1.46174],[-58.49663,1.46866],[-58.43196,1.45712],[-58.40656,1.47559],[-58.40887,1.51022],[-58.38808,1.54254],[-58.36961,1.57486],[-58.35575,1.60256],[-58.32804,1.57717],[-58.30032,1.56101],[-58.2703,1.56101],[-58.25413,1.54254],[-58.22411,1.55639],[-58.20101,1.55408],[-58.16637,1.53331],[-58.1479,1.49868],[-58.08323,1.49637],[-58.06245,1.51022],[-58.03704,1.49406],[-58.0024,1.50791],[-57.98623,1.57717],[-57.98854,1.63719],[-57.95852,1.65104],[-57.92157,1.66259],[-57.81533,1.67875],[-57.77376,1.72261],[-57.71372,1.71337],[-57.65136,1.6926],[-57.53589,1.69721],[-57.4897,1.79186],[-57.44582,1.82187],[-57.43889,1.89804],[-57.34882,1.96728],[-57.32111,1.98344],[-57.29339,1.99498],[-57.23566,1.95344],[-57.10171,2.03422],[-57.07168,2.01114],[-57.07861,1.9719],[-57.04166,1.96036],[-57.02318,1.92343],[-56.99547,1.91189],[-56.93311,1.93959],[-56.9054,1.89804],[-56.82457,1.89342],[-56.79455,1.85649],[-56.72295,1.92112],[-56.66983,1.9165],[-56.64212,1.95113],[-56.59362,1.92574],[-56.55667,1.9142],[-56.48739,1.95344],[-56.49893,1.98806],[-56.54281,2.00652],[-56.56129,2.02729],[-56.6121,2.02499],[-56.64212,2.00883],[-56.66983,2.00883],[-56.68831,2.05037],[-56.72988,2.09884],[-56.783,2.14961],[-56.80609,2.20269],[-56.80609,2.26039],[-56.86152,2.28346],[-56.8569,2.34346],[-56.9308,2.38961],[-56.92388,2.43345],[-56.96545,2.48652],[-56.94928,2.50036],[-56.99316,2.50498],[-56.98854,2.55574],[-57.01856,2.57189],[-57.01164,2.6411],[-57.0509,2.64341],[-57.0509,2.68032],[-57.07168,2.69647],[-57.08554,2.7057],[-57.0994,2.75414],[-57.12711,2.77721],[-57.12942,2.81411],[-57.17792,2.81642],[-57.18716,2.83487],[-57.21256,2.88793],[-57.18023,2.90177],[-57.17561,2.92944],[-57.21256,2.9502],[-57.21949,2.96635],[-57.20563,2.98941],[-57.1987,3.02631],[-57.21718,3.07013],[-57.24951,3.07705],[-57.25413,3.11164],[-57.23104,3.12086],[-57.2472,3.13239],[-57.28184,3.13239],[-57.29108,3.13239],[-57.29108,3.16468],[-57.30032,3.19235],[-57.27954,3.23616],[-57.30032,3.27305],[-57.28415,3.30994],[-57.29801,3.35375],[-57.3188,3.38372],[-57.37884,3.36527],[-57.42734,3.37911],[-57.45967,3.35144],[-57.48046,3.333],[-57.51741,3.35605],[-57.5382,3.35605],[-57.57053,3.33761],[-57.60286,3.36758],[-57.65367,3.36989],[-57.69062,3.38372],[-57.686,3.45057],[-57.64905,3.48976],[-57.6375,3.51281],[-57.67676,3.55661],[-57.70448,3.57966],[-57.7345,3.60271],[-57.81764,3.63498],[-57.84305,3.69029],[-57.84997,3.79169],[-57.88462,3.82626],[-57.91233,3.86313],[-57.95159,3.91612],[-57.99316,3.91612],[-58.03935,3.96451],[-58.04859,4.02901],[-58.03473,4.04744],[-58.04397,4.12116],[-58.07168,4.13498],[-58.03935,4.20178],[-57.98854,4.26627],[-57.99085,4.29851],[-57.94697,4.31002],[-57.94928,4.33996],[-57.96545,4.3699],[-57.94466,4.41825],[-57.88231,4.54258],[-57.84767,4.61165],[-57.86383,4.69451],[-57.87769,4.72674],[-57.88231,4.75896],[-57.91233,4.76356],[-57.93081,4.80499],[-57.86614,4.87403],[-57.85459,4.92235],[-57.81071,4.91314],[-57.783,4.89474],[-57.73912,4.92695],[-57.7345,4.96606],[-57.68369,4.99367],[-57.60517,4.97757],[-57.55436,5.00288],[-57.50586,4.97297],[-57.41348,4.98217],[-57.39732,5.00978],[-57.35575,5.00748],[-57.33727,5.01208],[-57.30032,4.99828],[-57.2957,5.03509],[-57.33496,5.06499],[-57.28877,5.1662],[-57.2218,5.1225],[-57.17561,5.1547],[-57.21256,5.2053],[-57.22642,5.2375],[-57.24258,5.2628],[-57.27492,5.2628],[-57.27723,5.2191],[-57.29339,5.2306],[-57.29108,5.2904],[-57.32342,5.31339],[-57.34651,5.32259],[-57.26568,5.38008],[-57.27492,5.46514],[-57.22873,5.49963],[-57.1733,5.57089],[-57.15944,5.63065],[-57.16406,5.70419],[-57.17099,5.77083],[-57.14328,5.85584],[-57.16868,6.01204],[-57.18716,6.09242],[-57.26799,6.18886],[-57.35113,6.25085],[-57.37653,6.25085],[-57.4412,6.30824],[-57.50124,6.3289],[-57.5382,6.31283],[-57.52434,6.27151],[-57.56129,6.30136],[-57.59593,6.31283],[-57.59824,6.34267],[-57.61441,6.3771],[-57.64674,6.43218],[-57.78069,6.55839],[-57.84536,6.61575],[-57.87538,6.65245],[-57.95621,6.73961],[-58.08785,6.81758],[-58.12711,6.83822],[-58.16175,6.81988],[-58.17792,6.80153],[-58.26799,6.85886],[-58.37423,6.85886],[-58.45044,6.84281],[-58.4897,6.78777],[-58.51972,6.74878],[-58.56822,6.73732],[-58.52434,6.813],[-58.37653,6.89096],[-58.37192,6.95057],[-58.42503,6.92993],[-58.48508,6.87262],[-58.51279,6.85657],[-58.49663,6.90472],[-58.42734,6.94598],[-58.4158,6.98266],[-58.45968,6.99871],[-58.48739,6.93452],[-58.52434,6.89554],[-58.54513,6.85198],[-58.56822,6.89096],[-58.52896,6.95057],[-58.48277,7.03767],[-58.50587,7.17976],[-58.46891,7.23475],[-58.49894,7.26224],[-58.52665,7.35845],[-58.57053,7.41113],[-58.63289,7.48212],[-58.68831,7.56912],[-58.74605,7.59202],[-58.72526,7.53478],[-58.76684,7.57599],[-58.81302,7.63551],[-58.84767,7.70875],[-58.88693,7.72477],[-58.977,7.83689],[-59.08785,7.9467],[-59.13173,8.01302],[-59.19178,8.00616],[-59.25182,8.06105],[-59.35344,8.13879],[-59.50356,8.22108],[-59.67677,8.32393],[-59.75991,8.37191],[-59.81303,8.3742],[-59.78762,8.32621],[-59.74836,8.29879],[-59.75991,8.26222],[-59.7576,8.28279],[-59.81995,8.33078],[-59.91695,8.43588],[-59.99388,8.49543]]],[[[-59.99388,8.49543],[-60.02411,8.52341],[-60.02319,8.51811],[-59.99388,8.49543]]]]}}]}