{"type":"FeatureCollection","crs":{"type":"name","properties":{"name":"urn:ogc:def:crs:OGC:1.3:CRS84"}},"features":[{"type":"Feature","properties":{"shapeName":"Peru","shapeISO":"PER","shapeID":"96739428B52844935550803","shapeGroup":"PER","shapeType":"ADM0"},"geometry":{"type":"MultiPolygon","coordinates":[[[[-76.43302,-13.87324],[-76.43336,-13.8552],[-76.4388,-13.84124],[-76.44663,-13.84158],[-76.45821,-13.84567],[-76.46399,-13.85009],[-76.46774,-13.85724],[-76.46025,-13.87017],[-76.44459,-13.87971],[-76.43302,-13.87324]]],[[[-77.17086,-12.14533],[-77.17165,-12.1374],[-77.1772,-12.13106],[-77.19385,-12.13819],[-77.18433,-12.14691],[-77.17086,-12.14533]]],[[[-77.19781,-12.12234],[-77.20653,-12.11045],[-77.21762,-12.09936],[-77.22713,-12.09223],[-77.23744,-12.08509],[-77.25963,-12.07875],[-77.26676,-12.08509],[-77.25329,-12.09777],[-77.23823,-12.11045],[-77.22634,-12.12155],[-77.21683,-12.12868],[-77.20256,-12.13185],[-77.19781,-12.12234]]],[[[-75.01719,-0.12117],[-75.04114,-0.09581],[-75.06509,-0.07045],[-75.10173,-0.04932],[-75.13836,-0.031],[-75.175,-0.01409],[-75.1919,-0.01409],[-75.22008,-0.04086],[-75.25108,-0.08031],[-75.29617,-0.10849],[-75.32294,-0.11977],[-75.37085,-0.13808],[-75.43144,-0.13808],[-75.45821,-0.12963],[-75.49343,-0.11131],[-75.53711,-0.09299],[-75.58361,-0.08877],[-75.61179,-0.09299],[-75.62165,-0.13808],[-75.61038,-0.17613],[-75.58502,-0.20149],[-75.52443,-0.23249],[-75.50048,-0.24799],[-75.47089,-0.28603],[-75.44975,-0.3283],[-75.42016,-0.3593],[-75.39903,-0.38889],[-75.36944,-0.42693],[-75.31449,-0.47202],[-75.29053,-0.48893],[-75.25954,-0.52556],[-75.23277,-0.57488],[-75.23277,-0.61433],[-75.24686,-0.65096],[-75.26658,-0.68478],[-75.2694,-0.73832],[-75.26235,-0.79046],[-75.23417,-0.83132],[-75.23251,-0.8732],[-75.2175,-0.92572],[-75.21981,-0.94361],[-75.24924,-0.95342],[-75.27464,-0.96323],[-75.30696,-0.96208],[-75.31908,-0.954],[-75.34389,-0.94072],[-75.37062,-0.91349],[-75.55384,-1.5301],[-76.03731,-2.11493],[-76.64357,-2.57179],[-77.82794,-2.98124],[-77.8604,-2.98846],[-77.88114,-2.99026],[-77.91541,-3.0092],[-77.94427,-3.02633],[-77.97222,-3.05609],[-77.99296,-3.08855],[-78.0101,-3.12823],[-78.02994,-3.1652],[-78.04887,-3.19767],[-78.07773,-3.22562],[-78.09667,-3.24456],[-78.12823,-3.27612],[-78.14356,-3.31219],[-78.15914,-3.33928],[-78.18511,-3.3641],[-78.18973,-3.38141],[-78.18165,-3.4045],[-78.17472,-3.43566],[-78.17876,-3.46567],[-78.18569,-3.47895],[-78.19781,-3.49049],[-78.21628,-3.49915],[-78.22378,-3.49915],[-78.2396,-3.47462],[-78.25369,-3.45067],[-78.28187,-3.40699],[-78.30582,-3.39431],[-78.32836,-3.38585],[-78.34386,-3.39149],[-78.35936,-3.45067],[-78.37063,-3.49012],[-78.3805,-3.54789],[-78.39318,-3.60425],[-78.39881,-3.64934],[-78.40868,-3.6902],[-78.41713,-3.74938],[-78.42559,-3.77756],[-78.44531,-3.80715],[-78.4709,-3.84423],[-78.47721,-3.87219],[-78.52591,-3.92359],[-78.55386,-3.96237],[-78.56739,-3.98671],[-78.58091,-4.01016],[-78.5755,-4.03811],[-78.56649,-4.05976],[-78.56558,-4.09132],[-78.57911,-4.11747],[-78.58362,-4.15895],[-78.59895,-4.20765],[-78.61248,-4.2338],[-78.6233,-4.25815],[-78.63592,-4.29241],[-78.64765,-4.30955],[-78.65576,-4.32758],[-78.65035,-4.35824],[-78.63412,-4.37581],[-78.62373,-4.41274],[-78.63181,-4.45718],[-78.64855,-4.49066],[-78.65894,-4.52817],[-78.67106,-4.57376],[-78.69183,-4.598],[-78.70568,-4.61128],[-78.74089,-4.61936],[-78.78417,-4.63667],[-78.82861,-4.64417],[-78.85686,-4.66124],[-78.87669,-4.6955],[-78.89202,-4.72977],[-78.90104,-4.76945],[-78.90645,-4.82896],[-78.91818,-4.86684],[-78.94072,-4.88848],[-78.95785,-4.89479],[-78.99392,-4.93447],[-79.01196,-4.96603],[-79.02819,-4.99128],[-79.07779,-4.98227],[-79.09673,-4.96874],[-79.1842,-4.95431],[-79.22117,-4.95251],[-79.26175,-4.948],[-79.2879,-4.93808],[-79.31315,-4.91734],[-79.3402,-4.89028],[-79.37537,-4.83979],[-79.39882,-4.80372],[-79.41866,-4.77666],[-79.43759,-4.7451],[-79.46104,-4.70903],[-79.47817,-4.66755],[-79.4926,-4.63508],[-79.49621,-4.61975],[-79.49289,-4.56857],[-79.50905,-4.52702],[-79.55349,-4.50509],[-79.58523,-4.47623],[-79.62332,-4.44102],[-79.64468,-4.4289],[-79.67122,-4.42833],[-79.71566,-4.44737],[-79.75491,-4.46873],[-79.78376,-4.4745],[-79.8207,-4.47623],[-79.84321,-4.47161],[-79.8611,-4.43929],[-79.88188,-4.41852],[-79.90496,-4.39601],[-79.92862,-4.38273],[-79.95575,-4.38447],[-79.96729,-4.38447],[-79.9898,-4.37177],[-80.04174,-4.33656],[-80.08676,-4.30655],[-80.12023,-4.28808],[-80.16236,-4.28693],[-80.18833,-4.29905],[-80.21777,-4.33022],[-80.26221,-4.36196],[-80.2951,-4.4012],[-80.33319,-4.44449],[-80.35686,-4.45892],[-80.37763,-4.46815],[-80.3961,-4.47219],[-80.41601,-4.46375],[-80.43856,-4.44571],[-80.46471,-4.41866],[-80.47823,-4.39612],[-80.47102,-4.36365],[-80.43765,-4.32307],[-80.4115,-4.29241],[-80.39257,-4.26807],[-80.37002,-4.24282],[-80.3583,-4.22478],[-80.37182,-4.20314],[-80.4115,-4.19322],[-80.44397,-4.17158],[-80.46561,-4.14001],[-80.47914,-4.12018],[-80.49807,-4.05886],[-80.46741,-4.00926],[-80.45659,-3.9822],[-80.39617,-3.96237],[-80.37092,-3.96687],[-80.32042,-3.98762],[-80.29157,-3.99393],[-80.2573,-3.96958],[-80.23205,-3.94163],[-80.18786,-3.91547],[-80.16171,-3.89022],[-80.15991,-3.85325],[-80.16983,-3.80546],[-80.18336,-3.76939],[-80.20049,-3.7243],[-80.20229,-3.69093],[-80.19468,-3.63304],[-80.20565,-3.59091],[-80.23046,-3.55109],[-80.24258,-3.50434],[-80.24893,-3.47087],[-80.25009,-3.45528],[-80.24547,-3.43912],[-80.24107,-3.42131],[-80.2573,-3.39786],[-80.28706,-3.38884],[-80.31501,-3.38884],[-80.33435,-3.40046],[-80.35108,-3.42181],[-80.36436,-3.45182],[-80.40303,-3.47029],[-80.43823,-3.4876],[-80.49075,-3.4876],[-80.52884,-3.5332],[-80.56462,-3.58572],[-80.58944,-3.61053],[-80.63099,-3.64343],[-80.66966,-3.66825],[-80.71814,-3.68671],[-80.75688,-3.70446],[-80.79566,-3.74053],[-80.82,-3.7766],[-80.83173,-3.81899],[-80.84345,-3.85776],[-80.8705,-3.88391],[-80.90567,-3.89744],[-80.93633,-3.91457],[-80.98413,-3.96237],[-81.00667,-3.99844],[-81.03012,-4.04262],[-81.05807,-4.0832],[-81.10496,-4.11386],[-81.13472,-4.14813],[-81.18702,-4.19412],[-81.21678,-4.22287],[-81.23871,-4.23787],[-81.25718,-4.26788],[-81.26411,-4.3054],[-81.2618,-4.33829],[-81.25833,-4.37061],[-81.26872,-4.4064],[-81.29354,-4.43641],[-81.31201,-4.46122],[-81.31489,-4.48431],[-81.30162,-4.50335],[-81.29253,-4.54671],[-81.29163,-4.60442],[-81.31327,-4.62336],[-81.3277,-4.65041],[-81.3268,-4.68649],[-81.30245,-4.71715],[-81.25646,-4.78297],[-81.20235,-4.83618],[-81.16264,-4.88433],[-81.10078,-4.95179],[-81.08346,-5.00315],[-81.08173,-5.03835],[-81.09616,-5.06086],[-81.12386,-5.06259],[-81.15849,-5.0701],[-81.17176,-5.08683],[-81.17927,-5.12088],[-81.1885,-5.15494],[-81.1937,-5.18956],[-81.19852,-5.22743],[-81.13934,-5.27252],[-81.10271,-5.29647],[-81.05762,-5.33874],[-81.02521,-5.36552],[-80.97871,-5.41765],[-80.93644,-5.46696],[-80.91108,-5.52614],[-80.89136,-5.57828],[-80.86599,-5.6755],[-80.87727,-5.75863],[-80.89936,-5.80648],[-80.95346,-5.84255],[-80.98773,-5.83894],[-81.02831,-5.82001],[-81.0734,-5.79746],[-81.09504,-5.80558],[-81.11578,-5.82091],[-81.14464,-5.85157],[-81.15276,-5.90026],[-81.15997,-5.95166],[-81.14915,-6.00938],[-81.13562,-6.03282],[-81.10767,-6.06258],[-81.07701,-6.08964],[-81.04274,-6.11398],[-80.9733,-6.15456],[-80.91289,-6.19063],[-80.85968,-6.23933],[-80.76319,-6.29614],[-80.62161,-6.36467],[-80.54046,-6.40616],[-80.40339,-6.481],[-80.33846,-6.50986],[-80.27894,-6.54142],[-80.23115,-6.56847],[-80.17344,-6.61086],[-80.13015,-6.64152],[-80.10129,-6.66496],[-80.05801,-6.69743],[-80.03276,-6.71817],[-79.99759,-6.75694],[-79.96873,-6.79662],[-79.94873,-6.84498],[-79.91914,-6.87175],[-79.89096,-6.9112],[-79.85996,-6.94643],[-79.83319,-6.97038],[-79.81205,-6.99856],[-79.76415,-7.03519],[-79.74019,-7.05915],[-79.7092,-7.10142],[-79.69933,-7.13101],[-79.69229,-7.16482],[-79.67961,-7.18878],[-79.63874,-7.23527],[-79.60775,-7.29586],[-79.59225,-7.33954],[-79.57957,-7.40436],[-79.57534,-7.46635],[-79.5542,-7.50017],[-79.52743,-7.54244],[-79.5063,-7.58048],[-79.46014,-7.63707],[-79.44391,-7.68847],[-79.46735,-7.69208],[-79.45202,-7.73626],[-79.42226,-7.76692],[-79.40062,-7.80299],[-79.38078,-7.84538],[-79.34381,-7.88776],[-79.30774,-7.92563],[-79.27077,-7.94818],[-79.22748,-7.99146],[-79.19863,-8.02212],[-79.15624,-8.06],[-79.11476,-8.09697],[-79.0823,-8.12492],[-79.00983,-8.19411],[-78.99367,-8.21604],[-78.9729,-8.25182],[-78.94808,-8.30838],[-78.92903,-8.33435],[-78.91749,-8.35686],[-78.90735,-8.39816],[-78.91818,-8.42702],[-78.91457,-8.44325],[-78.90826,-8.45768],[-78.87309,-8.48834],[-78.8289,-8.51088],[-78.79644,-8.54064],[-78.77299,-8.57942],[-78.75676,-8.63803],[-78.75045,-8.68402],[-78.75586,-8.73001],[-78.76127,-8.76157],[-78.75676,-8.79584],[-78.73963,-8.81387],[-78.70897,-8.84634],[-78.69183,-8.86708],[-78.67019,-8.89954],[-78.65215,-8.95185],[-78.65847,-8.98792],[-78.66027,-9.01226],[-78.65937,-9.033],[-78.64765,-9.05104],[-78.63592,-9.06186],[-78.61518,-9.0799],[-78.59174,-9.0817],[-78.56468,-9.11507],[-78.55657,-9.1331],[-78.56919,-9.14753],[-78.58452,-9.15023],[-78.60526,-9.15925],[-78.60977,-9.17188],[-78.61067,-9.18721],[-78.60346,-9.20163],[-78.58272,-9.22238],[-78.56739,-9.21787],[-78.56649,-9.19713],[-78.55747,-9.17729],[-78.53042,-9.17368],[-78.49795,-9.1845],[-78.49164,-9.20705],[-78.49435,-9.23861],[-78.51148,-9.25484],[-78.51058,-9.28099],[-78.47992,-9.31526],[-78.45016,-9.3378],[-78.42311,-9.3874],[-78.40507,-9.43159],[-78.40056,-9.47938],[-78.40236,-9.51094],[-78.38974,-9.54701],[-78.38253,-9.58489],[-78.35936,-9.62637],[-78.34809,-9.64891],[-78.31427,-9.70104],[-78.29314,-9.72923],[-78.2565,-9.77009],[-78.23678,-9.79686],[-78.23537,-9.82222],[-78.25228,-9.8659],[-78.25087,-9.90676],[-78.23396,-9.95326],[-78.2086,-9.99553],[-78.19169,-10.04203],[-78.18183,-10.06034],[-78.18042,-10.10402],[-78.16915,-10.13784],[-78.15506,-10.1632],[-78.12265,-10.19138],[-78.10433,-10.21674],[-78.08742,-10.25479],[-78.07051,-10.29987],[-78.04515,-10.35764],[-78.03388,-10.37737],[-78.0057,-10.41964],[-77.9902,-10.44923],[-77.96766,-10.48305],[-77.92262,-10.54346],[-77.9109,-10.57052],[-77.89828,-10.59667],[-77.87663,-10.63544],[-77.8604,-10.64987],[-77.82884,-10.68685],[-77.8081,-10.71931],[-77.79097,-10.73825],[-77.75039,-10.81039],[-77.73145,-10.84375],[-77.70891,-10.87441],[-77.68817,-10.91139],[-77.67103,-10.94746],[-77.65751,-10.97721],[-77.64748,-11.03167],[-77.63517,-11.08502],[-77.6126,-11.12709],[-77.59515,-11.16608],[-77.60028,-11.20917],[-77.61362,-11.22969],[-77.63517,-11.242],[-77.64133,-11.2615],[-77.63927,-11.29228],[-77.63107,-11.31382],[-77.59926,-11.33742],[-77.53359,-11.37025],[-77.47511,-11.39898],[-77.42997,-11.42155],[-77.40124,-11.44105],[-77.37456,-11.46157],[-77.3366,-11.49645],[-77.29556,-11.54262],[-77.27882,-11.58588],[-77.26503,-11.60689],[-77.24401,-11.63972],[-77.22103,-11.67912],[-77.19279,-11.70342],[-77.17506,-11.73166],[-77.17769,-11.76514],[-77.19476,-11.77302],[-77.19739,-11.79272],[-77.19936,-11.8249],[-77.17572,-11.86233],[-77.15208,-11.91683],[-77.13961,-11.95098],[-77.12647,-11.98249],[-77.12976,-12.00876],[-77.14289,-12.0278],[-77.1534,-12.04291],[-77.16587,-12.06261],[-77.15668,-12.07442],[-77.13518,-12.06845],[-77.10472,-12.08769],[-77.03977,-12.13828],[-77.04874,-12.18122],[-77.02225,-12.22374],[-76.98769,-12.23037],[-76.95082,-12.25762],[-76.92196,-12.27686],[-76.89311,-12.30412],[-76.86906,-12.32015],[-76.83379,-12.3458],[-76.80493,-12.38107],[-76.78409,-12.40672],[-76.77608,-12.4484],[-76.80333,-12.47084],[-76.80493,-12.5013],[-76.74401,-12.56382],[-76.70714,-12.59428],[-76.68149,-12.62955],[-76.64609,-12.70817],[-76.62763,-12.74716],[-76.61018,-12.77691],[-76.55991,-12.81488],[-76.53221,-12.85284],[-76.51477,-12.88772],[-76.50553,-12.92056],[-76.50758,-12.95134],[-76.50964,-12.97391],[-76.49732,-13.00469],[-76.47578,-13.05086],[-76.46346,-13.07446],[-76.41935,-13.12165],[-76.37215,-13.18219],[-76.33521,-13.22733],[-76.29212,-13.27658],[-76.26544,-13.30326],[-76.23364,-13.34532],[-76.22235,-13.35969],[-76.20388,-13.3956],[-76.19055,-13.43561],[-76.18542,-13.46742],[-76.17413,-13.51872],[-76.17105,-13.56899],[-76.18336,-13.61824],[-76.20081,-13.6521],[-76.20979,-13.70028],[-76.23146,-13.76135],[-76.23803,-13.80075],[-76.24788,-13.84475],[-76.27283,-13.85328],[-76.2945,-13.84934],[-76.29975,-13.82308],[-76.30304,-13.80206],[-76.31617,-13.7955],[-76.33062,-13.80666],[-76.35754,-13.82176],[-76.38184,-13.84934],[-76.393,-13.88808],[-76.38578,-13.9091],[-76.36279,-13.92157],[-76.32274,-13.91829],[-76.30698,-13.90187],[-76.28071,-13.91895],[-76.26544,-13.99684],[-76.26339,-14.0307],[-76.26134,-14.06148],[-76.2757,-14.0861],[-76.28186,-14.1056],[-76.28391,-14.13125],[-76.28596,-14.16203],[-76.28596,-14.17845],[-76.27057,-14.19897],[-76.26339,-14.19076],[-76.26544,-14.17639],[-76.26647,-14.15998],[-76.24287,-14.16818],[-76.21825,-14.19076],[-76.20286,-14.19589],[-76.17516,-14.22256],[-76.15566,-14.25027],[-76.12796,-14.26873],[-76.10949,-14.30875],[-76.12488,-14.31183],[-76.15464,-14.31183],[-76.17721,-14.30977],[-76.16387,-14.33132],[-76.1218,-14.35287],[-76.09102,-14.37441],[-76.05614,-14.41032],[-76.02125,-14.44829],[-75.99458,-14.48933],[-75.95764,-14.55294],[-75.92584,-14.61963],[-75.90737,-14.65964],[-75.88172,-14.68324],[-75.84068,-14.71607],[-75.7863,-14.76635],[-75.735,-14.80226],[-75.67549,-14.83509],[-75.62008,-14.86074],[-75.57494,-14.88126],[-75.53903,-14.90281],[-75.52056,-14.92743],[-75.50004,-14.96847],[-75.47644,-14.99823],[-75.43848,-15.03619],[-75.41899,-15.06902],[-75.40154,-15.10596],[-75.38,-15.15008],[-75.36666,-15.16957],[-75.33793,-15.16957],[-75.30715,-15.17265],[-75.26714,-15.20035],[-75.23841,-15.22703],[-75.22815,-15.25268],[-75.23225,-15.27422],[-75.24764,-15.27525],[-75.26508,-15.27012],[-75.26508,-15.27628],[-75.2538,-15.28961],[-75.22815,-15.30501],[-75.20968,-15.31937],[-75.19121,-15.32245],[-75.16761,-15.33271],[-75.1594,-15.36246],[-75.16761,-15.37272],[-75.18608,-15.37375],[-75.19737,-15.3799],[-75.16761,-15.39529],[-75.14914,-15.40966],[-75.06296,-15.45378],[-74.97677,-15.49482],[-74.91727,-15.51534],[-74.84237,-15.56151],[-74.78594,-15.59126],[-74.70693,-15.62615],[-74.62896,-15.66308],[-74.5715,-15.68566],[-74.51404,-15.70515],[-74.47608,-15.72977],[-74.44633,-15.76055],[-74.41863,-15.80365],[-74.38784,-15.83135],[-74.32321,-15.84161],[-74.27704,-15.86418],[-74.24215,-15.88881],[-74.18162,-15.90625],[-74.13647,-15.93703],[-74.08107,-15.95447],[-74.04618,-15.98012],[-74.01643,-16.02013],[-73.98873,-16.04886],[-73.95282,-16.07964],[-73.90459,-16.12376],[-73.86971,-16.14941],[-73.82046,-16.17301],[-73.76916,-16.19045],[-73.7353,-16.21302],[-73.69426,-16.24381],[-73.59679,-16.24791],[-73.52497,-16.26638],[-73.45828,-16.28485],[-73.41006,-16.30434],[-73.36594,-16.32281],[-73.31874,-16.34948],[-73.30335,-16.36693],[-73.29001,-16.3936],[-73.26539,-16.4172],[-73.22024,-16.42233],[-73.13406,-16.45311],[-73.1002,-16.46645],[-73.04993,-16.49826],[-72.9976,-16.51672],[-72.90834,-16.53314],[-72.86319,-16.56084],[-72.82215,-16.5988],[-72.7924,-16.62138],[-72.75238,-16.64292],[-72.69903,-16.66037],[-72.58514,-16.67883],[-72.49896,-16.70346],[-72.44048,-16.72706],[-72.37686,-16.77323],[-72.31428,-16.8194],[-72.27118,-16.87378],[-72.19526,-16.93944],[-72.14601,-16.97227],[-72.106,-17.01229],[-72.08753,-17.03281],[-72.04033,-17.04307],[-71.98903,-17.05025],[-71.95825,-17.05846],[-71.92131,-17.09539],[-71.90285,-17.11694],[-71.87207,-17.1508],[-71.83308,-17.18055],[-71.78075,-17.20107],[-71.71406,-17.21441],[-71.63506,-17.24211],[-71.58273,-17.25443],[-71.5222,-17.27289],[-71.48321,-17.29136],[-71.44319,-17.32625],[-71.40215,-17.37755],[-71.36419,-17.44013],[-71.36522,-17.46784],[-71.36316,-17.50067],[-71.3529,-17.57557],[-71.33136,-17.61866],[-71.32725,-17.64226],[-71.33341,-17.67612],[-71.34264,-17.69356],[-71.35701,-17.70382],[-71.37137,-17.711],[-71.36316,-17.72536],[-71.35188,-17.72434],[-71.34059,-17.71921],[-71.3252,-17.71613],[-71.31186,-17.72023],[-71.28006,-17.7346],[-71.24825,-17.75922],[-71.22773,-17.76743],[-71.19695,-17.77769],[-71.16001,-17.80129],[-71.14257,-17.83207],[-71.06562,-17.87721],[-71.03381,-17.88747],[-70.99175,-17.90697],[-70.94968,-17.92133],[-70.92403,-17.94391],[-70.90967,-17.95211],[-70.87068,-18.00034],[-70.844,-18.03727],[-70.80296,-18.05984],[-70.77218,-18.08344],[-70.71678,-18.12859],[-70.69421,-18.15013],[-70.64085,-18.19323],[-70.53825,-18.26094],[-70.4808,-18.29172],[-70.43668,-18.32045],[-70.38845,-18.35534],[-70.35562,-18.35944],[-70.32074,-18.34815],[-70.28893,-18.33584],[-70.22224,-18.33276],[-70.09809,-18.32045],[-70.04987,-18.29788],[-69.98113,-18.29275],[-69.93701,-18.27531],[-69.87955,-18.22195],[-69.84569,-18.20143],[-69.82107,-18.17271],[-69.8026,-18.14706],[-69.78413,-18.11935],[-69.76669,-18.07729],[-69.74822,-18.03932],[-69.74925,-17.99008],[-69.74925,-17.94904],[-69.77387,-17.88953],[-69.78003,-17.86285],[-69.78619,-17.81463],[-69.79439,-17.7859],[-69.80876,-17.77154],[-69.81799,-17.7346],[-69.81491,-17.70895],[-69.78516,-17.67919],[-69.75028,-17.66688],[-69.71949,-17.66893],[-69.69077,-17.66996],[-69.61968,-17.65724],[-69.55074,-17.61456],[-69.51265,-17.58238],[-69.49033,-17.56334],[-69.47325,-17.53379],[-69.46734,-17.50884],[-69.46402,-17.45142],[-69.47325,-17.38576],[-69.49788,-17.35292],[-69.52558,-17.33445],[-69.56046,-17.31496],[-69.57893,-17.30367],[-69.60561,-17.28828],[-69.59843,-17.25956],[-69.58509,-17.23904],[-69.5502,-17.19902],[-69.52866,-17.18158],[-69.49993,-17.16106],[-69.46812,-17.1508],[-69.42606,-17.12515],[-69.38604,-17.10258],[-69.37373,-17.08411],[-69.35937,-17.03076],[-69.3409,-17.01024],[-69.32551,-16.99074],[-69.29902,-16.96605],[-69.25734,-16.90994],[-69.2257,-16.87123],[-69.19286,-16.83315],[-69.1771,-16.80885],[-69.15806,-16.78127],[-69.14296,-16.74909],[-69.11144,-16.73399],[-69.06219,-16.71692],[-69.02936,-16.69919],[-69.01623,-16.67818],[-69.01565,-16.64703],[-69.02796,-16.58752],[-69.03207,-16.54545],[-69.08337,-16.50133],[-69.07106,-16.47671],[-69.02078,-16.42336],[-69.02283,-16.38437],[-69.05361,-16.35564],[-69.05977,-16.32486],[-69.08542,-16.30229],[-69.12441,-16.29613],[-69.09568,-16.27151],[-69.0649,-16.27459],[-69.02694,-16.27972],[-68.99821,-16.28485],[-68.95204,-16.28792],[-68.93562,-16.26227],[-68.93357,-16.22944],[-68.94588,-16.2161],[-68.96845,-16.19866],[-69.00847,-16.20584],[-69.04643,-16.21097],[-69.06798,-16.23047],[-69.10491,-16.24175],[-69.13262,-16.2397],[-69.15108,-16.25817],[-69.1675,-16.27151],[-69.18905,-16.28074],[-69.2188,-16.28382],[-69.2383,-16.28177],[-69.28754,-16.27972],[-69.3173,-16.27869],[-69.34705,-16.2633],[-69.36155,-16.23502],[-69.40002,-16.21739],[-69.44972,-16.21418],[-69.48819,-16.20616],[-69.48499,-16.18051],[-69.46896,-16.15647],[-69.44812,-16.13402],[-69.41285,-16.10356],[-69.42246,-16.05707],[-69.4417,-16.02821],[-69.46896,-16.00256],[-69.51865,-15.98172],[-69.56354,-15.97371],[-69.60362,-15.9721],[-69.6469,-15.94004],[-69.66306,-15.90625],[-69.69897,-15.90009],[-69.73283,-15.88778],[-69.74309,-15.86418],[-69.7472,-15.84982],[-69.75541,-15.82827],[-69.76567,-15.80775],[-69.78721,-15.78723],[-69.80055,-15.78415],[-69.82723,-15.79236],[-69.84569,-15.80878],[-69.8539,-15.83032],[-69.85698,-15.85802],[-69.87032,-15.87239],[-69.90725,-15.87136],[-69.94214,-15.85905],[-69.96574,-15.8334],[-69.9801,-15.80365],[-69.99036,-15.75132],[-69.96779,-15.74209],[-69.9524,-15.71233],[-69.91957,-15.7031],[-69.9011,-15.68258],[-69.91957,-15.61281],[-69.90212,-15.60255],[-69.88571,-15.62307],[-69.86416,-15.63641],[-69.84672,-15.65282],[-69.83749,-15.66719],[-69.81081,-15.70412],[-69.77695,-15.72464],[-69.7513,-15.71951],[-69.7513,-15.70412],[-69.76054,-15.6836],[-69.78003,-15.65385],[-69.79747,-15.62717],[-69.81286,-15.6087],[-69.81594,-15.58203],[-69.83236,-15.55946],[-69.84569,-15.53996],[-69.85493,-15.52457],[-69.87442,-15.5061],[-69.89597,-15.48866],[-69.91444,-15.47224],[-69.9247,-15.45993],[-69.92675,-15.44762],[-69.92059,-15.42915],[-69.91444,-15.41479],[-69.89802,-15.40248],[-69.87955,-15.39119],[-69.86108,-15.37683],[-69.8539,-15.33066],[-69.81389,-15.3204],[-69.76361,-15.32655],[-69.74309,-15.30706],[-69.73181,-15.29064],[-69.71231,-15.27217],[-69.68769,-15.26191],[-69.65178,-15.27422],[-69.63126,-15.2968],[-69.61689,-15.32553],[-69.60253,-15.35631],[-69.59535,-15.36657],[-69.57893,-15.36862],[-69.54815,-15.38093],[-69.50916,-15.41684],[-69.48043,-15.44352],[-69.44145,-15.47532],[-69.40554,-15.49482],[-69.38091,-15.5061],[-69.3409,-15.53073],[-69.30806,-15.53483],[-69.29332,-15.51878],[-69.28907,-15.51293],[-69.29492,-15.49325],[-69.28481,-15.47304],[-69.26567,-15.45868],[-69.24492,-15.45708],[-69.22631,-15.47942],[-69.21833,-15.4858],[-69.21727,-15.46612],[-69.21939,-15.44538],[-69.22684,-15.41879],[-69.22152,-15.3773],[-69.21088,-15.35762],[-69.19599,-15.34113],[-69.1912,-15.33688],[-69.18376,-15.31454],[-69.17471,-15.30284],[-69.16142,-15.2922],[-69.14227,-15.2805],[-69.12259,-15.27465],[-69.11408,-15.26826],[-69.11568,-15.25124],[-69.11887,-15.23901],[-69.12631,-15.22305],[-69.13216,-15.21774],[-69.14972,-15.2071],[-69.16301,-15.18955],[-69.18588,-15.16508],[-69.20184,-15.14327],[-69.22631,-15.12944],[-69.24705,-15.11987],[-69.26141,-15.11029],[-69.27364,-15.09434],[-69.28428,-15.07732],[-69.29864,-15.05126],[-69.30449,-15.03051],[-69.3162,-15.01083],[-69.33268,-14.99115],[-69.34279,-14.97466],[-69.34598,-14.95977],[-69.3396,-14.9486],[-69.33215,-14.92467],[-69.33215,-14.90605],[-69.33358,-14.88029],[-69.33774,-14.86284],[-69.33358,-14.83541],[-69.3261,-14.81214],[-69.31447,-14.79635],[-69.30034,-14.7897],[-69.27541,-14.7764],[-69.25047,-14.76477],[-69.23801,-14.75397],[-69.23136,-14.73402],[-69.2272,-14.71823],[-69.23552,-14.69995],[-69.24466,-14.68582],[-69.23718,-14.67086],[-69.22554,-14.64593],[-69.22139,-14.62931],[-69.20477,-14.60853],[-69.17651,-14.59108],[-69.1416,-14.57944],[-69.12498,-14.55783],[-69.12249,-14.53955],[-69.10005,-14.51794],[-69.08177,-14.48719],[-69.04852,-14.45561],[-69.02442,-14.43483],[-69.00614,-14.4099],[-68.97705,-14.38082],[-68.97872,-14.35755],[-68.98703,-14.33594],[-68.98204,-14.31101],[-68.97456,-14.27776],[-68.96874,-14.26114],[-68.94963,-14.2412],[-68.92636,-14.22873],[-68.87566,-14.21709],[-68.84574,-14.2146],[-68.82414,-14.19964],[-68.8258,-14.1772],[-68.83328,-14.15975],[-68.84574,-14.129],[-68.86652,-14.09825],[-68.87234,-14.07997],[-68.88564,-14.04756],[-68.91057,-14.0301],[-68.93799,-14.00268],[-68.9463,-13.98523],[-68.95711,-13.96362],[-68.97456,-13.93287],[-68.96043,-13.90544],[-68.94713,-13.89547],[-68.94132,-13.86472],[-68.91638,-13.82982],[-68.91888,-13.81153],[-68.93716,-13.79574],[-68.96292,-13.78328],[-68.98786,-13.75918],[-69.0078,-13.73674],[-69.02193,-13.72593],[-69.03855,-13.70017],[-69.04603,-13.67274],[-69.02193,-13.64947],[-68.99451,-13.63867],[-68.95461,-13.61041],[-68.92719,-13.56969],[-68.90891,-13.54559],[-68.90558,-13.52232],[-68.88813,-13.4816],[-68.87899,-13.45334],[-68.87732,-13.41927],[-68.87483,-13.37605],[-68.85655,-13.34281],[-68.84658,-13.33616],[-68.8391,-13.32203],[-68.8391,-13.29959],[-68.83577,-13.27217],[-68.83162,-13.24558],[-68.83078,-13.21898],[-68.8366,-13.19322],[-68.84367,-13.16595],[-68.86055,-13.14517],[-68.86055,-13.1231],[-68.84626,-13.10492],[-68.84237,-13.06856],[-68.84367,-13.02571],[-68.84756,-13.00233],[-68.85276,-12.98156],[-68.86185,-12.94649],[-68.86444,-12.91663],[-68.86314,-12.89715],[-68.84496,-12.88416],[-68.82679,-12.8517],[-68.79952,-12.81015],[-68.78004,-12.7673],[-68.76186,-12.75041],[-68.74757,-12.73353],[-68.7242,-12.71535],[-68.70342,-12.69328],[-68.71641,-12.68289],[-68.7216,-12.65562],[-68.70083,-12.62835],[-68.69174,-12.60498],[-68.66577,-12.57381],[-68.65018,-12.55174],[-68.64888,-12.50888],[-68.64282,-12.49089],[-69.05736,-11.72217],[-69.42749,-11.16209],[-69.44162,-11.12469],[-69.45824,-11.10225],[-69.47403,-11.07732],[-69.49315,-11.0474],[-69.50977,-11.02247],[-69.52223,-11.01416],[-69.53304,-10.99338],[-69.54135,-10.97177],[-69.56379,-10.95016],[-69.59371,-10.9485],[-69.63775,-10.95515],[-69.66601,-10.96678],[-69.69011,-10.9726],[-69.72169,-10.96429],[-69.73997,-10.95099],[-69.76241,-10.94102],[-69.80812,-10.93437],[-69.90233,-10.93394],[-69.94595,-10.93979],[-69.97467,-10.95788],[-70.00126,-10.97702],[-70.02626,-10.98766],[-70.04381,-10.99723],[-70.06988,-11.01106],[-70.09541,-11.0116],[-70.13849,-11.035],[-70.1603,-11.05042],[-70.20551,-11.05149],[-70.23689,-11.05521],[-70.26933,-11.07276],[-70.29859,-11.07808],[-70.32252,-11.07702],[-70.3422,-11.07383],[-70.36135,-11.0584],[-70.38741,-11.0467],[-70.40283,-11.0451],[-70.42571,-11.03287],[-70.4406,-11.02223],[-70.45709,-10.99936],[-70.47464,-10.9749],[-70.49485,-10.95096],[-70.51613,-10.93607],[-70.5374,-10.9382],[-70.56453,-10.95681],[-70.58102,-10.97117],[-70.59697,-10.9866],[-70.62208,-10.99959],[-70.62345,-9.83578],[-70.61314,-9.81755],[-70.59571,-9.80091],[-70.57339,-9.78119],[-70.56477,-9.77561],[-70.53535,-9.76394],[-70.52368,-9.75025],[-70.52368,-9.73604],[-70.52368,-9.71626],[-70.52165,-9.68989],[-70.53281,-9.6701],[-70.54498,-9.65641],[-70.55513,-9.64068],[-70.5673,-9.63155],[-70.58607,-9.61329],[-70.58962,-9.58996],[-70.57846,-9.56713],[-70.56984,-9.55749],[-70.55107,-9.54177],[-70.53788,-9.53112],[-70.51861,-9.51286],[-70.50593,-9.5017],[-70.49375,-9.47938],[-70.4903,-9.4387],[-70.49901,-9.42682],[-70.53389,-9.42444],[-70.56004,-9.42523],[-70.60046,-9.45931],[-70.61869,-9.47992],[-70.65198,-9.52272],[-70.7138,-9.5568],[-70.7463,-9.59326],[-70.77483,-9.62337],[-70.80178,-9.64239],[-70.82159,-9.65349],[-70.84378,-9.66379],[-70.86518,-9.68282],[-70.87866,-9.70501],[-70.89768,-9.72482],[-70.91987,-9.73196],[-70.94206,-9.74543],[-70.95633,-9.77158],[-70.97297,-9.79378],[-70.99833,-9.80566],[-71.03321,-9.82469],[-71.06729,-9.83737],[-71.11484,-9.85718],[-71.1402,-9.87541],[-71.15843,-9.90711],[-71.2044,-9.96418],[-71.23848,-9.98003],[-71.27177,-9.99033],[-71.29792,-9.99588],[-71.31378,-9.97448],[-71.33755,-9.9721],[-71.35182,-9.99509],[-71.36544,-10.01223],[-72.13369,-10.00866],[-72.1535,-9.97027],[-72.15969,-9.92445],[-72.15103,-9.89968],[-72.14483,-9.87739],[-72.14236,-9.85015],[-72.14483,-9.81547],[-72.15598,-9.79813],[-72.18942,-9.77832],[-72.22038,-9.77213],[-72.25134,-9.73993],[-72.25134,-9.72383],[-72.24267,-9.7003],[-72.24143,-9.65696],[-72.25257,-9.62848],[-72.27363,-9.60742],[-72.27982,-9.5777],[-72.28106,-9.56284],[-72.29344,-9.54426],[-72.31945,-9.53807],[-72.34174,-9.51454],[-72.38508,-9.49101],[-72.42595,-9.4873],[-72.45567,-9.49349],[-72.49901,-9.48978],[-72.54607,-9.46253],[-72.58075,-9.45386],[-72.63028,-9.45015],[-72.66991,-9.43281],[-72.69468,-9.42538],[-72.73059,-9.41919],[-73.1877,-9.41939],[-73.18582,-9.39908],[-73.1779,-9.36658],[-73.1462,-9.32774],[-73.11687,-9.30318],[-73.09706,-9.28019],[-73.07011,-9.23105],[-73.02097,-9.20173],[-72.97817,-9.16923],[-72.95122,-9.12802],[-72.94092,-9.07888],[-72.94171,-9.0234],[-72.9536,-8.9806],[-72.97976,-8.94731],[-73.00512,-8.92116],[-73.03524,-8.89579],[-73.05901,-8.87043],[-73.07962,-8.83873],[-73.12026,-8.78496],[-73.14106,-8.75047],[-73.15273,-8.72003],[-73.17961,-8.69569],[-73.21309,-8.68757],[-73.25671,-8.68199],[-73.27954,-8.66931],[-73.30388,-8.6409],[-73.3257,-8.59982],[-73.32519,-8.53235],[-73.34193,-8.4862],[-73.39062,-8.45272],[-73.4241,-8.42178],[-73.45403,-8.39692],[-73.47584,-8.38728],[-73.51896,-8.35786],[-73.52656,-8.34264],[-73.54565,-8.28314],[-73.56546,-8.25064],[-73.58686,-8.21973],[-73.57497,-8.19279],[-73.60034,-8.12383],[-73.62094,-8.07866],[-73.65899,-8.01842],[-73.67801,-7.9883],[-73.7002,-7.95819],[-73.72873,-7.93837],[-73.74538,-7.92569],[-73.75806,-7.88844],[-73.7541,-7.87893],[-73.73745,-7.86466],[-73.70496,-7.85198],[-73.6788,-7.8282],[-73.68118,-7.78858],[-73.69862,-7.76163],[-73.71605,-7.74657],[-73.75172,-7.72913],[-73.77867,-7.722],[-73.81195,-7.70853],[-73.84524,-7.66731],[-73.87536,-7.64037],[-73.89993,-7.61817],[-73.9245,-7.60074],[-73.95382,-7.57537],[-73.97522,-7.54367],[-73.95541,-7.51514],[-73.93559,-7.49295],[-73.9348,-7.46521],[-73.92688,-7.44777],[-73.94035,-7.40973],[-73.96175,-7.37961],[-73.97364,-7.35583],[-73.97284,-7.33364],[-73.95065,-7.32492],[-73.92608,-7.33919],[-73.89676,-7.3376],[-73.86506,-7.34236],[-73.82622,-7.33443],[-73.79531,-7.31462],[-73.76915,-7.3059],[-73.77391,-7.28609],[-73.78897,-7.25676],[-73.81354,-7.22744],[-73.84366,-7.1997],[-73.8817,-7.17275],[-73.88328,-7.14105],[-73.86902,-7.11648],[-73.85,-7.0927],[-73.82939,-7.07289],[-73.80165,-7.05624],[-73.77549,-7.03722],[-73.74696,-7.02375],[-73.72794,-7.00076],[-73.73666,-6.97461],[-73.74855,-6.94211],[-73.73666,-6.90724],[-73.71526,-6.8692],[-73.7002,-6.83749],[-73.6788,-6.80738],[-73.65344,-6.77884],[-73.62966,-6.75269],[-73.59875,-6.72416],[-73.55833,-6.69959],[-73.52821,-6.68056],[-73.4941,-6.65859],[-73.42715,-6.63577],[-73.38251,-6.61548],[-73.36171,-6.59468],[-73.2907,-6.58352],[-73.22932,-6.57845],[-73.19736,-6.54954],[-73.17504,-6.52417],[-73.13041,-6.48765],[-73.11976,-6.46178],[-73.10606,-6.43338],[-73.09389,-6.40599],[-73.10149,-6.38975],[-73.11113,-6.37099],[-73.12522,-6.35025],[-73.14055,-6.33672],[-73.15228,-6.30606],[-73.16039,-6.26909],[-73.17752,-6.23843],[-73.19105,-6.21769],[-73.22351,-6.16629],[-73.24245,-6.123],[-73.23884,-6.09865],[-73.22351,-6.06529],[-73.20966,-6.03102],[-73.18254,-5.9635],[-73.16349,-5.90463],[-73.14041,-5.85442],[-73.09828,-5.81056],[-73.05211,-5.76843],[-73.02094,-5.73034],[-73.00651,-5.70667],[-72.97553,-5.67268],[-72.97553,-5.62477],[-72.95862,-5.58814],[-72.94649,-5.53353],[-72.96207,-5.49313],[-72.95861,-5.44812],[-72.94476,-5.41868],[-72.91937,-5.37598],[-72.90321,-5.34135],[-72.89513,-5.31076],[-72.86916,-5.28998],[-72.86664,-5.24349],[-72.87661,-5.18033],[-72.88031,-5.1626],[-72.86295,-5.14302],[-72.83598,-5.12419],[-72.79831,-5.10018],[-72.77097,-5.08393],[-72.74401,-5.05622],[-72.71335,-5.03591],[-72.67309,-5.02741],[-72.64502,-5.0433],[-72.62692,-5.04773],[-72.6199,-5.02963],[-72.60425,-5.00546],[-72.58463,-4.97776],[-72.55404,-4.95698],[-72.51191,-4.93159],[-72.47959,-4.91543],[-72.44843,-4.89638],[-72.41553,-4.87791],[-72.38536,-4.84088],[-72.37797,-4.82759],[-72.36948,-4.80875],[-72.36024,-4.79767],[-72.32478,-4.7792],[-72.25608,-4.76516],[-72.2221,-4.75778],[-72.17593,-4.73857],[-72.13909,-4.7117],[-72.1033,-4.68804],[-72.0681,-4.66668],[-72.05598,-4.64821],[-72.02712,-4.62801],[-71.99307,-4.60724],[-71.97403,-4.5905],[-71.94632,-4.56972],[-71.93536,-4.55587],[-71.92208,-4.53048],[-71.89784,-4.50855],[-71.87014,-4.49874],[-71.84417,-4.49239],[-71.82224,-4.49123],[-71.80204,-4.47854],[-71.78415,-4.46411],[-71.7576,-4.45314],[-71.73913,-4.45545],[-71.72355,-4.46757],[-71.71028,-4.47969],[-71.69123,-4.49008],[-71.67507,-4.47738],[-71.6693,-4.46411],[-71.64564,-4.46065],[-71.63698,-4.4693],[-71.61447,-4.47392],[-71.58908,-4.49181],[-71.56657,-4.49527],[-71.55157,-4.48489],[-71.52639,-4.46014],[-71.49302,-4.4412],[-71.48401,-4.4376],[-71.45966,-4.41776],[-71.4308,-4.41145],[-71.41637,-4.41956],[-71.39744,-4.42587],[-71.36948,-4.40604],[-71.33161,-4.40153],[-71.29644,-4.41686],[-71.2784,-4.41235],[-71.25856,-4.39071],[-71.23692,-4.36906],[-71.19995,-4.37357],[-71.17921,-4.3862],[-71.16478,-4.37538],[-71.12871,-4.36996],[-71.09354,-4.36546],[-71.0728,-4.35283],[-71.05657,-4.35644],[-71.02861,-4.36275],[-70.99615,-4.36455],[-70.97541,-4.34922],[-70.96098,-4.34652],[-70.93844,-4.35554],[-70.91679,-4.34111],[-70.89966,-4.32397],[-70.88704,-4.29873],[-70.84646,-4.25364],[-70.83563,-4.22658],[-70.81309,-4.1842],[-70.76981,-4.15805],[-70.73464,-4.13911],[-70.71209,-4.14272],[-70.68955,-4.15264],[-70.66881,-4.16346],[-70.65889,-4.16707],[-70.63093,-4.13551],[-70.60659,-4.14272],[-70.57683,-4.15715],[-70.55879,-4.17699],[-70.53444,-4.16256],[-70.50559,-4.13821],[-70.46501,-4.14723],[-70.44968,-4.1319],[-70.43424,-4.12129],[-70.3823,-4.10513],[-70.33844,-4.12245],[-70.30381,-4.13976],[-70.28015,-4.16516],[-70.27207,-4.20844],[-70.25995,-4.25981],[-70.23398,-4.2777],[-70.20627,-4.29616],[-70.17107,-4.31579],[-70.14683,-4.29328],[-70.1197,-4.25807],[-70.09316,-4.2448],[-70.06776,-4.25577],[-70.04121,-4.28578],[-70.0239,-4.31348],[-69.98465,-4.34118],[-69.96561,-4.36138],[-69.95695,-4.35676],[-69.96446,-4.32156],[-69.96388,-4.30367],[-69.95003,-4.265],[-69.95003,-4.23153],[-69.95407,-4.21767],[-69.96676,-4.19747],[-69.98527,-4.16887],[-70.02134,-4.12559],[-70.0529,-4.0832],[-70.07995,-4.06787],[-70.11422,-4.04353],[-70.14578,-4.01828],[-70.16472,-3.99573],[-70.16292,-3.95605],[-70.18005,-3.89654],[-70.20169,-3.8767],[-70.24227,-3.86047],[-70.27023,-3.83973],[-70.29007,-3.81357],[-70.31081,-3.79193],[-70.34056,-3.78472],[-70.37573,-3.79824],[-70.41,-3.8289],[-70.43976,-3.84514],[-70.47042,-3.85686],[-70.49837,-3.85686],[-70.54707,-3.83702],[-70.57232,-3.81899],[-70.60388,-3.80997],[-70.64536,-3.80546],[-70.67422,-3.79374],[-70.71029,-3.79193],[-70.07635,-2.79999],[-70.06102,-2.78105],[-70.04478,-2.74137],[-70.04839,-2.72604],[-70.06102,-2.7017],[-70.06282,-2.66743],[-70.06553,-2.63947],[-70.07995,-2.64579],[-70.08536,-2.66112],[-70.1043,-2.68005],[-70.13135,-2.67915],[-70.13767,-2.66112],[-70.17734,-2.63316],[-70.20259,-2.61062],[-70.21341,-2.57545],[-70.22424,-2.54749],[-70.26121,-2.52405],[-70.29728,-2.53306],[-70.32163,-2.54749],[-70.32343,-2.51773],[-70.31441,-2.50421],[-70.309,-2.48798],[-70.31802,-2.47355],[-70.34237,-2.46543],[-70.37754,-2.49699],[-70.41812,-2.50421],[-70.43345,-2.48347],[-70.44968,-2.4501],[-70.4614,-2.4483],[-70.50198,-2.44379],[-70.50649,-2.42395],[-70.54617,-2.40952],[-70.55248,-2.42125],[-70.57232,-2.451],[-70.60027,-2.45822],[-70.62823,-2.44018],[-70.62823,-2.41674],[-70.64356,-2.39059],[-70.6652,-2.34369],[-70.68865,-2.31303],[-70.74546,-2.29951],[-70.77251,-2.28057],[-70.80588,-2.26795],[-70.8203,-2.26073],[-70.84105,-2.22556],[-70.85908,-2.20212],[-70.87621,-2.20121],[-70.88253,-2.21564],[-70.90507,-2.23097],[-70.91409,-2.23999],[-70.92671,-2.22195],[-70.94385,-2.21384],[-70.96549,-2.20121],[-70.97992,-2.20302],[-70.98893,-2.22195],[-70.98803,-2.2454],[-70.98713,-2.26795],[-71.00877,-2.27516],[-71.0241,-2.26975],[-71.04394,-2.25712],[-71.0755,-2.25803],[-71.10797,-2.26885],[-71.1242,-2.28598],[-71.13232,-2.32115],[-71.15757,-2.33558],[-71.1765,-2.3491],[-71.20446,-2.34189],[-71.23151,-2.32746],[-71.26127,-2.32746],[-71.28922,-2.33017],[-71.30275,-2.34099],[-71.32169,-2.3491],[-71.34964,-2.35722],[-71.37309,-2.36263],[-71.3794,-2.38608],[-71.39383,-2.38067],[-71.40285,-2.35181],[-71.41186,-2.32836],[-71.42449,-2.30311],[-71.44162,-2.27245],[-71.45695,-2.25983],[-71.47228,-2.26434],[-71.47589,-2.27786],[-71.48581,-2.31303],[-71.50294,-2.30131],[-71.50925,-2.27967],[-71.51376,-2.25262],[-71.52098,-2.22737],[-71.54803,-2.21654],[-71.5814,-2.20933],[-71.61115,-2.19761],[-71.63911,-2.18138],[-71.66706,-2.18498],[-71.6833,-2.1958],[-71.70855,-2.19039],[-71.71305,-2.16785],[-71.71486,-2.1435],[-71.71035,-2.12547],[-71.72568,-2.13088],[-71.74281,-2.14621],[-71.75995,-2.14891],[-71.7852,-2.16334],[-71.82307,-2.19761],[-71.84381,-2.22556],[-71.85193,-2.25532],[-71.86996,-2.28147],[-71.8871,-2.28959],[-71.91956,-2.31664],[-71.943,-2.3446],[-71.97817,-2.35181],[-72.00162,-2.3473],[-72.02957,-2.32836],[-72.06384,-2.33468],[-72.08098,-2.3464],[-72.10172,-2.37165],[-72.12155,-2.396],[-72.12426,-2.42215],[-72.12516,-2.44559],[-72.13779,-2.45371],[-72.15041,-2.44379],[-72.16763,-2.43414],[-72.19477,-2.4282],[-72.23724,-2.42709],[-72.27123,-2.43596],[-72.29782,-2.4511],[-72.32035,-2.45553],[-72.34067,-2.45664],[-72.3595,-2.45442],[-72.38314,-2.44334],[-72.39496,-2.42968],[-72.41749,-2.41269],[-72.43855,-2.40825],[-72.47474,-2.3968],[-72.50725,-2.39015],[-72.54419,-2.37575],[-72.55305,-2.36393],[-72.57743,-2.35137],[-72.60079,-2.342],[-72.62214,-2.36104],[-72.63542,-2.37316],[-72.64869,-2.3974],[-72.67639,-2.40779],[-72.69371,-2.40895],[-72.70756,-2.4026],[-72.72372,-2.39683],[-72.7393,-2.39221],[-72.76354,-2.37778],[-72.77393,-2.37547],[-72.78893,-2.38297],[-72.79875,-2.39105],[-72.81837,-2.4026],[-72.84319,-2.41183],[-72.8605,-2.41587],[-72.88128,-2.42107],[-72.90436,-2.41587],[-72.92052,-2.41068],[-72.93957,-2.38932],[-72.94822,-2.37547],[-72.95749,-2.35451],[-72.98725,-2.33197],[-73.0125,-2.32205],[-73.05218,-2.31394],[-73.08464,-2.30131],[-73.1126,-2.28328],[-73.12973,-2.25983],[-73.14326,-2.23909],[-73.1658,-2.19761],[-73.164,-2.17687],[-73.14506,-2.15072],[-73.11891,-2.12997],[-73.10268,-2.10382],[-73.08825,-2.06865],[-73.09095,-2.02988],[-73.10087,-2.00373],[-73.1162,-1.96134],[-73.11711,-1.90904],[-73.12161,-1.87838],[-73.13244,-1.84141],[-73.14596,-1.81977],[-73.15228,-1.80353],[-73.1667,-1.77378],[-73.18835,-1.76025],[-73.22081,-1.74943],[-73.25237,-1.77197],[-73.27942,-1.7837],[-73.3164,-1.79452],[-73.33443,-1.79181],[-73.36509,-1.77197],[-73.4201,-1.76115],[-73.46429,-1.72779],[-73.48503,-1.71516],[-73.52561,-1.68721],[-73.5247,-1.65114],[-73.48503,-1.60605],[-73.4724,-1.55555],[-73.47601,-1.50234],[-73.50306,-1.46808],[-73.52831,-1.42299],[-73.56799,-1.37249],[-73.58512,-1.3247],[-73.60406,-1.28682],[-73.63472,-1.25526],[-73.65636,-1.23452],[-73.68522,-1.21919],[-73.73662,-1.20747],[-73.76007,-1.21017],[-73.7754,-1.22189],[-73.79343,-1.23001],[-73.81147,-1.21829],[-73.84483,-1.20837],[-73.87549,-1.17951],[-73.89533,-1.14434],[-73.91066,-1.11909],[-73.9305,-1.11008],[-73.95665,-1.09565],[-73.98186,-1.07058],[-74.00206,-1.02383],[-74.00841,-1.00363],[-74.02515,-1.00479],[-74.03554,-1.0221],[-74.04881,-1.04057],[-74.07305,-1.03133],[-74.10133,-1.01287],[-74.12615,-1.00363],[-74.16828,-0.99151],[-74.19713,-0.98055],[-74.23927,-0.97016],[-74.25773,-0.95342],[-74.27736,-0.92456],[-74.27909,-0.90956],[-74.28027,-0.87218],[-74.28732,-0.84963],[-74.27323,-0.82145],[-74.26759,-0.79468],[-74.28309,-0.76932],[-74.30845,-0.74255],[-74.33522,-0.72705],[-74.34931,-0.72141],[-74.36763,-0.70591],[-74.36341,-0.67773],[-74.35072,-0.64674],[-74.36059,-0.62419],[-74.37327,-0.60024],[-74.38595,-0.5636],[-74.39581,-0.53542],[-74.41836,-0.50724],[-74.44935,-0.47343],[-74.47894,-0.45652],[-74.5184,-0.43116],[-74.54517,-0.40861],[-74.5663,-0.38043],[-74.59448,-0.35507],[-74.61562,-0.34803],[-74.65084,-0.34239],[-74.68607,-0.33675],[-74.71002,-0.32125],[-74.7227,-0.30435],[-74.73679,-0.28039],[-74.75229,-0.25503],[-74.76356,-0.22544],[-74.77202,-0.19303],[-74.77765,-0.16908],[-74.80302,-0.16204],[-74.8312,-0.1719],[-74.8467,-0.18599],[-74.8791,-0.20431],[-74.90869,-0.19867],[-74.93828,-0.1874],[-74.95801,-0.17049],[-74.97914,-0.15217],[-75.01719,-0.12117]]]]}}]}