{"type":"FeatureCollection","crs":{"type":"name","properties":{"name":"urn:ogc:def:crs:OGC:1.3:CRS84"}},"features":[{"type":"Feature","properties":{"shapeName":"Brokopondo","shapeISO":"SR-BR","shapeID":"93550828B96522578976801","shapeGroup":"SUR","shapeType":"ADM1"},"geometry":{"type":"Polygon","coordinates":[[[-54.83435,5.00231],[-54.83846,4.98961],[-54.86354,4.9892],[-54.86642,4.99985],[-54.85861,5.04448],[-54.86148,5.08502],[-54.88861,5.10631],[-54.88943,5.11737],[-54.87998,5.12719],[-54.87381,5.14193],[-54.88121,5.16363],[-54.90588,5.18696],[-54.92355,5.19965],[-54.97617,5.2279],[-54.97683,5.31135],[-54.98466,5.33397],[-55.34804,5.33337],[-55.35036,5.32411],[-55.36519,5.31311],[-55.346,5.30848],[-55.33641,5.29343],[-55.33773,5.28405],[-55.34629,5.27606],[-55.35117,5.26914],[-55.34695,5.25899],[-55.35436,5.25457],[-55.34637,5.25341],[-55.34536,5.24678],[-55.3508,5.23889],[-55.34905,5.23496],[-55.35996,5.23701],[-55.36715,5.23301],[-55.36999,5.22355],[-55.36548,5.21557],[-55.38599,5.19661],[-55.41353,5.16386],[-55.446,5.13398],[-55.4682,5.13398],[-55.46532,5.12333],[-55.47067,5.11351],[-55.4941,5.10614],[-55.48546,5.08812],[-55.41592,4.98126],[-55.3729,4.90829],[-55.35372,4.83762],[-55.34907,4.75942],[-55.34965,4.69801],[-55.36468,4.49829],[-55.32646,4.47087],[-55.31542,4.36248],[-55.30379,4.09059],[-55.29798,4.05347],[-55.28635,4.03724],[-55.2724,4.0268],[-55.24856,4.02912],[-55.2224,4.04246],[-55.1945,4.06391],[-55.17415,4.07667],[-55.15555,4.07957],[-55.14044,4.09406],[-55.11486,4.12306],[-55.10382,4.12885],[-55.0608,4.13175],[-55.0422,4.13871],[-55.03231,4.14741],[-55.02592,4.17524],[-55.02069,4.18393],[-55.0079,4.18973],[-54.98581,4.18683],[-54.97592,4.17698],[-54.95907,4.17234],[-54.95732,4.15205],[-54.93639,4.14161],[-54.92826,4.14509],[-54.9207,4.18046],[-54.89977,4.21292],[-54.88117,4.23495],[-54.88291,4.25466],[-54.85733,4.31495],[-54.85908,4.3422],[-54.86896,4.36886],[-54.88349,4.38973],[-54.88233,4.45232],[-54.8771,4.4784],[-54.84571,4.49579],[-54.83292,4.52013],[-54.81083,4.54794],[-54.80327,4.58155],[-54.79978,4.62675],[-54.80734,4.65456],[-54.81257,4.69048],[-54.79281,4.70323],[-54.78351,4.71714],[-54.77421,4.74668],[-54.76316,4.76116],[-54.75037,4.79882],[-54.75444,4.82083],[-54.74688,4.84516],[-54.74049,4.86022],[-54.72363,4.87528],[-54.71433,4.88918],[-54.71724,4.89845],[-54.73177,4.92972],[-54.75502,4.96042],[-54.80792,4.99806],[-54.83435,5.00231]]]}},{"type":"Feature","properties":{"shapeName":"Commewijne","shapeISO":"SR-CM","shapeID":"93550828B58991910935434","shapeGroup":"SUR","shapeType":"ADM1"},"geometry":{"type":"Polygon","coordinates":[[[-54.6949,5.97828],[-54.74804,5.98292],[-54.76991,5.98195],[-54.78647,5.98414],[-54.79465,5.99138],[-54.81458,5.99194],[-54.83944,5.9951],[-54.85198,5.99514],[-54.86066,5.99347],[-54.85638,5.98761],[-54.8567,5.98595],[-54.85961,5.99056],[-54.85947,5.98918],[-54.86248,5.98789],[-54.86781,5.98763],[-54.89096,5.99055],[-54.92097,5.99189],[-54.95637,5.99114],[-54.98026,5.9943],[-55.02122,5.99419],[-55.06818,5.99102],[-55.09327,5.98688],[-55.12802,5.97688],[-55.1525,5.96469],[-55.15616,5.96116],[-55.15798,5.95441],[-55.16572,5.94825],[-55.16611,5.94619],[-55.16277,5.94258],[-55.16366,5.94644],[-55.16136,5.94732],[-55.16031,5.95016],[-55.15579,5.94909],[-55.15254,5.94334],[-55.13077,5.93112],[-55.10744,5.90843],[-55.10025,5.90334],[-55.06585,5.90234],[-55.05805,5.90023],[-55.04018,5.89206],[-55.04448,5.88545],[-55.0676,5.89108],[-55.08061,5.8919],[-55.09414,5.89038],[-55.09507,5.88427],[-55.0896,5.86636],[-55.08896,5.85224],[-55.09437,5.83751],[-55.10147,5.82713],[-55.1124,5.81972],[-55.12006,5.81673],[-55.13505,5.8164],[-55.14538,5.81811],[-55.15462,5.81749],[-55.15738,5.81598],[-55.15914,5.81293],[-55.1586,5.80808],[-55.1469,5.78692],[-55.12741,5.76626],[-55.10979,5.74281],[-55.09588,5.72022],[-55.08841,5.71279],[-55.06817,5.70199],[-55.04052,5.69912],[-55.0345,5.69689],[-55.02771,5.69039],[-55.02573,5.68523],[-55.02723,5.67658],[-55.03565,5.66738],[-55.06,5.65884],[-55.06409,5.65393],[-55.06832,5.63927],[-55.07127,5.63385],[-55.08402,5.62633],[-55.08786,5.62289],[-55.0894,5.61881],[-55.08933,5.61498],[-55.08747,5.61179],[-55.08305,5.60803],[-55.07678,5.6058],[-55.07383,5.60701],[-55.06832,5.62014],[-55.06486,5.62263],[-55.06038,5.62308],[-55.05237,5.62078],[-55.04424,5.61721],[-55.04174,5.61396],[-55.04421,5.59139],[-55.04376,5.58129],[-55.03917,5.56588],[-55.03937,5.55556],[-55.04264,5.53771],[-54.60702,5.5651],[-54.63845,5.61528],[-54.64894,5.63982],[-54.67175,5.67377],[-54.69066,5.68932],[-54.6995,5.69954],[-54.69909,5.71263],[-54.69045,5.73513],[-54.69826,5.7478],[-54.71039,5.75333],[-54.71553,5.75762],[-54.72231,5.79872],[-54.72991,5.83246],[-54.70525,5.85106],[-54.69107,5.85843],[-54.6847,5.8664],[-54.68593,5.89891],[-54.69436,5.91526],[-54.6949,5.97828]]]}},{"type":"Feature","properties":{"shapeName":"Coronie","shapeISO":"SR-CR","shapeID":"93550828B7327447609620","shapeGroup":"SUR","shapeType":"ADM1"},"geometry":{"type":"Polygon","coordinates":[[[-55.90373,5.66249],[-55.89636,5.67997],[-55.89452,5.6988],[-55.88873,5.72737],[-55.88964,5.74027],[-55.896,5.75639],[-55.91094,5.77916],[-55.936,5.80501],[-55.97556,5.8089],[-55.98019,5.80163],[-55.98405,5.80474],[-55.9868,5.80327],[-55.98791,5.80577],[-55.98997,5.80449],[-55.99615,5.80487],[-56.00053,5.80554],[-56.00104,5.80708],[-56.00499,5.80563],[-56.00773,5.80697],[-56.01082,5.80581],[-56.01018,5.80762],[-56.01391,5.80814],[-56.01364,5.81046],[-56.01944,5.81098],[-56.02497,5.81357],[-56.02549,5.8097],[-56.02884,5.81023],[-56.0296,5.81384],[-56.03552,5.8141],[-56.03706,5.81578],[-56.04195,5.81489],[-56.04478,5.81876],[-56.04528,5.81773],[-56.04761,5.81928],[-56.04709,5.82032],[-56.05044,5.81774],[-56.05069,5.82057],[-56.05507,5.82071],[-56.05893,5.82265],[-56.06047,5.82136],[-56.06021,5.82291],[-56.06099,5.82136],[-56.06176,5.8224],[-56.06459,5.82124],[-56.07642,5.82719],[-56.08286,5.82707],[-56.08363,5.82591],[-56.0844,5.82682],[-56.08569,5.82501],[-56.08736,5.82579],[-56.08749,5.8276],[-56.0844,5.82707],[-56.08492,5.82888],[-56.08621,5.8276],[-56.08826,5.82824],[-56.08878,5.82657],[-56.08904,5.8276],[-56.09045,5.82708],[-56.08929,5.82837],[-56.09212,5.82993],[-56.0916,5.83121],[-56.09418,5.83096],[-56.09391,5.83302],[-56.09675,5.83173],[-56.09675,5.83405],[-56.10421,5.83832],[-56.10834,5.8373],[-56.11476,5.8395],[-56.11776,5.83907],[-56.11965,5.84208],[-56.12531,5.84132],[-56.12968,5.84236],[-56.13226,5.84107],[-56.13484,5.84352],[-56.13792,5.84069],[-56.14281,5.84367],[-56.14306,5.84702],[-56.14847,5.84522],[-56.14924,5.84728],[-56.14641,5.84805],[-56.14691,5.84986],[-56.14718,5.84883],[-56.15078,5.84986],[-56.15181,5.8487],[-56.15284,5.84988],[-56.15207,5.84626],[-56.1549,5.84729],[-56.15594,5.84575],[-56.15748,5.84704],[-56.15722,5.8491],[-56.1549,5.85051],[-56.1531,5.84988],[-56.15425,5.85348],[-56.15772,5.85503],[-56.15798,5.85271],[-56.1549,5.85142],[-56.15696,5.85013],[-56.15683,5.85168],[-56.16519,5.85375],[-56.16467,5.85633],[-56.16853,5.85608],[-56.17059,5.85776],[-56.17368,5.8566],[-56.1742,5.85841],[-56.17728,5.86022],[-56.18372,5.86126],[-56.18295,5.85713],[-56.18475,5.85675],[-56.18964,5.86075],[-56.19092,5.86101],[-56.19144,5.85895],[-56.1947,5.86059],[-56.19427,5.86204],[-56.19581,5.86153],[-56.19385,5.85964],[-56.19556,5.86051],[-56.19479,5.85818],[-56.19016,5.85869],[-56.18887,5.85483],[-56.19505,5.85766],[-56.19608,5.85921],[-56.19762,5.85792],[-56.20509,5.85974],[-56.20792,5.85871],[-56.20972,5.86052],[-56.20585,5.86284],[-56.20534,5.86412],[-56.20637,5.86412],[-56.20791,5.86232],[-56.21074,5.86336],[-56.21126,5.86104],[-56.21435,5.86285],[-56.21744,5.85873],[-56.22001,5.86002],[-56.2218,5.86956],[-56.22618,5.86905],[-56.2303,5.87034],[-56.23185,5.86674],[-56.23544,5.86984],[-56.24292,5.86882],[-56.24523,5.87037],[-56.24394,5.87347],[-56.246,5.87359],[-56.24909,5.87192],[-56.24858,5.87089],[-56.25167,5.87037],[-56.25115,5.87245],[-56.25218,5.87295],[-56.25322,5.87012],[-56.25604,5.86935],[-56.25759,5.87127],[-56.26685,5.8722],[-56.27406,5.87723],[-56.27457,5.8753],[-56.27174,5.87298],[-56.27586,5.87401],[-56.27586,5.87788],[-56.27972,5.87944],[-56.28229,5.87944],[-56.28358,5.8766],[-56.28512,5.88021],[-56.29001,5.87996],[-56.29336,5.88254],[-56.29387,5.881],[-56.30184,5.88243],[-56.32115,5.8916],[-56.3517,5.89737],[-56.36459,5.90218],[-56.36566,5.90004],[-56.40391,5.91286],[-56.4102,5.90955],[-56.41547,5.90998],[-56.41589,5.90713],[-56.41985,5.9085],[-56.42567,5.90753],[-56.44217,5.91574],[-56.46767,5.9197],[-56.49319,5.92905],[-56.50367,5.92954],[-56.51629,5.93338],[-56.53439,5.93499],[-56.53864,5.93691],[-56.54331,5.93573],[-56.54481,5.9368],[-56.55448,5.93637],[-56.57312,5.94017],[-56.58258,5.94738],[-56.58779,5.94882],[-56.59381,5.95342],[-56.59601,5.95288],[-56.60079,5.95475],[-56.60387,5.95748],[-56.59566,5.76562],[-56.60148,5.76186],[-56.60453,5.75058],[-56.60438,5.74567],[-56.59217,5.72325],[-56.57866,5.71646],[-56.57503,5.71009],[-56.565,5.69954],[-56.56558,5.69664],[-56.57197,5.69129],[-56.57401,5.6816],[-56.56907,5.67871],[-56.5634,5.667],[-56.56994,5.65962],[-56.56878,5.65355],[-56.56427,5.64704],[-56.56136,5.64516],[-56.55555,5.64559],[-56.54945,5.63995],[-56.54814,5.63605],[-56.54959,5.63113],[-56.54828,5.62679],[-56.54494,5.62187],[-56.5383,5.6183],[-56.53162,5.61237],[-56.53496,5.60687],[-56.53583,5.60253],[-56.5306,5.59472],[-56.51519,5.59024],[-56.51141,5.58792],[-56.50793,5.57852],[-56.49703,5.56999],[-56.49238,5.55827],[-56.49427,5.55147],[-56.48903,5.53788],[-56.49092,5.53296],[-56.4947,5.53122],[-56.50066,5.53281],[-56.51112,5.53658],[-56.51636,5.54019],[-56.51737,5.54627],[-56.52086,5.55017],[-56.53016,5.55017],[-56.53234,5.54641],[-56.53249,5.54019],[-56.53525,5.536],[-56.54266,5.53064],[-56.54586,5.53079],[-56.55254,5.53643],[-56.55952,5.53715],[-56.56635,5.54048],[-56.57144,5.53759],[-56.57333,5.53166],[-56.58335,5.52414],[-56.58481,5.51618],[-56.58045,5.51256],[-56.57289,5.49839],[-56.56984,5.49998],[-56.55545,5.49868],[-56.55138,5.49405],[-56.54644,5.49231],[-56.54063,5.48652],[-56.53714,5.4683],[-56.52696,5.45745],[-56.52333,5.45065],[-56.53031,5.44168],[-56.54135,5.43328],[-56.54847,5.43271],[-56.55574,5.43444],[-56.55923,5.433],[-56.55952,5.4233],[-56.55414,5.41708],[-56.54862,5.41462],[-56.54571,5.40854],[-56.54571,5.39798],[-56.54455,5.39552],[-56.55937,5.39335],[-56.56897,5.38916],[-56.56897,5.38626],[-56.56431,5.37483],[-56.5585,5.37396],[-56.55312,5.37657],[-56.55196,5.38105],[-56.54862,5.38395],[-56.54455,5.38453],[-56.53641,5.38322],[-56.52595,5.3731],[-56.51359,5.36745],[-56.50793,5.3731],[-56.5072,5.377],[-56.51447,5.3893],[-56.51447,5.39697],[-56.51824,5.4058],[-56.51839,5.41086],[-56.5165,5.41317],[-56.51025,5.41375],[-56.50124,5.41014],[-56.49688,5.39943],[-56.49078,5.40305],[-56.48351,5.40088],[-56.47276,5.39581],[-56.46956,5.38959],[-56.47755,5.38409],[-56.48307,5.37802],[-56.493,5.3578],[-56.4892,5.35617],[-56.48323,5.35709],[-56.46844,5.35484],[-56.45652,5.35801],[-56.45539,5.35535],[-56.45734,5.33663],[-56.45487,5.33354],[-56.44563,5.336],[-56.4299,5.33538],[-56.42548,5.33323],[-56.41305,5.33876],[-56.40894,5.33835],[-56.39702,5.32587],[-56.38322,5.31811],[-56.36985,5.32361],[-56.34863,5.35024],[-56.32654,5.36471],[-56.30939,5.38381],[-56.29253,5.39857],[-56.08442,5.39422],[-56.0789,5.39307],[-56.07561,5.38951],[-56.07582,5.38286],[-56.07356,5.3802],[-56.05866,5.38112],[-56.05259,5.38368],[-56.05373,5.38941],[-56.05742,5.39371],[-56.05547,5.39831],[-56.04633,5.39698],[-56.0454,5.40077],[-56.04787,5.40568],[-56.05218,5.40793],[-56.04437,5.41366],[-56.04335,5.41795],[-56.04679,5.42571],[-56.04694,5.43642],[-56.04185,5.43801],[-56.03328,5.43599],[-56.02615,5.43714],[-56.01453,5.43353],[-56.00828,5.43396],[-56.00988,5.45479],[-56.00654,5.4613],[-55.99287,5.46478],[-55.98546,5.47071],[-55.97791,5.4804],[-55.97035,5.48329],[-55.95596,5.47968],[-55.95276,5.48272],[-55.95116,5.49154],[-55.95463,5.50016],[-55.96069,5.50517],[-55.96531,5.50691],[-55.9721,5.51673],[-55.97045,5.52123],[-55.96048,5.5289],[-55.95288,5.53105],[-55.93613,5.53085],[-55.91291,5.53617],[-55.90787,5.54435],[-55.91111,5.55655],[-55.91939,5.56885],[-55.93668,5.57839],[-55.9502,5.58823],[-55.96197,5.59951],[-55.97055,5.63798],[-55.96909,5.64912],[-55.96197,5.65751],[-55.9486,5.66155],[-55.9268,5.66054],[-55.91314,5.65794],[-55.90373,5.66249]]]}},{"type":"Feature","properties":{"shapeName":"Marowijne","shapeISO":"SR-MA","shapeID":"93550828B14879660189767","shapeGroup":"SUR","shapeType":"ADM1"},"geometry":{"type":"Polygon","coordinates":[[[-54.60702,5.5651],[-54.59722,5.53901],[-54.59105,5.51405],[-54.59064,5.47395],[-54.60626,5.4404],[-54.62229,5.41339],[-54.6375,5.39702],[-54.65669,5.39065],[-54.63976,5.38538],[-54.46129,5.31723],[-54.4363,5.3058],[-54.42278,5.29422],[-54.41464,5.28294],[-54.40418,5.27454],[-54.39502,5.27093],[-54.3725,5.26789],[-54.30067,5.23435],[-54.29028,5.24806],[-54.26917,5.26778],[-54.23222,5.2925],[-54.22871,5.29611],[-54.20833,5.3025],[-54.2,5.30806],[-54.19306,5.315],[-54.165,5.35028],[-54.15417,5.35861],[-54.14222,5.37306],[-54.1341,5.38681],[-54.12806,5.40639],[-54.11917,5.41806],[-54.09343,5.44207],[-54.0879,5.4541],[-54.06211,5.48294],[-54.04842,5.49158],[-54.04778,5.49444],[-54.01083,5.54611],[-54.00566,5.55813],[-54.0051,5.57817],[-54.00856,5.585],[-54.015,5.59111],[-54.0225,5.61167],[-54.02528,5.63611],[-54.02056,5.65861],[-54.00528,5.69833],[-53.99861,5.71194],[-53.98944,5.72333],[-53.97472,5.74806],[-53.98574,5.74892],[-53.99121,5.75832],[-54.01521,5.8116],[-54.01511,5.81937],[-54.0161,5.81422],[-54.01149,5.80033],[-54.01239,5.80008],[-54.01695,5.81271],[-54.01875,5.81247],[-54.01963,5.81608],[-54.02848,5.8205],[-54.02642,5.82152],[-54.02589,5.82409],[-54.02307,5.82266],[-54.01663,5.8243],[-54.01816,5.8274],[-54.02098,5.8287],[-54.02302,5.8318],[-54.02303,5.8305],[-54.02841,5.83337],[-54.0297,5.83261],[-54.03559,5.83676],[-54.03739,5.83728],[-54.0315,5.83236],[-54.03767,5.83265],[-54.03623,5.83093],[-54.03794,5.83085],[-54.07132,5.83862],[-54.07389,5.83722],[-54.0929,5.84221],[-54.11009,5.84951],[-54.09804,5.84301],[-54.1037,5.84323],[-54.14527,5.85993],[-54.14719,5.86276],[-54.15719,5.868],[-54.16973,5.8727],[-54.18836,5.88235],[-54.19837,5.88549],[-54.20666,5.88608],[-54.21149,5.8845],[-54.21714,5.88536],[-54.22503,5.88933],[-54.25488,5.89659],[-54.27928,5.90521],[-54.29599,5.90786],[-54.29805,5.90736],[-54.29034,5.90603],[-54.29661,5.9049],[-54.30422,5.9061],[-54.30406,5.90879],[-54.30924,5.91136],[-54.3212,5.91351],[-54.32523,5.91376],[-54.32553,5.91239],[-54.32495,5.91064],[-54.31974,5.90874],[-54.33324,5.91057],[-54.34391,5.91402],[-54.35616,5.91575],[-54.38338,5.92311],[-54.4378,5.93492],[-54.47836,5.9413],[-54.5448,5.94869],[-54.5597,5.95326],[-54.58662,5.9587],[-54.58943,5.95819],[-54.59291,5.95986],[-54.59766,5.95941],[-54.60931,5.96391],[-54.65066,5.9724],[-54.6949,5.97828],[-54.69436,5.91526],[-54.68593,5.89891],[-54.6847,5.8664],[-54.69107,5.85843],[-54.70525,5.85106],[-54.72991,5.83246],[-54.72231,5.79872],[-54.71553,5.75762],[-54.71039,5.75333],[-54.69826,5.7478],[-54.69045,5.73513],[-54.69909,5.71263],[-54.6995,5.69954],[-54.69066,5.68932],[-54.67175,5.67377],[-54.64894,5.63982],[-54.63845,5.61528],[-54.60702,5.5651]]]}},{"type":"Feature","properties":{"shapeName":"Nickerie","shapeISO":"SR-NI","shapeID":"93550828B24363513819677","shapeGroup":"SUR","shapeType":"ADM1"},"geometry":{"type":"Polygon","coordinates":[[[-56.60387,5.95748],[-56.61352,5.96346],[-56.64516,5.9757],[-56.64317,5.97158],[-56.63189,5.96523],[-56.63066,5.96277],[-56.63254,5.96218],[-56.64355,5.96971],[-56.65016,5.97698],[-56.66794,5.98136],[-56.67385,5.97864],[-56.69598,5.98072],[-56.70307,5.97997],[-56.71806,5.98152],[-56.72504,5.98441],[-56.73933,5.98387],[-56.7497,5.98772],[-56.75888,5.98467],[-56.76796,5.98644],[-56.77231,5.98531],[-56.77387,5.98713],[-56.79552,5.98515],[-56.81282,5.98649],[-56.8219,5.98451],[-56.82668,5.9858],[-56.84118,5.98585],[-56.8502,5.98275],[-56.8657,5.98293],[-56.87021,5.98652],[-56.87171,5.98532],[-56.87664,5.98772],[-56.88159,5.98661],[-56.8875,5.98832],[-56.88821,5.99011],[-56.8928,5.99024],[-56.8955,5.99416],[-56.89686,5.99359],[-56.89801,5.99529],[-56.90054,5.99396],[-56.90408,5.99669],[-56.90421,5.99562],[-56.90604,5.99667],[-56.90762,5.99575],[-56.90808,5.9977],[-56.9105,5.99672],[-56.91138,5.9989],[-56.91394,5.99814],[-56.91471,5.99969],[-56.9204,5.99838],[-56.92403,6.00164],[-56.92821,6.0017],[-56.93118,6.00383],[-56.93341,6.00326],[-56.94106,6.00604],[-56.94317,6.00474],[-56.94788,6.00792],[-56.95177,6.00748],[-56.96321,6.01067],[-56.97034,6.00142],[-56.98114,5.99564],[-57.00814,5.97069],[-57.01073,5.97001],[-57.01452,5.96281],[-57.01816,5.96053],[-57.02629,5.96262],[-57.0613,5.9492],[-57.06798,5.94343],[-57.07129,5.93589],[-57.07116,5.92708],[-57.07312,5.92907],[-57.07909,5.92525],[-57.08153,5.91895],[-57.11539,5.91955],[-57.1224,5.88088],[-57.13229,5.8407],[-57.13874,5.78347],[-57.14449,5.75141],[-57.1392,5.71889],[-57.13943,5.69256],[-57.14564,5.65752],[-57.15772,5.63164],[-57.16601,5.60462],[-57.18937,5.55996],[-57.22281,5.5103],[-57.23535,5.50222],[-57.25911,5.48227],[-57.26371,5.47192],[-57.2661,5.456],[-57.26306,5.41917],[-57.26737,5.38402],[-57.27806,5.37306],[-57.29944,5.36],[-57.31585,5.3521],[-57.32139,5.3476],[-57.32667,5.34301],[-57.33592,5.33058],[-57.33778,5.32574],[-57.3374,5.32123],[-57.33485,5.31667],[-57.32513,5.31397],[-57.31722,5.31644],[-57.29769,5.32699],[-57.29152,5.32576],[-57.28672,5.32016],[-57.285,5.30611],[-57.29056,5.27056],[-57.29111,5.25083],[-57.28654,5.23978],[-57.27688,5.22507],[-57.26747,5.2226],[-57.26119,5.22268],[-57.25766,5.22409],[-57.255,5.22833],[-57.25611,5.23361],[-57.26778,5.24944],[-57.26917,5.25472],[-57.26878,5.26466],[-57.26709,5.2701],[-57.26387,5.27368],[-57.2525,5.27905],[-57.2476,5.27783],[-57.24205,5.27636],[-57.22207,5.26325],[-57.13075,5.28403],[-57.11965,5.27912],[-56.73778,5.3487],[-56.49361,5.32864],[-56.48673,5.33223],[-56.47738,5.33253],[-56.47409,5.33386],[-56.47111,5.33775],[-56.46731,5.33867],[-56.46371,5.33816],[-56.46042,5.3357],[-56.45734,5.33663],[-56.45539,5.35535],[-56.45652,5.35801],[-56.46844,5.35484],[-56.48323,5.35709],[-56.4892,5.35617],[-56.493,5.3578],[-56.48307,5.37802],[-56.47755,5.38409],[-56.46956,5.38959],[-56.47276,5.39581],[-56.48351,5.40088],[-56.49078,5.40305],[-56.49688,5.39943],[-56.50124,5.41014],[-56.51025,5.41375],[-56.5165,5.41317],[-56.51839,5.41086],[-56.51824,5.4058],[-56.51447,5.39697],[-56.51447,5.3893],[-56.5072,5.377],[-56.50793,5.3731],[-56.51359,5.36745],[-56.52595,5.3731],[-56.53641,5.38322],[-56.54455,5.38453],[-56.54862,5.38395],[-56.55196,5.38105],[-56.55312,5.37657],[-56.5585,5.37396],[-56.56431,5.37483],[-56.56897,5.38626],[-56.56897,5.38916],[-56.55937,5.39335],[-56.54455,5.39552],[-56.54571,5.39798],[-56.54571,5.40854],[-56.54862,5.41462],[-56.55414,5.41708],[-56.55952,5.4233],[-56.55923,5.433],[-56.55574,5.43444],[-56.54847,5.43271],[-56.54135,5.43328],[-56.53031,5.44168],[-56.52333,5.45065],[-56.52696,5.45745],[-56.53714,5.4683],[-56.54063,5.48652],[-56.54644,5.49231],[-56.55138,5.49405],[-56.55545,5.49868],[-56.56984,5.49998],[-56.57289,5.49839],[-56.58045,5.51256],[-56.58481,5.51618],[-56.58335,5.52414],[-56.57333,5.53166],[-56.57144,5.53759],[-56.56635,5.54048],[-56.55952,5.53715],[-56.55254,5.53643],[-56.54586,5.53079],[-56.54266,5.53064],[-56.53525,5.536],[-56.53249,5.54019],[-56.53234,5.54641],[-56.53016,5.55017],[-56.52086,5.55017],[-56.51737,5.54627],[-56.51636,5.54019],[-56.51112,5.53658],[-56.50066,5.53281],[-56.4947,5.53122],[-56.49092,5.53296],[-56.48903,5.53788],[-56.49427,5.55147],[-56.49238,5.55827],[-56.49703,5.56999],[-56.50793,5.57852],[-56.51141,5.58792],[-56.51519,5.59024],[-56.5306,5.59472],[-56.53583,5.60253],[-56.53496,5.60687],[-56.53162,5.61237],[-56.5383,5.6183],[-56.54494,5.62187],[-56.54828,5.62679],[-56.54959,5.63113],[-56.54814,5.63605],[-56.54945,5.63995],[-56.55555,5.64559],[-56.56136,5.64516],[-56.56427,5.64704],[-56.56878,5.65355],[-56.56994,5.65962],[-56.5634,5.667],[-56.56907,5.67871],[-56.57401,5.6816],[-56.57197,5.69129],[-56.56558,5.69664],[-56.565,5.69954],[-56.57503,5.71009],[-56.57866,5.71646],[-56.59217,5.72325],[-56.60438,5.74567],[-56.60453,5.75058],[-56.60148,5.76186],[-56.59566,5.76562],[-56.60387,5.95748]]]}},{"type":"Feature","properties":{"shapeName":"Para","shapeISO":"SR-PR","shapeID":"93550828B25693187591601","shapeGroup":"SUR","shapeType":"ADM1"},"geometry":{"type":"Polygon","coordinates":[[[-54.83435,5.00231],[-54.81997,5.03711],[-54.81627,5.0539],[-54.8175,5.07929],[-54.79654,5.12965],[-54.79325,5.17263],[-54.77927,5.19433],[-54.73611,5.22258],[-54.73077,5.23936],[-54.73529,5.2586],[-54.73323,5.27088],[-54.71679,5.27456],[-54.71062,5.29298],[-54.69994,5.29666],[-54.68719,5.31918],[-54.68185,5.33718],[-54.68308,5.34619],[-54.6798,5.35928],[-54.67157,5.37156],[-54.66565,5.38439],[-54.65669,5.39065],[-54.6375,5.39702],[-54.62229,5.41339],[-54.60626,5.4404],[-54.59064,5.47395],[-54.59105,5.51405],[-54.59722,5.53901],[-54.60702,5.5651],[-55.04264,5.53771],[-55.03937,5.55556],[-55.03917,5.56588],[-55.04376,5.58129],[-55.04421,5.59139],[-55.04174,5.61396],[-55.04424,5.61721],[-55.05237,5.62078],[-55.06038,5.62308],[-55.06486,5.62263],[-55.06832,5.62014],[-55.07383,5.60701],[-55.07678,5.6058],[-55.08305,5.60803],[-55.08747,5.61179],[-55.08933,5.61498],[-55.0894,5.61881],[-55.08786,5.62289],[-55.08402,5.62633],[-55.07127,5.63385],[-55.06832,5.63927],[-55.06409,5.65393],[-55.06,5.65884],[-55.03565,5.66738],[-55.02723,5.67658],[-55.02573,5.68523],[-55.02771,5.69039],[-55.0345,5.69689],[-55.04052,5.69912],[-55.06817,5.70199],[-55.07047,5.67559],[-55.08229,5.67689],[-55.08309,5.67139],[-55.09797,5.67521],[-55.09737,5.67911],[-55.12147,5.67182],[-55.12055,5.68103],[-55.11511,5.68529],[-55.11587,5.69007],[-55.11937,5.69248],[-55.17052,5.67656],[-55.17306,5.68336],[-55.17843,5.6847],[-55.18604,5.67483],[-55.19186,5.66332],[-55.22612,5.66772],[-55.34356,5.67013],[-55.34618,5.65032],[-55.35097,5.64685],[-55.35737,5.64555],[-55.36144,5.64627],[-55.36841,5.65958],[-55.37292,5.66146],[-55.386,5.65987],[-55.39879,5.64974],[-55.40169,5.64323],[-55.40489,5.63571],[-55.40242,5.62617],[-55.39748,5.62241],[-55.39384,5.62183],[-55.38193,5.62371],[-55.37655,5.62212],[-55.37175,5.61821],[-55.37088,5.61344],[-55.3725,5.60734],[-55.37846,5.60182],[-55.38833,5.60202],[-55.39532,5.59834],[-55.40087,5.59179],[-55.40087,5.58729],[-55.39778,5.58177],[-55.39799,5.56725],[-55.4021,5.56336],[-55.41196,5.56132],[-55.41607,5.55682],[-55.41628,5.54147],[-55.41237,5.53534],[-55.40539,5.52961],[-55.3873,5.52859],[-55.38381,5.52593],[-55.37415,5.50731],[-55.37538,5.50363],[-55.37887,5.50015],[-55.38525,5.49913],[-55.39121,5.50179],[-55.3984,5.50035],[-55.39819,5.49585],[-55.39285,5.48501],[-55.39285,5.4756],[-55.39449,5.47192],[-55.40374,5.46946],[-55.4134,5.46476],[-55.41566,5.45862],[-55.41957,5.45575],[-55.42553,5.45841],[-55.43026,5.47253],[-55.4356,5.47212],[-55.44115,5.46742],[-55.44177,5.46455],[-55.4395,5.45903],[-55.43539,5.45534],[-55.43252,5.45002],[-55.43642,5.44327],[-55.44362,5.43959],[-55.44896,5.44061],[-55.44978,5.4445],[-55.44567,5.45268],[-55.44464,5.45862],[-55.44711,5.46312],[-55.45328,5.46251],[-55.46478,5.45105],[-55.47588,5.45043],[-55.47629,5.4445],[-55.75581,5.41852],[-55.7702,5.41667],[-55.77061,5.41401],[-55.77637,5.41299],[-55.7815,5.41647],[-55.79137,5.41606],[-55.79157,5.41074],[-55.79425,5.40992],[-55.80144,5.41422],[-55.80349,5.41913],[-55.80802,5.42077],[-55.80925,5.41708],[-55.8261,5.42629],[-55.83042,5.42118],[-55.837,5.42077],[-55.84707,5.4265],[-55.85529,5.42077],[-55.87009,5.42547],[-55.87111,5.41872],[-55.88118,5.41156],[-55.89023,5.41033],[-55.89167,5.40747],[-55.89043,5.40174],[-55.89187,5.39601],[-55.89516,5.39662],[-55.89804,5.40256],[-55.90174,5.40542],[-55.90544,5.40215],[-55.90688,5.39499],[-55.91016,5.39335],[-55.91715,5.40256],[-55.92147,5.39232],[-55.92804,5.39458],[-55.9301,5.39764],[-55.92804,5.40215],[-55.91921,5.40788],[-55.91839,5.4132],[-55.92044,5.41483],[-55.92106,5.4179],[-55.91469,5.42731],[-55.91736,5.43263],[-55.91571,5.43407],[-55.90873,5.43447],[-55.89742,5.44143],[-55.89578,5.4447],[-55.89639,5.44777],[-55.90276,5.44941],[-55.91016,5.44839],[-55.91921,5.44941],[-55.92023,5.46394],[-55.91181,5.4713],[-55.91078,5.47826],[-55.91222,5.48378],[-55.91695,5.48215],[-55.92126,5.48276],[-55.92578,5.49258],[-55.92311,5.49872],[-55.91777,5.50097],[-55.90996,5.49954],[-55.90359,5.48624],[-55.89722,5.48644],[-55.89393,5.48849],[-55.8966,5.49094],[-55.89393,5.49892],[-55.87863,5.50762],[-55.87907,5.51427],[-55.88488,5.52208],[-55.89055,5.52266],[-55.89331,5.51977],[-55.89375,5.51326],[-55.90029,5.50979],[-55.90843,5.51398],[-55.91555,5.52743],[-55.93821,5.46949],[-55.96596,5.35613],[-55.97007,5.25851],[-55.98651,5.17869],[-56.00463,5.11596],[-55.97092,5.10736],[-55.9105,5.10532],[-55.88254,5.11596],[-55.82048,5.11719],[-55.7658,5.10982],[-55.73621,5.08607],[-55.73251,5.07338],[-55.70497,5.06356],[-55.69551,5.0525],[-55.70702,5.03858],[-55.71031,5.01892],[-55.69921,5.00295],[-55.69387,4.98903],[-55.617,4.99927],[-55.587,5.01401],[-55.53233,5.06888],[-55.51794,5.08648],[-55.50684,5.07911],[-55.48546,5.08812],[-55.4941,5.10614],[-55.47067,5.11351],[-55.46532,5.12333],[-55.4682,5.13398],[-55.446,5.13398],[-55.41353,5.16386],[-55.38599,5.19661],[-55.36548,5.21557],[-55.36999,5.22355],[-55.36715,5.23301],[-55.35996,5.23701],[-55.34905,5.23496],[-55.3508,5.23889],[-55.34536,5.24678],[-55.34637,5.25341],[-55.35436,5.25457],[-55.34695,5.25899],[-55.35117,5.26914],[-55.34629,5.27606],[-55.33773,5.28405],[-55.33641,5.29343],[-55.346,5.30848],[-55.36519,5.31311],[-55.35036,5.32411],[-55.34804,5.33337],[-54.98466,5.33397],[-54.97683,5.31135],[-54.97617,5.2279],[-54.92355,5.19965],[-54.90588,5.18696],[-54.88121,5.16363],[-54.87381,5.14193],[-54.87998,5.12719],[-54.88943,5.11737],[-54.88861,5.10631],[-54.86148,5.08502],[-54.85861,5.04448],[-54.86642,4.99985],[-54.86354,4.9892],[-54.83846,4.98961],[-54.83435,5.00231]]]}},{"type":"Feature","properties":{"shapeName":"Paramaribo","shapeISO":"SR-PM","shapeID":"93550828B84160656428348","shapeGroup":"SUR","shapeType":"ADM1"},"geometry":{"type":"Polygon","coordinates":[[[-55.09414,5.89038],[-55.1165,5.88654],[-55.12252,5.89288],[-55.13861,5.90434],[-55.15775,5.90898],[-55.15893,5.90739],[-55.17418,5.90341],[-55.1765,5.89996],[-55.17961,5.89942],[-55.18064,5.89605],[-55.18616,5.89562],[-55.21256,5.8983],[-55.21628,5.90059],[-55.22567,5.90165],[-55.22593,5.90501],[-55.22792,5.90272],[-55.24171,5.91022],[-55.2452,5.85625],[-55.22786,5.85515],[-55.22962,5.826],[-55.22559,5.82574],[-55.22375,5.81799],[-55.22178,5.81714],[-55.22069,5.79193],[-55.22136,5.79025],[-55.22472,5.79042],[-55.22967,5.7814],[-55.19566,5.77912],[-55.19609,5.7783],[-55.18333,5.77368],[-55.18408,5.77225],[-55.16729,5.76655],[-55.16428,5.77208],[-55.16338,5.77127],[-55.1469,5.78692],[-55.1586,5.80808],[-55.15914,5.81293],[-55.15738,5.81598],[-55.15462,5.81749],[-55.14538,5.81811],[-55.13505,5.8164],[-55.12006,5.81673],[-55.1124,5.81972],[-55.10147,5.82713],[-55.09437,5.83751],[-55.08896,5.85224],[-55.0896,5.86636],[-55.09507,5.88427],[-55.09414,5.89038]]]}},{"type":"Feature","properties":{"shapeName":"Saramacca","shapeISO":"SR-SA","shapeID":"93550828B82794982350584","shapeGroup":"SUR","shapeType":"ADM1"},"geometry":{"type":"Polygon","coordinates":[[[-55.90787,5.54435],[-55.9045,5.54132],[-55.90523,5.53669],[-55.91453,5.53018],[-55.91555,5.52743],[-55.90843,5.51398],[-55.90029,5.50979],[-55.89375,5.51326],[-55.89331,5.51977],[-55.89055,5.52266],[-55.88488,5.52208],[-55.87907,5.51427],[-55.87863,5.50762],[-55.89393,5.49892],[-55.8966,5.49094],[-55.89393,5.48849],[-55.89722,5.48644],[-55.90359,5.48624],[-55.90996,5.49954],[-55.91777,5.50097],[-55.92311,5.49872],[-55.92578,5.49258],[-55.92126,5.48276],[-55.91695,5.48215],[-55.91222,5.48378],[-55.91078,5.47826],[-55.91181,5.4713],[-55.92023,5.46394],[-55.91921,5.44941],[-55.91016,5.44839],[-55.90276,5.44941],[-55.89639,5.44777],[-55.89578,5.4447],[-55.89742,5.44143],[-55.90873,5.43447],[-55.91571,5.43407],[-55.91736,5.43263],[-55.91469,5.42731],[-55.92106,5.4179],[-55.92044,5.41483],[-55.91839,5.4132],[-55.91921,5.40788],[-55.92804,5.40215],[-55.9301,5.39764],[-55.92804,5.39458],[-55.92147,5.39232],[-55.91715,5.40256],[-55.91016,5.39335],[-55.90688,5.39499],[-55.90544,5.40215],[-55.90174,5.40542],[-55.89804,5.40256],[-55.89516,5.39662],[-55.89187,5.39601],[-55.89043,5.40174],[-55.89167,5.40747],[-55.89023,5.41033],[-55.88118,5.41156],[-55.87111,5.41872],[-55.87009,5.42547],[-55.85529,5.42077],[-55.84707,5.4265],[-55.837,5.42077],[-55.83042,5.42118],[-55.8261,5.42629],[-55.80925,5.41708],[-55.80802,5.42077],[-55.80349,5.41913],[-55.80144,5.41422],[-55.79425,5.40992],[-55.79157,5.41074],[-55.79137,5.41606],[-55.7815,5.41647],[-55.77637,5.41299],[-55.77061,5.41401],[-55.7702,5.41667],[-55.75581,5.41852],[-55.47629,5.4445],[-55.47588,5.45043],[-55.46478,5.45105],[-55.45328,5.46251],[-55.44711,5.46312],[-55.44464,5.45862],[-55.44567,5.45268],[-55.44978,5.4445],[-55.44896,5.44061],[-55.44362,5.43959],[-55.43642,5.44327],[-55.43252,5.45002],[-55.43539,5.45534],[-55.4395,5.45903],[-55.44177,5.46455],[-55.44115,5.46742],[-55.4356,5.47212],[-55.43026,5.47253],[-55.42553,5.45841],[-55.41957,5.45575],[-55.41566,5.45862],[-55.4134,5.46476],[-55.40374,5.46946],[-55.39449,5.47192],[-55.39285,5.4756],[-55.39285,5.48501],[-55.39819,5.49585],[-55.3984,5.50035],[-55.39121,5.50179],[-55.38525,5.49913],[-55.37887,5.50015],[-55.37538,5.50363],[-55.37415,5.50731],[-55.38381,5.52593],[-55.3873,5.52859],[-55.40539,5.52961],[-55.41237,5.53534],[-55.41628,5.54147],[-55.41607,5.55682],[-55.41196,5.56132],[-55.4021,5.56336],[-55.39799,5.56725],[-55.39778,5.58177],[-55.40087,5.58729],[-55.40087,5.59179],[-55.39532,5.59834],[-55.38833,5.60202],[-55.37846,5.60182],[-55.3725,5.60734],[-55.37088,5.61344],[-55.37175,5.61821],[-55.37655,5.62212],[-55.38193,5.62371],[-55.39384,5.62183],[-55.39748,5.62241],[-55.40242,5.62617],[-55.40489,5.63571],[-55.40169,5.64323],[-55.39879,5.64974],[-55.386,5.65987],[-55.37292,5.66146],[-55.36841,5.65958],[-55.36144,5.64627],[-55.35737,5.64555],[-55.35097,5.64685],[-55.34618,5.65032],[-55.34356,5.67013],[-55.34468,5.67732],[-55.35355,5.69438],[-55.35834,5.71217],[-55.35442,5.72648],[-55.35443,5.75336],[-55.3495,5.7642],[-55.31271,5.75908],[-55.24631,5.91185],[-55.27066,5.92353],[-55.27243,5.9233],[-55.27862,5.92854],[-55.2922,5.93611],[-55.29499,5.93606],[-55.30252,5.94112],[-55.312,5.94379],[-55.31159,5.94653],[-55.31613,5.94907],[-55.31923,5.94816],[-55.31907,5.94972],[-55.32345,5.95222],[-55.33189,5.95383],[-55.33015,5.9554],[-55.33731,5.9631],[-55.35074,5.96354],[-55.35767,5.96614],[-55.3567,5.96737],[-55.36254,5.96659],[-55.36324,5.968],[-55.37175,5.97034],[-55.3801,5.96976],[-55.3896,5.97117],[-55.39479,5.97406],[-55.3969,5.97358],[-55.39621,5.97468],[-55.39816,5.97625],[-55.41838,5.97479],[-55.42647,5.97785],[-55.44809,5.98168],[-55.4552,5.97995],[-55.47338,5.98586],[-55.50328,5.98746],[-55.53732,5.99441],[-55.54397,5.99925],[-55.56122,5.99609],[-55.60425,6.00041],[-55.64646,5.99715],[-55.66749,5.99702],[-55.69,5.99244],[-55.70767,5.99151],[-55.72486,5.98449],[-55.77063,5.97988],[-55.81736,5.98196],[-55.81967,5.98326],[-55.8467,5.97919],[-55.87297,5.97051],[-55.87648,5.96991],[-55.8833,5.97211],[-55.89321,5.97004],[-55.89858,5.96214],[-55.9029,5.95052],[-55.90562,5.94829],[-55.90852,5.94829],[-55.9108,5.9449],[-55.91477,5.94283],[-55.91968,5.93401],[-55.92377,5.93125],[-55.92384,5.92803],[-55.92615,5.92411],[-55.93567,5.91474],[-55.93575,5.91251],[-55.94228,5.90291],[-55.95463,5.88862],[-55.95628,5.8816],[-55.95528,5.87787],[-55.95662,5.87599],[-55.95605,5.87069],[-55.95036,5.86462],[-55.94718,5.85752],[-55.93769,5.84892],[-55.9311,5.84689],[-55.91893,5.83201],[-55.9119,5.81287],[-55.88258,5.7598],[-55.87621,5.74254],[-55.87389,5.73112],[-55.87453,5.72268],[-55.88545,5.68488],[-55.89352,5.6691],[-55.90263,5.65863],[-55.90373,5.66249],[-55.91314,5.65794],[-55.9268,5.66054],[-55.9486,5.66155],[-55.96197,5.65751],[-55.96909,5.64912],[-55.97055,5.63798],[-55.96197,5.59951],[-55.9502,5.58823],[-55.93668,5.57839],[-55.91939,5.56885],[-55.91111,5.55655],[-55.90787,5.54435]]]}},{"type":"Feature","properties":{"shapeName":"Sipaliwini","shapeISO":"SR-SI","shapeID":"93550828B83086528091097","shapeGroup":"SUR","shapeType":"ADM1"},"geometry":{"type":"Polygon","coordinates":[[[-55.48546,5.08812],[-55.50684,5.07911],[-55.51794,5.08648],[-55.53233,5.06888],[-55.587,5.01401],[-55.617,4.99927],[-55.69387,4.98903],[-55.69921,5.00295],[-55.71031,5.01892],[-55.70702,5.03858],[-55.69551,5.0525],[-55.70497,5.06356],[-55.73251,5.07338],[-55.73621,5.08607],[-55.7658,5.10982],[-55.82048,5.11719],[-55.88254,5.11596],[-55.9105,5.10532],[-55.97092,5.10736],[-56.00463,5.11596],[-55.98651,5.17869],[-55.97007,5.25851],[-55.96596,5.35613],[-55.93821,5.46949],[-55.91555,5.52743],[-55.91453,5.53018],[-55.90523,5.53669],[-55.9045,5.54132],[-55.90787,5.54435],[-55.91291,5.53617],[-55.93613,5.53085],[-55.95288,5.53105],[-55.96048,5.5289],[-55.97045,5.52123],[-55.9721,5.51673],[-55.96531,5.50691],[-55.96069,5.50517],[-55.95463,5.50016],[-55.95116,5.49154],[-55.95276,5.48272],[-55.95596,5.47968],[-55.97035,5.48329],[-55.97791,5.4804],[-55.98546,5.47071],[-55.99287,5.46478],[-56.00654,5.4613],[-56.00988,5.45479],[-56.00828,5.43396],[-56.01453,5.43353],[-56.02615,5.43714],[-56.03328,5.43599],[-56.04185,5.43801],[-56.04694,5.43642],[-56.04679,5.42571],[-56.04335,5.41795],[-56.04437,5.41366],[-56.05218,5.40793],[-56.04787,5.40568],[-56.0454,5.40077],[-56.04633,5.39698],[-56.05547,5.39831],[-56.05742,5.39371],[-56.05373,5.38941],[-56.05259,5.38368],[-56.05866,5.38112],[-56.07356,5.3802],[-56.07582,5.38286],[-56.07561,5.38951],[-56.0789,5.39307],[-56.08442,5.39422],[-56.29253,5.39857],[-56.30939,5.38381],[-56.32654,5.36471],[-56.34863,5.35024],[-56.36985,5.32361],[-56.38322,5.31811],[-56.39702,5.32587],[-56.40894,5.33835],[-56.41305,5.33876],[-56.42548,5.33323],[-56.4299,5.33538],[-56.44563,5.336],[-56.45487,5.33354],[-56.45734,5.33663],[-56.46042,5.3357],[-56.46371,5.33816],[-56.46731,5.33867],[-56.47111,5.33775],[-56.47409,5.33386],[-56.47738,5.33253],[-56.48673,5.33223],[-56.49361,5.32864],[-56.73778,5.3487],[-57.11965,5.27912],[-57.13075,5.28403],[-57.22207,5.26325],[-57.21441,5.25156],[-57.21201,5.2345],[-57.20697,5.22434],[-57.18029,5.19577],[-57.17628,5.16942],[-57.1785,5.16107],[-57.1865,5.15623],[-57.20624,5.15176],[-57.20962,5.14891],[-57.21325,5.13641],[-57.22046,5.13057],[-57.22982,5.13066],[-57.23278,5.13841],[-57.23545,5.16183],[-57.25795,5.17968],[-57.26359,5.18219],[-57.28833,5.17779],[-57.29142,5.17547],[-57.29598,5.16806],[-57.29667,5.14028],[-57.29944,5.1225],[-57.30139,5.11778],[-57.31759,5.09956],[-57.32234,5.08946],[-57.32314,5.08247],[-57.32194,5.06389],[-57.31311,5.05681],[-57.29912,5.05266],[-57.29417,5.04945],[-57.28596,5.03815],[-57.28417,5.02611],[-57.28717,5.01541],[-57.2926,5.01319],[-57.30134,5.01282],[-57.30755,5.0169],[-57.31379,5.02769],[-57.31995,5.03291],[-57.33041,5.03517],[-57.33556,5.0314],[-57.33581,5.02361],[-57.34265,5.01518],[-57.35361,5.01194],[-57.35889,5.01207],[-57.37114,5.01576],[-57.37886,5.01399],[-57.39038,5.00767],[-57.39333,5.00361],[-57.40889,4.99194],[-57.42,4.98944],[-57.44194,4.99472],[-57.47333,4.98944],[-57.48639,4.99],[-57.49667,4.99333],[-57.51292,4.99605],[-57.52111,5.00786],[-57.53215,5.01057],[-57.54558,5.00901],[-57.54999,5.00405],[-57.57472,5.00028],[-57.58972,4.99472],[-57.60778,4.99194],[-57.62,4.99333],[-57.63389,5.00028],[-57.67,5.01194],[-57.67639,5.0125],[-57.68778,5.01056],[-57.74944,4.96417],[-57.755,4.95583],[-57.75556,4.94972],[-57.75306,4.93889],[-57.755,4.93417],[-57.76667,4.92528],[-57.77611,4.92111],[-57.78861,4.92111],[-57.80556,4.92444],[-57.82611,4.93139],[-57.83667,4.93056],[-57.84056,4.92806],[-57.87,4.88889],[-57.86861,4.89167],[-57.90417,4.85222],[-57.91806,4.83167],[-57.92444,4.81667],[-57.92639,4.805],[-57.92444,4.79333],[-57.92083,4.78306],[-57.9175,4.77972],[-57.90028,4.77639],[-57.89056,4.77222],[-57.88444,4.76472],[-57.87833,4.75028],[-57.87194,4.7225],[-57.85389,4.69306],[-57.84389,4.68222],[-57.83861,4.66694],[-57.83861,4.65472],[-57.84472,4.63361],[-57.84889,4.62417],[-57.8675,4.59472],[-57.87694,4.57417],[-57.89556,4.5175],[-57.91056,4.48472],[-57.91806,4.45861],[-57.92222,4.44917],[-57.92778,4.44083],[-57.94139,4.42722],[-57.95861,4.40333],[-57.96056,4.39167],[-57.95917,4.37944],[-57.94833,4.34944],[-57.94889,4.31722],[-57.95361,4.28806],[-57.96278,4.27639],[-57.97639,4.26889],[-57.99083,4.25583],[-58.0025,4.24],[-58.01278,4.22972],[-58.03389,4.21694],[-58.04083,4.21],[-58.06556,4.17444],[-58.06944,4.165],[-58.07083,4.1525],[-58.06889,4.14111],[-58.06472,4.12472],[-58.05333,4.09528],[-58.04917,4.07889],[-58.04917,4.02694],[-58.04694,4.00833],[-58.04333,3.99806],[-58.01611,3.96389],[-57.95694,3.92028],[-57.94333,3.90639],[-57.92889,3.88667],[-57.91194,3.85583],[-57.89,3.83],[-57.87611,3.80944],[-57.85917,3.77194],[-57.85028,3.74639],[-57.84694,3.7225],[-57.84556,3.68972],[-57.84278,3.67889],[-57.83583,3.665],[-57.82083,3.65278],[-57.76056,3.62417],[-57.755,3.62278],[-57.73444,3.61028],[-57.72278,3.59472],[-57.71722,3.57972],[-57.71472,3.56806],[-57.70972,3.55917],[-57.70222,3.55306],[-57.66861,3.53861],[-57.65639,3.52361],[-57.65278,3.51333],[-57.65028,3.49556],[-57.63639,3.46139],[-57.63722,3.45528],[-57.64139,3.44556],[-57.64667,3.4375],[-57.65972,3.40944],[-57.66528,3.40111],[-57.66611,3.38944],[-57.65972,3.375],[-57.64667,3.36083],[-57.63833,3.35528],[-57.61944,3.34722],[-57.60361,3.34222],[-57.59751,3.34167],[-57.58028,3.345],[-57.56112,3.34361],[-57.55501,3.34444],[-57.55001,3.34639],[-57.53723,3.36083],[-57.52695,3.36417],[-57.52056,3.36472],[-57.51584,3.36278],[-57.50001,3.35111],[-57.48973,3.34778],[-57.4789,3.33833],[-57.47334,3.33833],[-57.46167,3.34722],[-57.45278,3.35194],[-57.43501,3.35472],[-57.43028,3.35667],[-57.42751,3.36083],[-57.42417,3.37111],[-57.42417,3.37778],[-57.42195,3.38278],[-57.41167,3.37917],[-57.40473,3.3725],[-57.38778,3.36222],[-57.3739,3.36222],[-57.35778,3.35806],[-57.34667,3.35944],[-57.3289,3.36889],[-57.31723,3.38472],[-57.31306,3.3875],[-57.30834,3.38944],[-57.30334,3.3875],[-57.30001,3.38417],[-57.30001,3.36472],[-57.29862,3.35944],[-57.28973,3.34778],[-57.28028,3.33],[-57.2789,3.32444],[-57.2814,3.31361],[-57.28501,3.31028],[-57.28723,3.30528],[-57.28362,3.295],[-57.28417,3.28889],[-57.29473,3.27861],[-57.29251,3.26694],[-57.28306,3.2425],[-57.29056,3.18167],[-57.28973,3.17528],[-57.28223,3.16917],[-57.27695,3.16778],[-57.27473,3.16306],[-57.28306,3.15],[-57.28501,3.14528],[-57.28501,3.13972],[-57.28306,3.135],[-57.27945,3.13167],[-57.26973,3.12889],[-57.26362,3.12944],[-57.24806,3.14111],[-57.24306,3.14333],[-57.23834,3.14111],[-57.2364,3.13639],[-57.23695,3.13028],[-57.2489,3.10889],[-57.25084,3.0975],[-57.24667,3.08778],[-57.22112,3.07611],[-57.21501,3.07],[-57.21084,3.06056],[-57.21084,3.04667],[-57.20473,3.02556],[-57.20751,3.02139],[-57.21278,3.02278],[-57.21917,3.02222],[-57.22473,3.02083],[-57.22806,3.01722],[-57.2289,3.0125],[-57.22723,3.00694],[-57.22001,2.99417],[-57.22112,2.98861],[-57.23028,2.9775],[-57.22806,2.96056],[-57.22612,2.95583],[-57.22056,2.95444],[-57.19723,2.95833],[-57.1864,2.95583],[-57.18362,2.95167],[-57.18556,2.94],[-57.19112,2.93167],[-57.20667,2.92],[-57.21584,2.91528],[-57.22195,2.90778],[-57.2239,2.90306],[-57.21862,2.88806],[-57.20751,2.875],[-57.20612,2.86278],[-57.20834,2.8525],[-57.20612,2.8475],[-57.1939,2.83944],[-57.19112,2.83528],[-57.18973,2.82306],[-57.18778,2.81806],[-57.18278,2.81611],[-57.17667,2.81667],[-57.16695,2.82083],[-57.14917,2.83056],[-57.13695,2.83056],[-57.1314,2.82917],[-57.12751,2.82639],[-57.12473,2.82222],[-57.12612,2.81667],[-57.13778,2.80778],[-57.14584,2.78861],[-57.1464,2.7825],[-57.14445,2.77778],[-57.14195,2.77361],[-57.13778,2.77083],[-57.1314,2.77167],[-57.11778,2.77833],[-57.09862,2.77694],[-57.09028,2.77167],[-57.08917,2.76611],[-57.09112,2.76139],[-57.10278,2.74556],[-57.10278,2.73472],[-57.10056,2.72972],[-57.0939,2.72306],[-57.08195,2.71417],[-57.0739,2.69917],[-57.06501,2.6875],[-57.06084,2.67778],[-57.06028,2.67167],[-57.06362,2.65444],[-57.06362,2.64778],[-57.06028,2.6375],[-57.05612,2.63472],[-57.05056,2.63472],[-57.03695,2.64167],[-57.03084,2.64222],[-57.02473,2.64167],[-57.02056,2.63889],[-57.01778,2.63472],[-57.02112,2.62444],[-57.02667,2.61611],[-57.02806,2.61083],[-57.02723,2.59222],[-57.02306,2.58278],[-57.0164,2.57583],[-57.0114,2.57389],[-57.0039,2.56778],[-56.99695,2.55528],[-56.99584,2.54306],[-56.99917,2.52028],[-56.99667,2.50944],[-56.98945,2.5025],[-56.98417,2.5025],[-56.97528,2.5075],[-56.96445,2.51694],[-56.95945,2.51889],[-56.95334,2.51833],[-56.95001,2.515],[-56.95001,2.5025],[-56.95751,2.48278],[-56.95806,2.47667],[-56.95612,2.465],[-56.94667,2.44722],[-56.94251,2.44444],[-56.93667,2.44306],[-56.93251,2.44028],[-56.93001,2.43611],[-56.93556,2.40889],[-56.93473,2.39722],[-56.93223,2.39306],[-56.92528,2.38611],[-56.90612,2.37806],[-56.89778,2.3725],[-56.89028,2.36639],[-56.88751,2.36222],[-56.88334,2.34583],[-56.88334,2.33222],[-56.88667,2.30806],[-56.88417,2.29722],[-56.8814,2.29306],[-56.87723,2.29028],[-56.84501,2.28139],[-56.83667,2.27583],[-56.8264,2.26556],[-56.82362,2.25472],[-56.82167,2.23611],[-56.82167,2.21694],[-56.81945,2.20528],[-56.81001,2.19444],[-56.77167,2.13694],[-56.75917,2.12194],[-56.7389,2.10139],[-56.72362,2.08222],[-56.7039,2.04722],[-56.69556,2.03639],[-56.69167,2.02944],[-56.69167,2.02667],[-56.58584,2.02806],[-56.56278,2.02389],[-56.54917,2.01722],[-56.53723,2.00833],[-56.51945,1.985],[-56.50667,1.9775],[-56.48917,1.97389],[-56.48112,1.96861],[-56.46895,1.94918],[-56.45416,1.95234],[-56.45126,1.95614],[-56.44468,1.94854],[-56.43702,1.9517],[-56.43207,1.94646],[-56.42288,1.94573],[-56.42257,1.93894],[-56.41182,1.92826],[-56.40359,1.93025],[-56.39699,1.92328],[-56.38999,1.92337],[-56.38862,1.93287],[-56.37207,1.93286],[-56.36902,1.9373],[-56.35821,1.94145],[-56.33935,1.93538],[-56.33493,1.9371],[-56.3214,1.92362],[-56.30904,1.9209],[-56.30274,1.91167],[-56.29527,1.90868],[-56.29077,1.91049],[-56.28999,1.90651],[-56.27229,1.89655],[-56.26312,1.8856],[-56.24404,1.87808],[-56.23446,1.89861],[-56.21502,1.90204],[-56.20896,1.89435],[-56.20096,1.89615],[-56.19891,1.89253],[-56.18243,1.89262],[-56.1709,1.90048],[-56.16852,1.88763],[-56.16026,1.89143],[-56.15262,1.8907],[-56.14113,1.87505],[-56.13255,1.86989],[-56.1299,1.85921],[-56.12018,1.85712],[-56.11762,1.85097],[-56.11285,1.85504],[-56.09865,1.84653],[-56.09019,1.85376],[-56.08535,1.85304],[-56.08135,1.84589],[-56.07741,1.84507],[-56.07546,1.84977],[-56.06646,1.85185],[-56.04993,1.85085],[-56.04343,1.84722],[-56.03665,1.85021],[-56.02901,1.84161],[-56.02409,1.8426],[-55.99896,1.83128],[-55.99569,1.8349],[-55.98321,1.83552],[-55.97935,1.84194],[-55.97598,1.84031],[-55.9701,1.84827],[-55.95638,1.84509],[-55.9343,1.87149],[-55.91488,1.88469],[-55.90385,1.88803],[-55.90193,1.90775],[-55.92052,1.91898],[-55.92199,1.93327],[-55.92954,1.93924],[-55.92248,1.95036],[-55.93635,1.98647],[-55.93513,1.9965],[-55.92915,1.99731],[-55.92271,1.99125],[-55.91374,1.99052],[-55.90793,2.00128],[-55.90674,2.0134],[-55.91079,2.0144],[-55.91051,2.022],[-55.90205,2.02932],[-55.9031,2.04108],[-55.90879,2.04741],[-55.93282,2.05774],[-55.92668,2.0751],[-55.9291,2.07863],[-55.9381,2.07846],[-55.94871,2.09167],[-55.96682,2.08843],[-55.97298,2.10318],[-55.96974,2.11303],[-55.97343,2.1162],[-55.97816,2.11512],[-55.97552,2.12597],[-55.98213,2.13186],[-55.99135,2.13132],[-55.99376,2.13955],[-55.98666,2.14579],[-56.00307,2.1676],[-56.0141,2.16535],[-56.03507,2.1688],[-56.04582,2.17713],[-56.04971,2.18437],[-56.05505,2.18464],[-56.05627,2.18935],[-56.04687,2.19594],[-56.03615,2.21349],[-56.03782,2.21964],[-56.04337,2.22127],[-56.04288,2.22778],[-56.05804,2.2334],[-56.06879,2.24281],[-56.07732,2.23748],[-56.08798,2.24988],[-56.09571,2.24609],[-56.09602,2.24139],[-56.10893,2.24474],[-56.12038,2.25027],[-56.12304,2.25868],[-56.13887,2.26574],[-56.13705,2.27072],[-56.12534,2.27822],[-56.12807,2.28645],[-56.11449,2.29857],[-56.1134,2.31105],[-56.10718,2.31828],[-56.09376,2.32117],[-56.09193,2.32985],[-56.0956,2.33827],[-56.08888,2.35147],[-56.09221,2.36007],[-56.08904,2.36404],[-56.09012,2.37228],[-56.08437,2.37499],[-56.08087,2.37317],[-56.0809,2.36901],[-56.07388,2.37082],[-56.06118,2.35489],[-56.05913,2.34295],[-56.0506,2.33498],[-56.02957,2.33243],[-56.02965,2.33958],[-56.02181,2.34247],[-56.02251,2.34744],[-56.0269,2.34709],[-56.02693,2.35532],[-56.03301,2.36419],[-56.03997,2.36627],[-56.0366,2.37423],[-56.02468,2.38236],[-56.02323,2.39086],[-56.01469,2.39981],[-56.00701,2.40153],[-56.00145,2.41292],[-55.9894,2.41774],[-55.98701,2.42033],[-55.9894,2.42154],[-55.98941,2.42712],[-55.98537,2.42928],[-55.98943,2.43623],[-55.99207,2.4386],[-55.99501,2.43562],[-56.00318,2.44585],[-56.00894,2.44432],[-56.01151,2.45282],[-55.98947,2.46945],[-55.98813,2.47867],[-55.97749,2.48961],[-55.9779,2.49639],[-55.98952,2.50126],[-55.99288,2.50455],[-55.98955,2.51693],[-55.97957,2.51883],[-55.97824,2.52733],[-55.97368,2.52579],[-55.97052,2.52931],[-55.9346,2.53345],[-55.92416,2.53054],[-55.92187,2.52285],[-55.92443,2.5186],[-55.9102,2.52004],[-55.9016,2.51723],[-55.89751,2.50555],[-55.88626,2.50346],[-55.88079,2.4889],[-55.87382,2.48789],[-55.86615,2.48138],[-55.85452,2.48055],[-55.85073,2.46906],[-55.83882,2.46218],[-55.83021,2.45909],[-55.78388,2.45652],[-55.78137,2.46167],[-55.76663,2.45524],[-55.76151,2.44049],[-55.76746,2.43787],[-55.75673,2.4299],[-55.74696,2.41045],[-55.71694,2.39917],[-55.70417,2.4],[-55.69834,2.42154],[-55.67399,2.4136],[-55.65724,2.42061],[-55.64219,2.41597],[-55.6316,2.41691],[-55.61707,2.41984],[-55.61266,2.42617],[-55.60429,2.43007],[-55.59349,2.43327],[-55.58968,2.4313],[-55.57463,2.43775],[-55.5706,2.42352],[-55.55143,2.42944],[-55.52793,2.42862],[-55.52473,2.43585],[-55.50424,2.43934],[-55.49971,2.44324],[-55.48224,2.4386],[-55.42938,2.43887],[-55.38533,2.41836],[-55.34557,2.44799],[-55.35615,2.47556],[-55.32018,2.51537],[-55.27729,2.51235],[-55.23474,2.50338],[-55.20755,2.52278],[-55.1728,2.55934],[-55.1234,2.56762],[-55.10302,2.52564],[-55.05624,2.55313],[-55.00374,2.59093],[-54.95424,2.5836],[-54.93535,2.51849],[-54.86846,2.43989],[-54.83861,2.43472],[-54.81861,2.43417],[-54.80639,2.43556],[-54.78861,2.445],[-54.77083,2.46139],[-54.76472,2.46917],[-54.75361,2.47167],[-54.74111,2.47056],[-54.71528,2.46222],[-54.69806,2.45889],[-54.68917,2.45389],[-54.68639,2.45],[-54.68583,2.44361],[-54.68639,2.4375],[-54.69111,2.42861],[-54.69194,2.4225],[-54.68444,2.40944],[-54.68389,2.40333],[-54.68639,2.39917],[-54.69861,2.39778],[-54.70778,2.39306],[-54.7125,2.38417],[-54.7125,2.37861],[-54.70778,2.37111],[-54.6975,2.36083],[-54.69528,2.35611],[-54.69667,2.33694],[-54.69528,2.33139],[-54.6925,2.32722],[-54.68861,2.32472],[-54.67833,2.32111],[-54.64667,2.31833],[-54.62889,2.32111],[-54.60833,2.32806],[-54.59725,2.3417],[-54.59245,2.34153],[-54.59366,2.34772],[-54.58921,2.35187],[-54.58573,2.34928],[-54.58173,2.34911],[-54.5722,2.35427],[-54.55248,2.34979],[-54.53243,2.34132],[-54.53339,2.33511],[-54.52609,2.33228],[-54.5181,2.33786],[-54.50831,2.33717],[-54.5052,2.33854],[-54.50393,2.34196],[-54.51062,2.36076],[-54.50917,2.36848],[-54.50522,2.3779],[-54.50622,2.38086],[-54.5045,2.39274],[-54.50227,2.39446],[-54.49921,2.40236],[-54.4947,2.40711],[-54.48515,2.41256],[-54.48285,2.41882],[-54.47306,2.43001],[-54.47376,2.43398],[-54.46966,2.43454],[-54.46783,2.43236],[-54.46759,2.4351],[-54.46555,2.43327],[-54.46253,2.43525],[-54.45732,2.43245],[-54.45573,2.43467],[-54.45422,2.43206],[-54.45152,2.43115],[-54.44971,2.43432],[-54.44791,2.43322],[-54.44729,2.4341],[-54.44556,2.43213],[-54.44254,2.43264],[-54.43731,2.42952],[-54.43071,2.43747],[-54.42983,2.43567],[-54.42858,2.43818],[-54.42033,2.43623],[-54.41583,2.44128],[-54.41526,2.44461],[-54.41185,2.44538],[-54.41125,2.4513],[-54.40792,2.45006],[-54.40581,2.45445],[-54.40281,2.45582],[-54.4034,2.45804],[-54.4018,2.46151],[-54.3979,2.46157],[-54.39828,2.46305],[-54.40049,2.46248],[-54.39816,2.4664],[-54.39464,2.46824],[-54.39358,2.46647],[-54.39211,2.46824],[-54.39111,2.46582],[-54.3893,2.46875],[-54.39039,2.47011],[-54.38687,2.46968],[-54.38636,2.47397],[-54.38431,2.474],[-54.38722,2.4766],[-54.38827,2.48005],[-54.38534,2.48169],[-54.3858,2.48357],[-54.38313,2.48541],[-54.38299,2.4883],[-54.3797,2.48427],[-54.37179,2.49054],[-54.3738,2.49236],[-54.37428,2.49546],[-54.37195,2.50375],[-54.36863,2.50795],[-54.35993,2.50755],[-54.35972,2.51345],[-54.36142,2.51553],[-54.36042,2.51944],[-54.35921,2.51965],[-54.35939,2.51616],[-54.35456,2.51563],[-54.34879,2.52125],[-54.35002,2.52808],[-54.34781,2.53134],[-54.34606,2.5311],[-54.3425,2.53853],[-54.34348,2.55352],[-54.34615,2.55689],[-54.34127,2.56405],[-54.33876,2.56239],[-54.33395,2.5644],[-54.33021,2.56861],[-54.32703,2.57413],[-54.32937,2.57664],[-54.32884,2.58248],[-54.32108,2.5919],[-54.32295,2.59759],[-54.32211,2.60425],[-54.31671,2.60649],[-54.32082,2.60829],[-54.32077,2.60948],[-54.31555,2.60919],[-54.31594,2.61292],[-54.31331,2.61191],[-54.31207,2.61305],[-54.31185,2.61664],[-54.31482,2.61629],[-54.31624,2.61798],[-54.31744,2.6296],[-54.3119,2.63016],[-54.30959,2.6373],[-54.30808,2.63608],[-54.30762,2.63814],[-54.30443,2.63769],[-54.30233,2.64035],[-54.29949,2.64116],[-54.29403,2.65329],[-54.29394,2.65849],[-54.29146,2.6622],[-54.2805,2.66245],[-54.27563,2.67261],[-54.27767,2.68078],[-54.27633,2.6841],[-54.26775,2.6843],[-54.26666,2.68593],[-54.2679,2.68945],[-54.27226,2.69074],[-54.26299,2.72244],[-54.25624,2.72755],[-54.24374,2.73131],[-54.2435,2.73547],[-54.24092,2.74067],[-54.23526,2.74568],[-54.23348,2.75038],[-54.22624,2.749],[-54.22361,2.75128],[-54.22192,2.75405],[-54.22475,2.75638],[-54.22366,2.76237],[-54.22148,2.76307],[-54.21627,2.75965],[-54.21657,2.76311],[-54.21215,2.76817],[-54.21146,2.77208],[-54.20972,2.77342],[-54.20823,2.77213],[-54.20576,2.7767],[-54.20566,2.79117],[-54.19753,2.80276],[-54.19773,2.80722],[-54.2014,2.81048],[-54.20282,2.81518],[-54.20496,2.81717],[-54.20506,2.82008],[-54.20208,2.82443],[-54.20412,2.82646],[-54.20682,2.82677],[-54.20766,2.82912],[-54.20678,2.8314],[-54.20285,2.8308],[-54.19689,2.83367],[-54.19447,2.83199],[-54.19016,2.83542],[-54.18227,2.84572],[-54.17985,2.85472],[-54.18111,2.86449],[-54.18791,2.86604],[-54.19016,2.86807],[-54.19303,2.87483],[-54.19472,2.88439],[-54.1917,2.88873],[-54.19293,2.89048],[-54.19075,2.89283],[-54.19149,2.89686],[-54.18465,2.90484],[-54.1836,2.91136],[-54.18416,2.91412],[-54.19209,2.91934],[-54.19198,2.92099],[-54.19082,2.92474],[-54.18844,2.92477],[-54.18514,2.92729],[-54.18125,2.92691],[-54.17823,2.92824],[-54.17255,2.93829],[-54.17168,2.94127],[-54.17894,2.94663],[-54.17164,2.94817],[-54.1761,2.95335],[-54.17669,2.95598],[-54.17336,2.96211],[-54.17567,2.96596],[-54.16378,2.96477],[-54.16076,2.96683],[-54.16054,2.96843],[-54.16492,2.97349],[-54.17043,2.97326],[-54.17713,2.97641],[-54.18171,2.98457],[-54.1811,2.99259],[-54.18556,2.99939],[-54.18243,3.00153],[-54.1775,3.00084],[-54.17545,3.00374],[-54.17035,3.00624],[-54.16969,3.00819],[-54.17202,3.01034],[-54.16973,3.01522],[-54.1733,3.02574],[-54.17744,3.03074],[-54.17886,3.03891],[-54.1818,3.04062],[-54.18408,3.05055],[-54.18808,3.05364],[-54.19134,3.05389],[-54.19282,3.06261],[-54.19471,3.06408],[-54.19082,3.0697],[-54.1837,3.07344],[-54.17436,3.07231],[-54.17405,3.08146],[-54.17973,3.08377],[-54.18163,3.08913],[-54.18,3.09464],[-54.17389,3.10477],[-54.17381,3.10812],[-54.17517,3.10964],[-54.178,3.10962],[-54.17916,3.11205],[-54.17918,3.12307],[-54.18451,3.12673],[-54.18266,3.13471],[-54.1836,3.13544],[-54.1859,3.13548],[-54.18912,3.13236],[-54.19215,3.13499],[-54.19478,3.13497],[-54.19569,3.12557],[-54.1978,3.12379],[-54.21041,3.12642],[-54.21421,3.132],[-54.21455,3.13496],[-54.21286,3.13724],[-54.20085,3.14232],[-54.20161,3.1441],[-54.20795,3.14215],[-54.21168,3.14367],[-54.21404,3.15078],[-54.21142,3.15467],[-54.20812,3.15391],[-54.20432,3.15585],[-54.20043,3.15882],[-54.19924,3.16169],[-54.20339,3.16508],[-54.20364,3.17007],[-54.19679,3.18275],[-54.19392,3.19206],[-54.19458,3.19559],[-54.18883,3.20089],[-54.18949,3.20484],[-54.19312,3.20564],[-54.19344,3.20796],[-54.19018,3.21021],[-54.18702,3.20699],[-54.17469,3.20588],[-54.17354,3.21234],[-54.17095,3.21592],[-54.16746,3.2169],[-54.16574,3.22622],[-54.16334,3.22962],[-54.15668,3.23005],[-54.15266,3.23311],[-54.15192,3.24591],[-54.14484,3.25024],[-54.14272,3.25627],[-54.13215,3.26959],[-54.12848,3.27943],[-54.1295,3.28431],[-54.1281,3.28626],[-54.12517,3.28858],[-54.11061,3.28761],[-54.10319,3.29454],[-54.10162,3.29687],[-54.10178,3.29995],[-54.09967,3.30109],[-54.09358,3.29427],[-54.08692,3.29157],[-54.08554,3.29409],[-54.08111,3.29227],[-54.07454,3.29911],[-54.07387,3.30161],[-54.06965,3.30269],[-54.06658,3.30749],[-54.0642,3.31352],[-54.06662,3.32671],[-54.0662,3.32956],[-54.0624,3.3343],[-54.06214,3.35202],[-54.05895,3.35974],[-54.05393,3.36173],[-54.05329,3.36741],[-54.05393,3.37133],[-54.0592,3.37838],[-54.05983,3.38379],[-54.05787,3.38583],[-54.05113,3.38549],[-54.04812,3.38727],[-54.03322,3.40541],[-54.02548,3.40892],[-54.01948,3.4136],[-54.01187,3.42707],[-54.01879,3.43573],[-54.02019,3.44263],[-54.01863,3.4473],[-54.01687,3.44771],[-54.01613,3.45849],[-54.0093,3.46421],[-54.00826,3.50445],[-54.00463,3.51598],[-53.99969,3.52588],[-54.00791,3.53283],[-54.00932,3.53724],[-54.00631,3.54322],[-54.00388,3.56303],[-53.997,3.57326],[-53.98892,3.5782],[-53.98548,3.58243],[-53.98394,3.58721],[-53.98463,3.59551],[-53.97997,3.60746],[-53.99009,3.61601],[-53.99436,3.6304],[-54.00295,3.64476],[-54.00763,3.64932],[-54.01397,3.65098],[-54.02509,3.64479],[-54.02784,3.63262],[-54.03095,3.63115],[-54.04151,3.63525],[-54.04563,3.63341],[-54.05098,3.63497],[-54.05244,3.64048],[-54.04958,3.64889],[-54.05143,3.65456],[-54.05685,3.66021],[-54.07384,3.66929],[-54.07934,3.67066],[-54.08334,3.67544],[-54.08669,3.68839],[-54.08586,3.69276],[-54.07865,3.70783],[-54.07899,3.7152],[-54.08414,3.7229],[-54.0965,3.73421],[-54.10148,3.75185],[-54.11281,3.76813],[-54.11916,3.78765],[-54.12684,3.79792],[-54.1377,3.80153],[-54.16036,3.80461],[-54.1698,3.80392],[-54.18285,3.79964],[-54.18686,3.79989],[-54.19195,3.80109],[-54.19844,3.80661],[-54.2012,3.8222],[-54.19643,3.82532],[-54.19457,3.83102],[-54.19007,3.83744],[-54.1892,3.84092],[-54.19143,3.84657],[-54.19531,3.85052],[-54.20808,3.85428],[-54.23041,3.85667],[-54.23657,3.86006],[-54.24317,3.87417],[-54.2486,3.88049],[-54.2529,3.89748],[-54.24833,3.9057],[-54.24886,3.90846],[-54.27692,3.92259],[-54.28937,3.93333],[-54.29293,3.94517],[-54.29678,3.94752],[-54.29627,3.95437],[-54.30178,3.9739],[-54.30223,3.98253],[-54.30623,3.9842],[-54.30729,3.98607],[-54.31031,3.99334],[-54.31081,3.99909],[-54.31886,4.015],[-54.32131,4.01635],[-54.33733,4.03758],[-54.34382,4.04368],[-54.34644,4.04483],[-54.35084,4.04326],[-54.35307,4.04409],[-54.35787,4.04906],[-54.35215,4.07315],[-54.34764,4.08155],[-54.34736,4.08696],[-54.34497,4.09051],[-54.34672,4.10259],[-54.34495,4.11248],[-54.34316,4.11552],[-54.33522,4.12074],[-54.32944,4.12911],[-54.32563,4.13193],[-54.32389,4.1357],[-54.32457,4.1482],[-54.33882,4.15368],[-54.34569,4.15864],[-54.35547,4.16874],[-54.36405,4.17234],[-54.36817,4.1761],[-54.385,4.17816],[-54.39032,4.18655],[-54.39599,4.20802],[-54.3927,4.2166],[-54.393,4.22553],[-54.39011,4.23211],[-54.38952,4.24184],[-54.38311,4.26153],[-54.38208,4.26889],[-54.39015,4.27968],[-54.39238,4.28738],[-54.39358,4.30364],[-54.39075,4.32486],[-54.38889,4.32795],[-54.39056,4.33221],[-54.3894,4.34125],[-54.38572,4.35092],[-54.38929,4.3579],[-54.39678,4.36638],[-54.40138,4.36929],[-54.40786,4.37015],[-54.41788,4.37706],[-54.41583,4.38759],[-54.41744,4.3927],[-54.41479,4.40272],[-54.41481,4.40937],[-54.41325,4.41168],[-54.41574,4.41621],[-54.42314,4.42068],[-54.43678,4.41617],[-54.44056,4.41972],[-54.44667,4.47389],[-54.45222,4.50917],[-54.44806,4.52556],[-54.43778,4.53583],[-54.4225,4.56194],[-54.42,4.57972],[-54.42,4.59333],[-54.42417,4.60972],[-54.43583,4.63917],[-54.43972,4.65556],[-54.43972,4.66917],[-54.43278,4.69639],[-54.43278,4.70333],[-54.43583,4.71417],[-54.44722,4.72306],[-54.46306,4.72778],[-54.47194,4.7325],[-54.47472,4.73667],[-54.4775,4.74778],[-54.47806,4.76056],[-54.47528,4.77833],[-54.47611,4.82556],[-54.47333,4.84333],[-54.47333,4.85694],[-54.47611,4.86778],[-54.48278,4.88139],[-54.48639,4.89861],[-54.485,4.90389],[-54.47944,4.91222],[-54.46778,4.92111],[-54.45879,4.92489],[-54.44525,4.93657],[-54.43993,4.94922],[-54.43928,4.95554],[-54.43913,4.96776],[-54.44143,4.98027],[-54.43666,4.99103],[-54.43758,5.01691],[-54.42573,5.03395],[-54.41467,5.06481],[-54.40849,5.07414],[-54.40556,5.08417],[-54.39528,5.09444],[-54.374,5.1089],[-54.36758,5.12553],[-54.36608,5.13445],[-54.36417,5.1375],[-54.35472,5.14167],[-54.34778,5.14833],[-54.34754,5.15845],[-54.34464,5.16385],[-54.335,5.17639],[-54.31833,5.20778],[-54.30067,5.23435],[-54.3725,5.26789],[-54.39502,5.27093],[-54.40418,5.27454],[-54.41464,5.28294],[-54.42278,5.29422],[-54.4363,5.3058],[-54.46129,5.31723],[-54.63976,5.38538],[-54.65669,5.39065],[-54.66565,5.38439],[-54.67157,5.37156],[-54.6798,5.35928],[-54.68308,5.34619],[-54.68185,5.33718],[-54.68719,5.31918],[-54.69994,5.29666],[-54.71062,5.29298],[-54.71679,5.27456],[-54.73323,5.27088],[-54.73529,5.2586],[-54.73077,5.23936],[-54.73611,5.22258],[-54.77927,5.19433],[-54.79325,5.17263],[-54.79654,5.12965],[-54.8175,5.07929],[-54.81627,5.0539],[-54.81997,5.03711],[-54.83435,5.00231],[-54.80792,4.99806],[-54.75502,4.96042],[-54.73177,4.92972],[-54.71724,4.89845],[-54.71433,4.88918],[-54.72363,4.87528],[-54.74049,4.86022],[-54.74688,4.84516],[-54.75444,4.82083],[-54.75037,4.79882],[-54.76316,4.76116],[-54.77421,4.74668],[-54.78351,4.71714],[-54.79281,4.70323],[-54.81257,4.69048],[-54.80734,4.65456],[-54.79978,4.62675],[-54.80327,4.58155],[-54.81083,4.54794],[-54.83292,4.52013],[-54.84571,4.49579],[-54.8771,4.4784],[-54.88233,4.45232],[-54.88349,4.38973],[-54.86896,4.36886],[-54.85908,4.3422],[-54.85733,4.31495],[-54.88291,4.25466],[-54.88117,4.23495],[-54.89977,4.21292],[-54.9207,4.18046],[-54.92826,4.14509],[-54.93639,4.14161],[-54.95732,4.15205],[-54.95907,4.17234],[-54.97592,4.17698],[-54.98581,4.18683],[-55.0079,4.18973],[-55.02069,4.18393],[-55.02592,4.17524],[-55.03231,4.14741],[-55.0422,4.13871],[-55.0608,4.13175],[-55.10382,4.12885],[-55.11486,4.12306],[-55.14044,4.09406],[-55.15555,4.07957],[-55.17415,4.07667],[-55.1945,4.06391],[-55.2224,4.04246],[-55.24856,4.02912],[-55.2724,4.0268],[-55.28635,4.03724],[-55.29798,4.05347],[-55.30379,4.09059],[-55.31542,4.36248],[-55.32646,4.47087],[-55.36468,4.49829],[-55.34965,4.69801],[-55.34907,4.75942],[-55.35372,4.83762],[-55.3729,4.90829],[-55.41592,4.98126],[-55.48546,5.08812]]]}},{"type":"Feature","properties":{"shapeName":"Wanica","shapeISO":"SR-WA","shapeID":"93550828B69998957246771","shapeGroup":"SUR","shapeType":"ADM1"},"geometry":{"type":"Polygon","coordinates":[[[-55.1469,5.78692],[-55.16338,5.77127],[-55.16428,5.77208],[-55.16729,5.76655],[-55.18408,5.77225],[-55.18333,5.77368],[-55.19609,5.7783],[-55.19566,5.77912],[-55.22967,5.7814],[-55.22472,5.79042],[-55.22136,5.79025],[-55.22069,5.79193],[-55.22178,5.81714],[-55.22375,5.81799],[-55.22559,5.82574],[-55.22962,5.826],[-55.22786,5.85515],[-55.2452,5.85625],[-55.24171,5.91022],[-55.24631,5.91185],[-55.31271,5.75908],[-55.3495,5.7642],[-55.35443,5.75336],[-55.35442,5.72648],[-55.35834,5.71217],[-55.35355,5.69438],[-55.34468,5.67732],[-55.34356,5.67013],[-55.22612,5.66772],[-55.19186,5.66332],[-55.18604,5.67483],[-55.17843,5.6847],[-55.17306,5.68336],[-55.17052,5.67656],[-55.11937,5.69248],[-55.11587,5.69007],[-55.11511,5.68529],[-55.12055,5.68103],[-55.12147,5.67182],[-55.09737,5.67911],[-55.09797,5.67521],[-55.08309,5.67139],[-55.08229,5.67689],[-55.07047,5.67559],[-55.06817,5.70199],[-55.08841,5.71279],[-55.09588,5.72022],[-55.10979,5.74281],[-55.12741,5.76626],[-55.1469,5.78692]]]}}]}